name,email,country,language,city,instagram,phone,organization,type,notes
World Wildlife Fund Pakistan,,PAK,ur,Karachi,@wwfpak,,WWF Pakistan,other,Prominent environmental NGO in Pakistan
Indus Earth Trust,,PAK,ur,Karachi,@indusearthtrust,,Indus Earth Trust,other,Focuses on sustainable development in coastal areas
Pakistan Fisherfolk Forum,,PAK,ur,Karachi,@pakistanfisherfolkforum,,Pakistan Fisherfolk Forum,other,Advocates for fisherfolk rights and marine conservation
The Urban Unit,,PAK,ur,Karachi,@theurbanunit,,The Urban Unit,other,Urban planning and development organization
Shehri-Citizens for a Better Environment,,PAK,ur,Karachi,@shehri_cbe,,Shehri-CBE,other,Advocates for urban environmental issues
Pakistan Institute of International Affairs,,PAK,ur,Karachi,@piiakhi,,PIIA,other,Focuses on geopolitics and international relations
Karachi Conservation,,PAK,ur,Karachi,@karachiconservation,,Karachi Conservation,other,Works on urban conservation projects
Pakistan Youth Climate Network,,PAK,ur,Karachi,@pycn_official,,PYCN,other,Youth-led climate action network
Green Crescent Trust,,PAK,ur,Karachi,@greencrescenttrust,,Green Crescent Trust,other,Focuses on education and environmental awareness
Karachi Relief Trust,,PAK,ur,Karachi,@karachirelieftrust,,Karachi Relief Trust,other,Disaster management and relief organization
Pakistan Red Crescent Society,,PAK,ur,Karachi,@prcsindh,,PRCS Sindh,other,Humanitarian aid and disaster response
IUCN Pakistan,,PAK,ur,Karachi,@iucnpakistan,,IUCN Pakistan,other,International conservation organization
Pakistan Green Building Council,,PAK,ur,Karachi,@pakgbc,,Pakistan Green Building Council,other,Promotes sustainable building practices
Karachi Biennale Trust,,PAK,ur,Karachi,@karachibiennale,,Karachi Biennale Trust,other,Art and culture for social change
Pakistan Peace Collective,,PAK,ur,Karachi,@pakpeacecollective,,Pakistan Peace Collective,other,Promotes peace and conflict resolution
The Citizens Foundation,,PAK,ur,Karachi,@tcfpk,,The Citizens Foundation,other,Education and community development
Karachi Urban Lab,,PAK,ur,Karachi,@karachiurbanlab,,Karachi Urban Lab,other,Research on urban issues and policy
Pakistan Youth Parliament for Water,,PAK,ur,Karachi,@pypwater,,PYPW,other,Youth-led water conservation initiative
Karachi Community Radio,,PAK,ur,Karachi,@karachicommunityradio,,Karachi Community Radio,other,Community radio promoting local culture and issues
Pakistan Environmental Protection Agency,,PAK,ur,Karachi,@epapakistan,,EPA Pakistan,other,Government agency for environmental regulation
Karachi Literature Festival,,PAK,ur,Karachi,@karachilitfest,,Karachi Literature Festival,other,Promotes literature and cultural dialogue
Pakistan Institute of Labour Education & Research,,PAK,ur,Karachi,@pilerpk,,PILER,other,Focuses on labor rights and social justice
Karachi Youth Initiative,,PAK,ur,Karachi,@karachiyouthinitiative,,Karachi Youth Initiative,other,Empowers youth for social change
Pakistan Maritime Security Agency,,PAK,ur,Karachi,@pmsa_official,,PMSA,other,Maritime security and environmental protection
Karachi School of Business & Leadership,,PAK,ur,Karachi,@ksblpk,,KSBL,other,Business school with focus on leadership
Pakistan Science Club,,PAK,ur,Karachi,@paksc,,Pakistan Science Club,other,Promotes science education and innovation
Karachi Down Syndrome Program,,PAK,ur,Karachi,@karachidsp,,KDSP,other,Supports individuals with Down syndrome
Pakistan Institute of Development Economics,,PAK,ur,Karachi,@pidepk,,PIDE,other,Research on economic development
Karachi Relief Foundation,,PAK,ur,Karachi,@karachirelieffoundation,,Karachi Relief Foundation,other,Provides disaster relief and support
Pakistan Youth Hostels Association,,PAK,ur,Karachi,@pyhaofficial,,PYHA,other,Promotes youth travel and cultural exchange
Karachi Institute of Technology and Entrepreneurship,,PAK,ur,Karachi,@kitepk,,KITE,other,Focuses on technology and entrepreneurship education
Pakistan Institute of Legislative Development and Transparency,,PAK,ur,Karachi,@pildat,,PILDAT,other,Promotes democratic governance and policy research
Karachi Arts Council,,PAK,ur,Karachi,@artscouncilpk,,Karachi Arts Council,other,Promotes arts and cultural activities
Pakistan Institute of Fashion and Design,,PAK,ur,Karachi,@pifdofficial,,PIFD,other,Focuses on fashion and design education
Karachi Institute of Business Administration,,PAK,ur,Karachi,@ibakarachi,,IBA Karachi,other,Leading business school in Karachi
Pakistan Institute of Management,,PAK,ur,Karachi,@pim_official,,PIM,other,Management training and development
Karachi Institute of Economics and Technology,,PAK,ur,Karachi,@pafkiet,,PAF-KIET,other,Focuses on economics and technology education
Pakistan Institute of Public Finance Accountants,,PAK,ur,Karachi,@pipfaofficial,,PIPFA,other,Professional body for finance and accounting
The Urban Resource Centre,,PAK,ur,Karachi,@urbanresourcecentre,,Urban Resource Centre,other,Research on urban issues
The Karachi Walla,,PAK,ur,Karachi,@thekarachiwalla,,The Karachi Walla,other,Cultural and environmental insights
Pakistan Environmental Protection Agency,,PAK,ur,Karachi,@pakepak,,Pak-EPA,other,Environmental regulation and protection
Pakistan Animal Welfare Society,,PAK,ur,Karachi,@pawspakistan,,PAWS,other,Animal rights and welfare
Pakistan Youth Alliance,,PAK,ur,Karachi,@pakyouthalliance,,Pakistan Youth Alliance,other,Youth empowerment and activism
Karachi Relief Initiative,,PAK,ur,Karachi,@karachireliefinitiative,,Karachi Relief Initiative,other,Community support and relief efforts
Pakistan Business Council,,PAK,ur,Karachi,@pakbusinesscouncil,,Pakistan Business Council,other,Business advocacy and policy
Karachi Water Partnership,,PAK,ur,Karachi,@karachiwaterpartnership,,Karachi Water Partnership,other,Water management and conservation
Pakistan Institute of Peace Studies,,PAK,ur,Karachi,@pips_pak,,PIPS,other,Research on peace and conflict
Karachi Social Enterprise,,PAK,ur,Karachi,@karachisocialenterprise,,Karachi Social Enterprise,other,Social entrepreneurship and innovation
Pakistan Institute of Fashion and Design,,PAK,ur,Karachi,@pifdpk,,PIFD,other,Fashion and design education
Karachi Urban Forest,,PAK,ur,Karachi,@karachiurbanforest,,Karachi Urban Forest,other,Urban reforestation and greening
Karachi Green Alliance,,PAK,ur,Karachi,@karachigreenalliance,,Karachi Green Alliance,other,Environmental advocacy and action
Pakistan Institute of Corporate Governance,,PAK,ur,Karachi,@picgpk,,PICG,other,Corporate governance and ethics
Karachi Wildlife Society,,PAK,ur,Karachi,@karachiwildlifesociety,,Karachi Wildlife Society,other,Wildlife conservation and protection
Karachi Environmental Protection Agency,,PAK,ur,Karachi,@karachiepa,,Karachi EPA,other,Environmental regulation and policy
Karachi Urban Development Authority,,PAK,ur,Karachi,@karachiuda,,Karachi UDA,other,Urban planning and development
Pakistan Institute of Labour Studies,,PAK,ur,Karachi,@pils_pak,,PILS,other,Labour rights and education
Karachi Biodiversity Initiative,,PAK,ur,Karachi,@karachibiodiversity,,Karachi Biodiversity Initiative,other,Biodiversity conservation efforts
Pakistan Institute of Public Policy,,PAK,ur,Karachi,@pippk,,PIPP,other,Public policy research and analysis
Karachi Environmental Awareness Society,,PAK,ur,Karachi,@karachienvironmentalsociety,,Karachi Environmental Society,other,Environmental education and awareness
Pakistan Institute of Social Sciences,,PAK,ur,Karachi,@pisspk,,PISS,other,Social science research and advocacy
Karachi Climate Action Network,,PAK,ur,Karachi,@karachiclimateaction,,Karachi Climate Action Network,other,Climate change advocacy and action
Pakistan Institute of Environmental Management,,PAK,ur,Karachi,@piempk,,PIEM,other,Environmental management and policy
Karachi Peace Initiative,,PAK,ur,Karachi,@karachipeaceinitiative,,Karachi Peace Initiative,other,Peacebuilding and conflict resolution
Pakistan Institute of Urban Studies,,PAK,ur,Karachi,@piuspk,,PIUS,other,Urban studies and research
Karachi Nature Conservation Society,,PAK,ur,Karachi,@karachinatureconservation,,Karachi Nature Conservation Society,other,Nature conservation and protection
Pakistan Institute of Development Studies,,PAK,ur,Karachi,@pids_pk,,PIDS,other,Development studies and research
Karachi Environmental Network,,PAK,ur,Karachi,@karachienvironmentalnetwork,,Karachi Environmental Network,other,Environmental advocacy and networking
Pakistan Institute of Peace and Conflict Studies,,PAK,ur,Karachi,@pipcs_pk,,PIPCS,other,Peace and conflict studies
Karachi Urban Planning Society,,PAK,ur,Karachi,@karachiurbanplanning,,Karachi Urban Planning Society,other,Urban planning and development
Pakistan Institute of Environmental Sciences,,PAK,ur,Karachi,@piespk,,PIES,other,Environmental science research
Karachi Peace and Development Network,,PAK,ur,Karachi,@karachipeacedevelopment,,Karachi Peace and Development Network,other,Peace and development initiatives
Pakistan Institute of Social Research,,PAK,ur,Karachi,@pisrpk,,PISR,other,Social research and policy analysis
Karachi Biodiversity Network,,PAK,ur,Karachi,@karachibiodiversitynetwork,,Karachi Biodiversity Network,other,Biodiversity research and advocacy
Pakistan Institute of Urban Planning,,PAK,ur,Karachi,@piupk,,PIUP,other,Urban planning and policy
Karachi Environmental Research Institute,,PAK,ur,Karachi,@karachienvironmentalresearch,,Karachi Environmental Research Institute,other,Environmental research and innovation
Pakistan Institute of Peacebuilding,,PAK,ur,Karachi,@pipbpk,,PIPB,other,Peacebuilding and conflict resolution
Karachi Urban Ecology Society,,PAK,ur,Karachi,@karachiurbanecology,,Karachi Urban Ecology Society,other,Urban ecology and sustainability
Pakistan Institute of Environmental Policy,,PAK,ur,Karachi,@pieppk,,PIEP,other,Environmental policy and governance
Karachi Peace and Conflict Resolution Center,,PAK,ur,Karachi,@karachipeaceconflict,,Karachi Peace and Conflict Resolution Center,other,Conflict resolution and peacebuilding
Pakistan Institute of Urban Ecology,,PAK,ur,Karachi,@piuepk,,PIUE,other,Urban ecology research and advocacy
Karachi Environmental Policy Institute,,PAK,ur,Karachi,@karachienvironmentalpolicy,,Karachi Environmental Policy Institute,other,Environmental policy research
Pakistan Institute of Peace and Development,,PAK,ur,Karachi,@pipdpk,,PIPD,other,Peace and development research
Karachi Urban Sustainability Network,,PAK,ur,Karachi,@karachiurbansustainability,,Karachi Urban Sustainability Network,other,Urban sustainability initiatives
Pakistan Institute of Environmental Research,,PAK,ur,Karachi,@pierpk,,PIER,other,Environmental research and development
Karachi Peacebuilding Initiative,,PAK,ur,Karachi,@karachipeacebuilding,,Karachi Peacebuilding Initiative,other,Peacebuilding and community engagement
Pakistan Institute of Urban Development,,PAK,ur,Karachi,@piudpk,,PIUD,other,Urban development research and policy
Karachi Environmental Advocacy Group,,PAK,ur,Karachi,@karachienvironmentaladvocacy,,Karachi Environmental Advocacy Group,other,Environmental advocacy and awareness
Pakistan Institute of Peace and Security,,PAK,ur,Karachi,@pipspk,,PIPS,other,Peace and security research
Karachi Urban Innovation Hub,,PAK,ur,Karachi,@karachiurbaninnovation,,Karachi Urban Innovation Hub,other,Urban innovation and development
Pakistan Institute of Environmental Advocacy,,PAK,ur,Karachi,@pieapk,,PIEA,other,Environmental advocacy and policy
Karachi Peace and Security Network,,PAK,ur,Karachi,@karachipeacesecurity,,Karachi Peace and Security Network,other,Peace and security initiatives
Pakistan Institute of Urban Innovation,,PAK,ur,Karachi,@piuipk,,PIUI,other,Urban innovation and research
Karachi Environmental Innovation Center,,PAK,ur,Karachi,@karachienvironmentalinnovation,,Karachi Environmental Innovation Center,other,Environmental innovation and solutions
Pakistan Institute of Peace and Development Studies,,PAK,ur,Karachi,@pipdspk,,PIPDS,other,Peace and development studies
Karachi Urban Development Network,,PAK,ur,Karachi,@karachiurbandevelopment,,Karachi Urban Development Network,other,Urban development and planning
Pakistan Institute of Environmental Solutions,,PAK,ur,Karachi,@piesolutionspk,,PIES,other,Environmental solutions and innovation
Karachi Peace and Development Initiative,,PAK,ur,Karachi,@karachipeacedevelopmentinitiative,,Karachi Peace and Development Initiative,other,Peace and development projects
Pakistan Institute of Urban Solutions,,PAK,ur,Karachi,@piusolutionspk,,PIUS,other,Urban solutions and innovation
Karachi Environmental Solutions Network,,PAK,ur,Karachi,@karachienvironmentalsolutions,,Karachi Environmental Solutions Network,other,Environmental solutions and advocacy
Pakistan Institute of Peace and Security Studies,,PAK,ur,Karachi,@pipsspk,,PIPSS,other,Peace and security studies
