name,email,country,language,city,instagram,phone,organization,type,notes
SEO/BirdLife,,ESP,es,Madrid,@seobirdlife,,,ngo,Focus on bird conservation and biodiversity
Greenpeace España,,ESP,es,Madrid,@greenpeace_esp,,,ngo,Environmental protection and climate action
Ecologistas en Acción,,ESP,es,Madrid,@ecologistas,,,ngo,Environmental justice and sustainability
Amigos de la Tierra España,,ESP,es,Madrid,@amigosdelatierramadrid,,,ngo,Focus on climate change and resource use
Fundación Biodiversidad,,ESP,es,Madrid,@fundacionbiodiversidad,,,ngo,Promotes biodiversity conservation
WWF España,,ESP,es,Madrid,@wwfespana,,,ngo,Nature conservation and climate action
Fundación Global Nature,,ESP,es,Madrid,@fundacionglobalnature,,,ngo,Biodiversity and sustainable agriculture
Asociación Española de Educación Ambiental,,ESP,es,Madrid,@aeamadrid,,,ngo,Environmental education and awareness
Fundación Renovables,,ESP,es,Madrid,@fundacionrenovables,,,ngo,Promotes renewable energy use
Acción contra el Hambre,,ESP,es,Madrid,@accioncontraelhambre,,,ngo,Addresses hunger and climate impacts
Fundación Ecología y Desarrollo (ECODES),,ESP,es,Madrid,@ecodes_org,,,ngo,Sustainable development and climate action
Fundación Entorno,,ESP,es,Madrid,@fundacionentorno,,,ngo,Corporate sustainability and environment
Fundación Félix Rodríguez de la Fuente,,ESP,es,Madrid,@fundacionfelix,,,ngo,Nature conservation and education
Fundación Oso Pardo,,ESP,es,Madrid,@fundacionosopardo,,,ngo,Bear conservation and habitat protection
Fundación para la Conservación del Quebrantahuesos,,ESP,es,Madrid,@quebrantahuesos,,,ngo,Vulture conservation and biodiversity
Fundación Naturaleza y Hombre,,ESP,es,Madrid,@fundacionnaturalezayhombre,,,ngo,Nature conservation and restoration
Fundación Rewilding Iberia,,ESP,es,Madrid,@rewildingiberia,,,ngo,Rewilding and ecosystem restoration
Fundación Transición Verde,,ESP,es,Madrid,@transicionverde,,,ngo,Promotes green transition and sustainability
Fundación Vida Sostenible,,ESP,es,Madrid,@vidasostenible,,,ngo,Sustainable living and environmental education
Fundación Zerynthia,,ESP,es,Madrid,@fundacionzerynthia,,,ngo,Butterfly conservation and biodiversity
Instituto Internacional de Derecho y Medio Ambiente (IIDMA),,ESP,es,Madrid,@iidma_ong,,,ngo,Environmental law and policy advocacy
Plataforma por un Nuevo Modelo Energético,,ESP,es,Madrid,@nuevomodeloenergetico,,,ngo,Energy transition and climate policy
Red Española de Desarrollo Rural,,ESP,es,Madrid,@redruralnacional,,,ngo,Rural development and sustainability
Survival International España,,ESP,es,Madrid,@survivalinternational,,,ngo,Indigenous rights and environmental protection
Unión Internacional para la Conservación de la Naturaleza (UICN),,ESP,es,Madrid,@uicn_es,,,ngo,Global nature conservation efforts
"Fundación Alianza por los Derechos, la Igualdad y la Solidaridad Internacional (ALDIA)",,ESP,es,Madrid,@fundacionaldia,,,ngo,Human rights and environmental justice
Fundación Alternativas,,ESP,es,Madrid,@fundacionalternativas,,,ngo,Policy research on sustainability and environment
Fundación Anesvad,,ESP,es,Madrid,@fundacionanesvad,,,ngo,Health and environmental impacts
Fundación Botín,,ESP,es,Madrid,@fundacionbotin,,,ngo,Water management and environmental projects
Fundación CODESPA,,ESP,es,Madrid,@fundacioncodespa,,,ngo,Development and environmental sustainability
Fundación Conama,,ESP,es,Madrid,@conama_org,,,ngo,Environmental congress and sustainability
Fundación CRAM,,ESP,es,Madrid,@fundacioncram,,,ngo,Marine conservation and biodiversity
Fundación Ecomar,,ESP,es,Madrid,@fundacionecomar,,,ngo,Marine environment and education
Fundación EDE,,ESP,es,Madrid,@fundacionede,,,ngo,Social and environmental projects
Fundación Energía Sin Fronteras,,ESP,es,Madrid,@energiasinfronteras,,,ngo,Energy access and sustainability
Fundación Fernando González Bernáldez,,ESP,es,Madrid,@fundacionfgb,,,ngo,Protected areas and biodiversity
Fundación Grupo Tragsa,,ESP,es,Madrid,@grupotragsa,,,ngo,Environmental and rural development
Fundación Juan XXIII Roncalli,,ESP,es,Madrid,@fundacionjuanxxiii,,,ngo,Social inclusion and environment
Fundación Lurgaia,,ESP,es,Madrid,@fundacionlurgaia,,,ngo,Forest conservation and biodiversity
Fundación Mapfre,,ESP,es,Madrid,@fundacionmapfre,,,ngo,Social and environmental projects
Fundación Metrópoli,,ESP,es,Madrid,@fundacionmetropoli,,,ngo,Urban sustainability and innovation
Fundación Oxígeno,,ESP,es,Madrid,@fundacionoxigeno,,,ngo,Environmental education and conservation
Asociación Española de Fundaciones,,ESP,es,Madrid,@fundaciones_es,,,ngo,"Network of Spanish foundations, including environmental ones"
Fundación Naturaleza y Hombre,,ESP,es,Madrid,@fundacionnyh,,,ngo,Biodiversity conservation and restoration
Fundación Aquae,,ESP,es,Madrid,@fundacionaquae,,,ngo,Focus on water sustainability and climate
Fundación Biodiversidad y Desarrollo,,ESP,es,Madrid,@fundacionbiodiversidadydesarrollo,,,ngo,Promotes biodiversity and sustainable development
Amigos de la Tierra España,,ESP,es,Madrid,@amigosdelatierraspain,,,ngo,Environmental justice and sustainability
Asociación Española de Fundaciones,,ESP,es,Madrid,@aefundaciones,,,ngo,Supports foundation sector in Spain
Fundación Alternativas,,ESP,es,Madrid,@f_alternativas,,,ngo,Research on social and political issues
Fundación Entreculturas,,ESP,es,Madrid,@entreculturas,,,ngo,Education and social development
Fundación Tomillo,,ESP,es,Madrid,@fundaciontomillo,,,ngo,Social integration and education
Fundación Triodos,,ESP,es,Madrid,@fundaciontriodos,,,ngo,Sustainable finance and development
Fundación ONCE,,ESP,es,Madrid,@fundaciononce,,,ngo,Disability rights and inclusion
Fundación Telefónica,,ESP,es,Madrid,@fundaciontelefonica,,,ngo,Education and digital innovation
Fundación La Caixa,,ESP,es,Madrid,@fundlacaixa,,,ngo,Social and cultural projects
Fundación Repsol,,ESP,es,Madrid,@fundacionrepsol,,,ngo,Energy transition and social impact
Fundación Endesa,,ESP,es,Madrid,@fundacionendesa,,,ngo,Education and energy efficiency
Fundación Naturgy,,ESP,es,Madrid,@fundacionnaturgy,,,ngo,Energy and environmental education
Fundación Iberdrola,,ESP,es,Madrid,@fundacioniberdrola,,,ngo,Energy and environmental sustainability
Fundación Mutua Madrileña,,ESP,es,Madrid,@fundacionmutua,,,ngo,Social welfare and health research
Fundación Cepsa,,ESP,es,Madrid,@fundacioncepsa,,,ngo,Social value and environmental care
Fundación Abertis,,ESP,es,Madrid,@fundacionabertis,,,ngo,Infrastructure and social responsibility
Fundación Acciona,,ESP,es,Madrid,@fundacionacciona,,,ngo,Sustainability and social innovation
Fundación EDP,,ESP,es,Madrid,@fundacionedp,,,ngo,Energy and social development
Fundación Mahou San Miguel,,ESP,es,Madrid,@fundacionmahou,,,ngo,Social and cultural projects
Fundación Orange,,ESP,es,Madrid,@fundacionorange,,,ngo,Digital inclusion and education
Fundación Vodafone España,,ESP,es,Madrid,@fundacionvodafone,,,ngo,Technology and social innovation
Fundación Randstad,,ESP,es,Madrid,@fundacionrandstad,,,ngo,Employment and social inclusion
Fundación Seres,,ESP,es,Madrid,@fundacionseres,,,ngo,Corporate social responsibility
Fundación Adecco,,ESP,es,Madrid,@fundacionadecco,,,ngo,Employment for vulnerable groups
Fundación Bertelsmann,,ESP,es,Madrid,@fundacionbertelsmann,,,ngo,Youth employment and education
Fundación Cotec,,ESP,es,Madrid,@fundacioncotec,,,ngo,Innovation and economic development
Fundación PwC,,ESP,es,Madrid,@fundacionpwc,,,ngo,Social impact and education
Fundación EY,,ESP,es,Madrid,@fundacioney,,,ngo,Education and social entrepreneurship
Fundación Deloitte,,ESP,es,Madrid,@fundaciondeloitte,,,ngo,Social projects and education
Fundación KPMG,,ESP,es,Madrid,@fundacionkpmg,,,ngo,Social responsibility and education
Fundación Garrigues,,ESP,es,Madrid,@fundaciongarrigues,,,ngo,Legal education and social projects
Fundación Cuatrecasas,,ESP,es,Madrid,@fundacioncuatrecasas,,,ngo,Legal and social responsibility
Fundación Fernando Pombo,,ESP,es,Madrid,@fundacionfpombo,,,ngo,Legal aid and social justice
Fundación Pro Bono España,,ESP,es,Madrid,@fundacionprobono,,,ngo,Legal services for NGOs
Fundación Lealtad,,ESP,es,Madrid,@fundacionlealtad,,,ngo,Transparency and accountability in NGOs
Fundación Hazloposible,,ESP,es,Madrid,@hazloposible,,,ngo,Volunteerism and social projects
Fundación Anar,,ESP,es,Madrid,@fundacionanar,,,ngo,Child protection and support
Fundación Menudos Corazones,,ESP,es,Madrid,@menudoscorazones,,,ngo,Support for children with heart disease
Fundación Theodora,,ESP,es,Madrid,@fundaciontheodora,,,ngo,Hospital visits for children
Fundación Aladina,,ESP,es,Madrid,@fundacionaladina,,,ngo,Support for children with cancer
Fundación Juegaterapia,,ESP,es,Madrid,@juegaterapia,,,ngo,Play therapy for hospitalized children
Fundación Pequeño Deseo,,ESP,es,Madrid,@fpdeseo,,,ngo,Grants wishes for sick children
Fundación Vicente Ferrer,,ESP,es,Madrid,@fvf_es,,,ngo,Development projects in India
Fundación Khanimambo,,ESP,es,Madrid,@fundacionkhanimambo,,,ngo,Support for children in Mozambique
Fundación Agua de Coco,,ESP,es,Madrid,@aguadecoco,,,ngo,Education and health in Madagascar
Fundación Mozambique Sur,,ESP,es,Madrid,@mozambiquesur,,,ngo,Development projects in Mozambique
Fundación Mainel,,ESP,es,Madrid,@fundacionmainel,,,ngo,Cultural and social projects
Fundación Ayuda en Acción,,ESP,es,Madrid,@ayudaenaccion,,,ngo,Development and humanitarian aid
Fundación Plan International,,ESP,es,Madrid,@planint_es,,,ngo,Child rights and development
Fundación Save the Children,,ESP,es,Madrid,@savethechildren_es,,,ngo,Child protection and education
Fundación Aldeas Infantiles SOS,,ESP,es,Madrid,@aldeasinfantiles,,,ngo,Child care and family support
Fundación Educo,,ESP,es,Madrid,@fundacioneduco,,,ngo,Education and child rights
Fundación para la Conservación del Quebrantahuesos,,ESP,es,Madrid,@fcq_org,,,ngo,Conservation of bearded vultures
Green Building Council España,,ESP,es,Madrid,@gbce_es,,,ngo,Sustainable building practices
