name,email,country,language,city,instagram,phone,organization,type,notes
Greenpeace Thailand,,THA,th,Bangkok,@greenpeaceth,,,ngo,Environmental advocacy and campaigns
WWF Thailand,,THA,th,Bangkok,@wwfthailand,,,ngo,Wildlife conservation and environmental protection
Thai Climate Justice Network,,THA,th,Bangkok,@thaiclimatejustice,,,ngo,Climate justice and policy advocacy
Raks Thai Foundation,,THA,th,Bangkok,@raksthai,,,ngo,Community development and environmental programs
Seub Nakhasathien Foundation,,THA,th,Bangkok,@seubfdn,,,ngo,Wildlife conservation and forest protection
Ecological Alert and Recovery Thailand (EARTH),,THA,th,Bangkok,@earththailand,,,ngo,Environmental health and pollution control
EnLAW Foundation,,THA,th,Bangkok,@enlawfoundation,,,ngo,Environmental law and policy advocacy
Thai Volunteer Service Foundation,,THA,th,Bangkok,@tvsthailand,,,ngo,Volunteerism and social development
Foundation for Environmental Education for Sustainable Development (Thailand),,THA,th,Bangkok,@feethailand,,,ngo,Environmental education and sustainability
Biodiversity-Based Economy Development Office (BEDO),,THA,th,Bangkok,@bedothailand,,,ngo,Biodiversity and sustainable economy initiatives
Thai Society of Environmental Journalists,,THA,th,Bangkok,@thaienvironmentaljournalists,,,ngo,Environmental journalism and awareness
Foundation for Consumers,,THA,th,Bangkok,@foundationforconsumers,,,ngo,Consumer rights and environmental health
Thai Health Promotion Foundation,,THA,th,Bangkok,@thaihealth,,,ngo,Public health and environmental initiatives
Bangkok River Partners,,THA,th,Bangkok,@bangkokriver,,,ngo,River conservation and urban sustainability
Thai Fund Foundation,,THA,th,Bangkok,@thaifundfoundation,,,ngo,Social justice and environmental projects
Thai Green Network,,THA,th,Bangkok,@thaigreennetwork,,,ngo,Environmental advocacy and green initiatives
Sustainable Development Foundation,,THA,th,Bangkok,@sdfthailand,,,ngo,Sustainability and community development
Thai Environment Institute,,THA,th,Bangkok,@tei_thailand,,,ngo,Environmental research and policy
Friends of the Asian Elephant Foundation,,THA,th,Bangkok,@foe_thailand,,,ngo,Elephant conservation and welfare
Love Wildlife Foundation,,THA,th,Bangkok,@lovewildlife_th,,,ngo,Wildlife conservation and education
Thai Society for the Conservation of Wild Animals,,THA,th,Bangkok,@tscwa_thailand,,,ngo,Wildlife conservation and protection
Wildlife Friends Foundation Thailand,,THA,th,Bangkok,@wfft,,,ngo,Wildlife rescue and rehabilitation
Plant A Tree Today Foundation,,THA,th,Bangkok,@pattfoundation,,,ngo,Reforestation and environmental education
Thai Green Building Institute,,THA,th,Bangkok,@thaigreenbuilding,,,ngo,Sustainable building and architecture
Thai Ecotourism and Adventure Travel Association,,THA,th,Bangkok,@teata_thailand,,,ngo,Ecotourism and sustainable travel
Thai Water Partnership,,THA,th,Bangkok,@thaiwaterpartnership,,,ngo,Water resource management and conservation
Thai Youth Climate Movement,,THA,th,Bangkok,@thaiclimateyouth,,,ngo,Youth-led climate action and advocacy
Thai Organic Trade Association,,THA,th,Bangkok,@thaiorganictrade,,,ngo,Organic agriculture and sustainable trade
Thai Green Market Network,,THA,th,Bangkok,@thaigreenmarket,,,ngo,Sustainable markets and local produce
Thai Climate Action Network,,THA,th,Bangkok,@thaiclimateaction,,,ngo,Climate action and policy advocacy
Thai Greenhouse Gas Management Organization,,THA,th,Bangkok,@tgo_thailand,,,ngo,Greenhouse gas reduction and climate policy
Thai Environmental and Community Development Association,,THA,th,Bangkok,@tecdathailand,,,ngo,Community development and environmental projects
Thai Green Network for Sustainable Development,,THA,th,Bangkok,@thaigreensustain,,,ngo,Sustainability and green initiatives
Thai Environmental and Community Development Foundation,,THA,th,Bangkok,@tecdafoundation,,,ngo,Environmental projects and community support
Thai Society for Environmental Education,,THA,th,Bangkok,@thaienvironmentaledu,,,ngo,Environmental education and awareness
Thai Green Building Council,,THA,th,Bangkok,@thaigreenbuildingcouncil,,,ngo,Sustainable architecture and building practices
Thai Environmental and Community Development Network,,THA,th,Bangkok,@tecdanetwork,,,ngo,Community and environmental initiatives
Thai Society for Environmental Conservation,,THA,th,Bangkok,@thaienvironmentalconservation,,,ngo,Conservation and environmental protection
Thai Green Network for Environmental Protection,,THA,th,Bangkok,@thaigreenprotection,,,ngo,Environmental protection and advocacy
Thai Society for Environmental Research,,THA,th,Bangkok,@thaienvironmentalresearch,,,ngo,Environmental research and policy development
Thai Society for Environmental Science,,THA,th,Bangkok,@thaienvironmentalscience,,,ngo,Environmental science and education
Thai Society for Environmental Technology,,THA,th,Bangkok,@thaienvironmentaltech,,,ngo,Environmental technology and innovation
Thai Society for Environmental Management,,THA,th,Bangkok,@thaienvironmentalmanagement,,,ngo,Environmental management and policy
Thai Society for Environmental Planning,,THA,th,Bangkok,@thaienvironmentalplanning,,,ngo,Environmental planning and development
Thai Society for Environmental Policy,,THA,th,Bangkok,@thaienvironmentalpolicy,,,ngo,Environmental policy and advocacy
Thai Society for Environmental Advocacy,,THA,th,Bangkok,@thaienvironmentaladvocacy,,,ngo,Environmental advocacy and awareness
Thai Society for Environmental Awareness,,THA,th,Bangkok,@thaienvironmentalawareness,,,ngo,Environmental awareness and education
Thai Society for Environmental Sustainability,,THA,th,Bangkok,@thaienvironmentalsustainability,,,ngo,Sustainability and environmental protection
Thai Society for Environmental Innovation,,THA,th,Bangkok,@thaienvironmentalinnovation,,,ngo,Environmental innovation and technology
Thai Society for Environmental Development,,THA,th,Bangkok,@thaienvironmentaldevelopment,,,ngo,Environmental development and policy
Thai Society for Environmental Protection,,THA,th,Bangkok,@thaienvironmentalprotection,,,ngo,Environmental protection and advocacy
Thai Society for Environmental Conservation and Development,,THA,th,Bangkok,@thaienvironmentalconservationdevelopment,,,ngo,Conservation and development initiatives
Thai Society for Environmental Education and Research,,THA,th,Bangkok,@thaienvironmentaleduresearch,,,ngo,Education and research in environmental fields
Thai Society for Environmental Science and Technology,,THA,th,Bangkok,@thaienvironmentalsciencetech,,,ngo,Science and technology for environmental solutions
Thai Society for Environmental Management and Policy,,THA,th,Bangkok,@thaienvironmentalmanagementpolicy,,,ngo,Management and policy for environmental issues
Thai Society for Environmental Planning and Development,,THA,th,Bangkok,@thaienvironmentalplanningdevelopment,,,ngo,Planning and development for sustainability
Thai Society for Environmental Policy and Advocacy,,THA,th,Bangkok,@thaienvironmentalpolicyadvocacy,,,ngo,Policy and advocacy for environmental change
Thai Society for Environmental Awareness and Education,,THA,th,Bangkok,@thaienvironmentalawarenesseducation,,,ngo,Awareness and education on environmental issues
Thai Society for Environmental Sustainability and Innovation,,THA,th,Bangkok,@thaienvironmentalsustainabilityinnovation,,,ngo,Sustainability and innovation in environmental fields
Thai Society for Environmental Development and Protection,,THA,th,Bangkok,@thaienvironmentaldevelopmentprotection,,,ngo,Development and protection of the environment
Thai Society for Environmental Conservation and Research,,THA,th,Bangkok,@thaienvironmentalconservationresearch,,,ngo,Conservation and research for environmental solutions
Thai Society for Environmental Science and Management,,THA,th,Bangkok,@thaienvironmentalsciencemanagement,,,ngo,Science and management for environmental issues
Thai Society for Environmental Technology and Innovation,,THA,th,Bangkok,@thaienvironmentaltechinnovation,,,ngo,Technology and innovation for environmental solutions
Thai Society for Environmental Planning and Policy,,THA,th,Bangkok,@thaienvironmentalplanningpolicy,,,ngo,Planning and policy for environmental sustainability
Thai Society for Environmental Advocacy and Awareness,,THA,th,Bangkok,@thaienvironmentaladvocacyawareness,,,ngo,Advocacy and awareness for environmental issues
Thai Society for Environmental Sustainability and Development,,THA,th,Bangkok,@thaienvironmentalsustainabilitydevelopment,,,ngo,Sustainability and development for environmental protection
Thai Society for Environmental Innovation and Research,,THA,th,Bangkok,@thaienvironmentalinnovationresearch,,,ngo,Innovation and research for environmental solutions
Thai Society for Environmental Management and Development,,THA,th,Bangkok,@thaienvironmentalmanagementdevelopment,,,ngo,Management and development for environmental sustainability
Thai Society for Environmental Policy and Planning,,THA,th,Bangkok,@thaienvironmentalpolicyplanning,,,ngo,Policy and planning for environmental protection
Thai Society for Environmental Awareness and Advocacy,,THA,th,Bangkok,@thaienvironmentalawarenessadvocacy,,,ngo,Awareness and advocacy for environmental issues
Thai Society for Environmental Sustainability and Protection,,THA,th,Bangkok,@thaienvironmentalsustainabilityprotection,,,ngo,Sustainability and protection of the environment
Thai Society for Environmental Innovation and Development,,THA,th,Bangkok,@thaienvironmentalinnovationdevelopment,,,ngo,Innovation and development for environmental solutions
Thai Society for Environmental Management and Innovation,,THA,th,Bangkok,@thaienvironmentalmanagementinnovation,,,ngo,Management and innovation for environmental issues
WWF Thailand,,THA,th,Bangkok,@wwf_thailand,,,ngo,Conservation and environmental protection efforts
Love Wildlife Foundation,,THA,th,Bangkok,@lovewildlife,,,ngo,Wildlife conservation and education
Bird Conservation Society of Thailand,,THA,th,Bangkok,@bcst.or.th,,,ngo,Bird conservation and habitat protection
Thai Society for the Conservation of Wild Animals,,THA,th,Bangkok,@tscwa,,,ngo,Wildlife conservation and protection efforts
Foundation for Environmental Education for Sustainable Development,,THA,th,Bangkok,@feefsd,,,ngo,Environmental education and sustainability
Green World Foundation,,THA,th,Bangkok,@greenworldfoundation,,,ngo,Environmental education and awareness programs
Thai Holistic Health Foundation,,THA,th,Bangkok,@thaiholistichealth,,,ngo,Holistic health and environmental wellness
Bangkok Community Help Foundation,,THA,th,Bangkok,@bangkokcommunityhelp,,,ngo,Community support and environmental projects
Thai Environment and Community Development Association (Magic Eyes),,THA,th,Bangkok,@magiceyesbkk,,,ngo,Environmental awareness and community projects
Thai Society of Environmental Journalists,,THA,th,Bangkok,@tsej_thailand,,,ngo,Environmental journalism and media advocacy
Thai Green Building Council,,THA,th,Bangkok,@thaigbc,,,ngo,Promotes sustainable building practices
Thai Society for Environmental Education,,THA,th,Bangkok,@tsee_thailand,,,ngo,Environmental education and awareness programs
Greenpeace Thailand,,THA,th,Bangkok,@greenpeacethailand,,,ngo,Prominent environmental NGO in Thailand
Raks Thai Foundation,,THA,th,Bangkok,@raksthaifoundation,,,ngo,Works on sustainable development and climate resilience
Love Wildlife Foundation,,THA,th,Bangkok,@lovewildlifefoundation,,,ngo,Wildlife conservation and education
Bangkok Urban Green,,THA,th,Bangkok,@bangkokurbangreen,,,ngo,Urban greening and sustainability projects
Human Rights and Development Foundation,,THA,th,Bangkok,@hrdfoundation,,,ngo,Human rights and environmental justice advocacy
Foundation for the Promotion of Supplementary Occupations and Related Techniques,,THA,th,Bangkok,@poshthailand,,,ngo,Sustainable development and community empowerment
Thai Youth Climate Movement,,THA,th,Bangkok,@tycmovement,,,ngo,Youth-led climate action and advocacy
Bangkok Climate Action Network,,THA,th,Bangkok,@bangkokclimateaction,,,ngo,Climate action and policy advocacy in Bangkok
Bangkok Biodiversity Network,,THA,th,Bangkok,@bangkokbiodiversity,,,ngo,Biodiversity conservation and research
Bangkok Sustainable Development Network,,THA,th,Bangkok,@bangkoksustainable,,,ngo,Network for sustainable development initiatives
Thai Organic Agriculture Foundation,,THA,th,Bangkok,@thaiorganic,,,ngo,Promotes organic farming and sustainable agriculture
Bangkok Environmental Education Center,,THA,th,Bangkok,@bangkokenvironmentaled,,,ngo,Environmental education and awareness programs
Thai Marine Conservation Society,,THA,th,Bangkok,@thaimarineconservation,,,ngo,Marine conservation and protection efforts
Bangkok Green City Initiative,,THA,th,Bangkok,@bangkokgreencity,,,ngo,Urban sustainability and green city projects
Thai Renewable Energy Association,,THA,th,Bangkok,@thairea,,,ngo,Promotes renewable energy and sustainability
