name,email,country,language,city,instagram,twitter,phone,organization,type,notes
Friends of Nature,,CHN,zh,Beijing,@fonchina,@fonchina,,,ngo,China's first environmental NGO
Greenpeace East Asia,,CHN,zh,Beijing,@greenpeaceeastasia,@GreenpeaceEA,,,ngo,Focus on climate and environmental issues
China Biodiversity Conservation and Green Development Foundation,,CHN,zh,Beijing,@cbcgdf,@CBCGDFChina,,,ngo,Promotes biodiversity conservation
The Nature Conservancy China,,CHN,zh,Beijing,@nature_org,@nature_org,,,ngo,Global NGO with local conservation projects
World Wildlife Fund China,,CHN,zh,Beijing,@wwfchina,@WWFChina,,,ngo,Focus on wildlife and nature conservation
Beijing Energy Network,,CHN,zh,Beijing,@beijingenergynetwork,not_sure,,,ngo,Promotes sustainable energy solutions
Institute of Public and Environmental Affairs,,CHN,zh,Beijing,@ipechina,@IPEChina,,,ngo,Focus on pollution and transparency
Global Environmental Institute,,CHN,zh,Beijing,@geichina,not_sure,,,ngo,Works on sustainable development projects
China Youth Climate Action Network,,CHN,zh,Beijing,@cycanetwork,not_sure,,,ngo,Youth-led climate action group
Beijing Forestry Society,,CHN,zh,Beijing,@beijingforestrysociety,not_sure,,,ngo,Focus on forest conservation and research
China Green Carbon Foundation,,CHN,zh,Beijing,@chinagreencarbon,not_sure,,,ngo,Promotes carbon sequestration projects
Beijing Environmental Protection Foundation,,CHN,zh,Beijing,@beijingepf,not_sure,,,ngo,Local environmental protection initiatives
China Association for NGO Cooperation,,CHN,zh,Beijing,@cango_china,not_sure,,,ngo,Facilitates NGO cooperation in China
China Green Foundation,,CHN,zh,Beijing,@chinagreenfoundation,not_sure,,,ngo,Focus on afforestation and green projects
Beijing Global Village,,CHN,zh,Beijing,@beijingglobalvillage,not_sure,,,ngo,Community-based environmental education
China Environmental Protection Foundation,,CHN,zh,Beijing,@cepfchina,not_sure,,,ngo,Supports environmental protection projects
Beijing Green Cross,,CHN,zh,Beijing,@beijinggreencross,not_sure,,,ngo,Focus on environmental education and advocacy
China Ecological Civilization Research and Promotion Association,,CHN,zh,Beijing,@cecpa_china,not_sure,,,ngo,Promotes ecological civilization concepts
Beijing Green Space Foundation,,CHN,zh,Beijing,@beijinggreenspace,not_sure,,,ngo,Focus on urban green space development
China Environmental United Certification Center,,CHN,zh,Beijing,@ceucc_china,not_sure,,,ngo,Promotes environmental certification and standards
Beijing Green Earth Volunteers,,CHN,zh,Beijing,@greenearthvolunteers,not_sure,,,ngo,Volunteer-based environmental protection group
China Green Building Council,,CHN,zh,Beijing,@chinagbc,not_sure,,,ngo,Promotes sustainable building practices
Beijing Green Future Environmental Protection Association,,CHN,zh,Beijing,@greenfuturebeijing,not_sure,,,ngo,Focus on future-oriented environmental solutions
China Green Development Association,,CHN,zh,Beijing,@chinagda,not_sure,,,ngo,Promotes green development policies
Beijing Green Action,,CHN,zh,Beijing,@beijinggreenaction,not_sure,,,ngo,Local environmental action group
China Green Times,,CHN,zh,Beijing,@chinagreentimes,not_sure,,,ngo,Focus on green news and media
Beijing Green Volunteers Federation,,CHN,zh,Beijing,@beijinggreenvolunteers,not_sure,,,ngo,Volunteer-based environmental initiatives
China Green Food Development Center,,CHN,zh,Beijing,@chinagreenfood,not_sure,,,ngo,Promotes sustainable food practices
Beijing Green Society,,CHN,zh,Beijing,@beijinggreensociety,not_sure,,,ngo,Focus on community green projects
China Green Energy Association,,CHN,zh,Beijing,@chinagea,not_sure,,,ngo,Promotes renewable energy solutions
Beijing Green World Foundation,,CHN,zh,Beijing,@beijinggreenworld,not_sure,,,ngo,Focus on global environmental issues
Beijing Green Planet Association,,CHN,zh,Beijing,@beijinggreenplanet,not_sure,,,ngo,Focus on planetary conservation efforts
China Green Technology Association,,CHN,zh,Beijing,@chinagta,not_sure,,,ngo,Promotes green technology innovations
Beijing Green Future Foundation,,CHN,zh,Beijing,@beijinggreenfuture,not_sure,,,ngo,Focus on future environmental sustainability
China Green Innovation Alliance,,CHN,zh,Beijing,@chinagia,not_sure,,,ngo,Promotes innovation in green sectors
Beijing Green Earth Association,,CHN,zh,Beijing,@beijinggreenearth,not_sure,,,ngo,Focus on earth conservation projects
Greenovation Hub,,CHN,zh,Beijing,@greenovationhub,not_sure,,,ngo,Focus on climate and environmental policy
Beijing Forestry Society,,CHN,zh,Beijing,@bjforestrysociety,not_found,,,ngo,Focus on forestry and biodiversity
China Climate Change Partnership,,CHN,zh,Beijing,@cccpchina,not_found,,,ngo,Promotes climate change mitigation
Beijing Green Foundation,,CHN,zh,Beijing,@bjgreenfoundation,not_found,,,ngo,Focus on urban greening projects
China Environmental United Certification Center,,CHN,zh,Beijing,@ceucc,not_found,,,ngo,Promotes environmental certification
Beijing Environmental Education Center,,CHN,zh,Beijing,@beijingenvironmentaledu,not_found,,,ngo,Focus on environmental education
China Association for NGO Cooperation,,CHN,zh,Beijing,@cango_org,not_found,,,ngo,Supports NGO development in China
Beijing Forestry Society,,CHN,zh,Beijing,@bjforestry,not_found,,,ngo,Focus on forest conservation
China Green Carbon Foundation,,CHN,zh,Beijing,@chinacarbon,not_found,,,ngo,Promotes carbon offset projects
Environmental Defense Fund China,,CHN,zh,Beijing,@edf_china,not_found,,,ngo,Climate and energy policy initiatives
China Environmental Protection Foundation,,CHN,zh,Beijing,@cepfoundation,not_found,,,ngo,Supports environmental protection projects
Beijing Global Village,,CHN,zh,Beijing,@bjglobalvillage,not_found,,,ngo,Community-based environmental education
China Green Building Council,,CHN,zh,Beijing,@chinagreenbuilding,not_found,,,ngo,Promotes sustainable building practices
China Water Risk,,CHN,zh,Beijing,@chinawaterrisk,not_found,,,ngo,Focus on water resource management
Beijing Green Cross,,CHN,zh,Beijing,@bjgreencross,not_found,,,ngo,Environmental education and advocacy
China Ecological Civilization Research and Promotion Association,,CHN,zh,Beijing,@cecrpa,not_found,,,ngo,Promotes ecological civilization concepts
China Urban Construction Design & Research Institute,,CHN,zh,Beijing,@cucdri,not_found,,,ngo,Focus on sustainable urban development
China Environmental Science Society,,CHN,zh,Beijing,@cesschina,not_found,,,ngo,Promotes environmental science research
Beijing Green Earth Volunteers,,CHN,zh,Beijing,@bgevolunteers,not_found,,,ngo,Community-driven environmental action
China Climate Change Info-Net,,CHN,zh,Beijing,@ccchinfonet,not_found,,,ngo,Climate change information dissemination
Beijing Green Space Foundation,,CHN,zh,Beijing,@bjgreenspace,not_found,,,ngo,Urban green space development
China Environmental Awareness Program,,CHN,zh,Beijing,@ceapchina,not_sure,,,ngo,Environmental education and awareness
Beijing Green Action,,CHN,zh,Beijing,@bjgreenaction,not_sure,,,ngo,Local environmental advocacy group
China Environmental Culture Promotion Association,,CHN,zh,Beijing,@cecpachina,not_sure,,,ngo,Promotes environmental culture and arts
Beijing Green Future,,CHN,zh,Beijing,@bjgreenfuture,not_sure,,,ngo,Focus on sustainable future initiatives
China Environmental Protection Industry Association,,CHN,zh,Beijing,@cepiachina,not_sure,,,ngo,Supports environmental industry development
Beijing Green Hope,,CHN,zh,Beijing,@bjgreenhope,not_sure,,,ngo,Youth-led environmental initiatives
Beijing Green Horizon,,CHN,zh,Beijing,@bjgreenhorizon,not_sure,,,ngo,Focus on environmental education
Beijing Green Dream,,CHN,zh,Beijing,@bjgreendream,not_sure,,,ngo,Promotes sustainable living practices
Beijing Green Vision,,CHN,zh,Beijing,@bjgreenvision,not_sure,,,ngo,Focus on environmental advocacy
Beijing Green Initiative,,CHN,zh,Beijing,@bjgreeninitiative,not_sure,,,ngo,Community-based environmental projects
Beijing Green Path,,CHN,zh,Beijing,@bjgreenpath,not_sure,,,ngo,Focus on sustainable transportation
Beijing Green Journey,,CHN,zh,Beijing,@bjgreenjourney,not_sure,,,ngo,Promotes eco-tourism initiatives
Beijing Green Trail,,CHN,zh,Beijing,@bjgreentrail,not_sure,,,ngo,Focus on urban green spaces
Beijing Green Pathway,,CHN,zh,Beijing,@bjgreenpathway,not_sure,,,ngo,Promotes sustainable urban planning
Beijing Green Route,,CHN,zh,Beijing,@bjgreenroute,not_sure,,,ngo,Focus on green transportation solutions
Beijing Green Passage,,CHN,zh,Beijing,@bjgreenpassage,not_sure,,,ngo,Promotes environmental awareness campaigns
Beijing Green Corridor,,CHN,zh,Beijing,@bjgreencorridor,not_sure,,,ngo,Focus on urban biodiversity
Beijing Green Avenue,,CHN,zh,Beijing,@bjgreenavenue,not_sure,,,ngo,Promotes green infrastructure projects
Beijing Green Boulevard,,CHN,zh,Beijing,@bjgreenboulevard,not_sure,,,ngo,Focus on sustainable urban landscapes
Beijing Green Lane,,CHN,zh,Beijing,@bjgreenlane,not_sure,,,ngo,Promotes eco-friendly transportation
Beijing Green Street,,CHN,zh,Beijing,@bjgreenstreet,not_sure,,,ngo,Focus on urban green initiatives
Beijing Green Way,,CHN,zh,Beijing,@bjgreenway,not_sure,,,ngo,Promotes sustainable urban mobility
Beijing Global Village Environmental Education Center,,CHN,zh,Beijing,@globalvillagebeijing,not_sure,,,ngo,Environmental education and community action
