name,email,country,language,city,instagram,twitter,phone,organization,type,notes
Sasin Chalermlarp,,THA,th,Bangkok,@sasin_ch,not_sure,,Seub Nakhasathien Foundation,influencer,Prominent environmental activist in Thailand
Nithi Sthapitanonda,,THA,th,Bangkok,@nithi.stha,not_sure,,Architect and environmental advocate,influencer,Advocates for sustainable architecture
Korn Chatikavanij,,THA,th,Bangkok,@kornchatikavanij,@KornDemocrat,,Former Finance Minister,influencer,Speaks on economic impacts of climate change
Petch Osathanugrah,,THA,th,Bangkok,@petchosathanugrah,not_sure,,Osotspa Public Company Limited,influencer,Promotes corporate sustainability
Chulabhorn Mahidol,,THA,th,Bangkok,@chulabhornresearch,not_sure,,Chulabhorn Research Institute,influencer,Focus on environmental health research
Suthichai Yoon,,THA,th,Bangkok,@suthichai_live,@suthichai,,Veteran journalist and commentator,influencer,Covers geopolitics and climate issues
Pim Techamuanvivit,,THA,th,Bangkok,@chefpim,@chezpim,,Chef and food sustainability advocate,influencer,Promotes sustainable food practices
Nithi Sthapitanonda,,THA,th,Bangkok,@nithi.sthapitanonda,not_sure,,Architect and Environmentalist,influencer,Prominent architect advocating sustainable design
Rungroj Yongrit,,THA,th,Bangkok,@rungroj_yongrit,not_sure,,Photojournalist,influencer,Covers environmental and social issues
Pim Bunnag,,THA,th,Bangkok,@pimbunnag,not_sure,,Environmental Blogger,influencer,Writes on urban sustainability
Nattawut Saikuar,,THA,th,Bangkok,@nattawut.saikuar,not_sure,,Political Activist,influencer,Focuses on peace and democracy
Kritsada Panpetch,,THA,th,Bangkok,@kritsadapanpetch,not_sure,,Wildlife Photographer,influencer,Captures Thailand's natural beauty
Chaiyapat Prapandvidya,,THA,th,Bangkok,@chaiyapat,not_sure,,Marine Biologist,influencer,Researches marine conservation
Nattapong Nithi-Uthai,,THA,th,Bangkok,@nattapong.nithi,not_sure,,Climate Change Activist,influencer,Advocates for climate action in Thailand
Voranai Vanijaka,,THA,th,Bangkok,@voranai,@voranai,,Political Commentator,influencer,Writes on peace and democracy
Sirinya Wattanasukchai,,THA,th,Bangkok,@sirinyaw,not_sure,,Journalist,influencer,Focuses on environmental and social issues
Nualnoi Treerat,,THA,th,Bangkok,@nualnoi,not_sure,,Economist,influencer,Researches sustainable development
Piyaporn Wongruang,,THA,th,Bangkok,@piyaporn.w,not_sure,,Environmental Journalist,influencer,Covers climate change and conservation
Thanathorn Juangroongruangkit,,THA,th,Bangkok,@thanathorn.juang,@Thanathorn_FWP,,Political Activist,influencer,Advocates for democracy and sustainability
Kornkanok Yongsakul,,THA,th,Bangkok,@kornkanoky,not_sure,,Sustainability Advocate,influencer,Promotes eco-friendly living
Suwit Khunkitti,,THA,th,Bangkok,@suwitkhunkitti,not_sure,,Former Environment Minister,influencer,Focuses on environmental policies
Chaiyaporn Chanjaroen,,THA,th,Bangkok,@chaiyaporn,not_sure,,Journalist,influencer,Covers economic and environmental issues
Pongsakorn Chanchaisrisakul,,THA,th,Bangkok,@pongsakorn.c,not_sure,,Climate Activist,influencer,Advocates for renewable energy
Nithi Sthapitanonda,,THA,th,Bangkok,@nithistudio,not_sure,,Architect and Environmentalist,influencer,Prominent architect focused on sustainable design
Sasin Chalermlarp,,THA,th,Bangkok,@sasin_chalermlarp,not_sure,,Seub Nakhasathien Foundation,influencer,Conservationist and environmental activist
Pailin Wedel,,THA,th,Bangkok,@pailinwedel,not_sure,,Documentary Filmmaker,influencer,Focuses on social and environmental issues
Nattapong Nithi-Uthai,,THA,th,Bangkok,@nattapong_nithi,not_sure,,Environmental Engineer,influencer,Promotes green engineering solutions
Kong Rithdee,,THA,th,Bangkok,@kongrithdee,not_sure,,Film Critic and Journalist,influencer,Writes on cultural and environmental topics
Pim Techamuanvivit,,THA,th,Bangkok,@pim_techamuanvivit,not_sure,,Chef and Restaurateur,influencer,Advocates for sustainable food practices
Chaiyaporn Prapaipong,,THA,th,Bangkok,@chaiyaporn_p,not_sure,,Environmental Lawyer,influencer,Focuses on environmental law and policy
Nok Air,,THA,th,Bangkok,@nokairlines,@nokairlines,,Airline,influencer,Promotes eco-friendly travel initiatives
Chulalongkorn University,,THA,th,Bangkok,@chulalongkorn_university,not_sure,,University,influencer,Research in climate change and sustainability
Thai PBS,,THA,th,Bangkok,@thaipbs,@ThaiPBS,,Public Broadcasting Service,influencer,Covers environmental and social issues
Greenpeace Thailand,,THA,th,Bangkok,@greenpeaceth,@greenpeaceth,,NGO,influencer,Focuses on environmental activism
WWF Thailand,,THA,th,Bangkok,@wwfthailand,@WWFThailand,,NGO,influencer,Conservation and biodiversity protection
Siam Cement Group,,THA,th,Bangkok,@scg_official,not_sure,,Conglomerate,influencer,Promotes sustainable business practices
Bangkok Post,,THA,th,Bangkok,@bangkokpostnews,@BangkokPostNews,,Newspaper,influencer,Covers climate and geopolitical issues
The Nation Thailand,,THA,th,Bangkok,@nationthailand,@NationThailand,,Newspaper,influencer,Reports on environmental and political topics
Thai Enquirer,,THA,th,Bangkok,@thaienquirer,@ThaiEnquirer,,News Platform,influencer,Focuses on politics and environment
Prachatai,,THA,th,Bangkok,@prachatai,@prachatai,,Online Newspaper,influencer,Covers social and environmental issues
Bangkok Art and Culture Centre,,THA,th,Bangkok,@baccbangkok,@baccnews,,Cultural Centre,influencer,Hosts events on art and environment
Thai Health Promotion Foundation,,THA,th,Bangkok,@thaihealth,@thaihealth,,Public Organization,influencer,Promotes healthy and sustainable living
Thailand Development Research Institute,,THA,th,Bangkok,@tdri_thailand,@tdri_thailand,,Research Institute,influencer,Research on sustainable development
Sasin School of Management,,THA,th,Bangkok,@sasinschool,@sasinschool,,Business School,influencer,Focuses on sustainable business education
Thailand Greenhouse Gas Management Organization,,THA,th,Bangkok,@tgo_thailand,not_sure,,Public Organization,influencer,Works on climate change mitigation
Kasikornbank,,THA,th,Bangkok,@kasikornbank,@KBank_Live,,Bank,influencer,Promotes green finance initiatives
Bangkok Metropolitan Administration,,THA,th,Bangkok,@bmatoday,@pr_bangkok,,Local Government,influencer,Implements city-wide environmental policies
Thai Chamber of Commerce,,THA,th,Bangkok,@thaichamber,not_sure,,Business Association,influencer,Supports sustainable business practices
Thailand Institute of Justice,,THA,th,Bangkok,@tijthailand,@tijthailand,,Public Organization,influencer,Focuses on peace and justice initiatives
Thailand Convention and Exhibition Bureau,,THA,th,Bangkok,@tceb_thailand,@TCEB_ORG,,Public Organization,influencer,Promotes sustainable events and tourism
Thai Red Cross Society,,THA,th,Bangkok,@redcross_thailand,@ThaiRedCross,,Humanitarian Organization,influencer,Focuses on humanitarian and environmental issues
Thailand Environment Institute,,THA,th,Bangkok,@tei_thailand,not_sure,,Research Institute,influencer,Research on environmental policies
Bangkok University,,THA,th,Bangkok,@bangkok_university,@BU_Thailand,,University,influencer,Focuses on innovation and sustainability
Thailand Institute of Nuclear Technology,,THA,th,Bangkok,@tint_thailand,not_sure,,Research Institute,influencer,Research on nuclear technology and safety
Thailand Board of Investment,,THA,th,Bangkok,@boi_thailand,@BOIThailand,,Government Agency,influencer,Promotes sustainable investment
Thailand Science Park,,THA,th,Bangkok,@thailandsciencepark,not_sure,,Research Park,influencer,Focuses on science and technology innovation
Thailand Creative & Design Center,,THA,th,Bangkok,@tcdc_thailand,@TCDCThailand,,Design Center,influencer,Promotes sustainable design and creativity
Thailand Institute of Scientific and Technological Research,,THA,th,Bangkok,@tistr_thailand,not_sure,,Research Institute,influencer,Research on science and technology
Thailand Professional Qualification Institute,,THA,th,Bangkok,@tpqi_thailand,not_sure,,Public Organization,influencer,Focuses on professional standards and sustainability
Thailand Textile Institute,,THA,th,Bangkok,@thaitextileinstitute,not_sure,,Research Institute,influencer,Promotes sustainable textile industry
Thailand Institute of Packaging and Recycling Management for Sustainable Environment,,THA,th,Bangkok,@tipmse_thailand,not_sure,,Public Organization,influencer,Focuses on recycling and waste management
Poyd Treechada,,THA,th,Bangkok,@poydtreechada,not_sure,,,influencer,Promotes sustainable fashion and lifestyle
Chalita Suansane,,THA,th,Bangkok,@namtanlitaa,not_sure,,,influencer,Advocates for environmental awareness
Pimtha,,THA,th,Bangkok,@pimtha,not_sure,,,influencer,Lifestyle influencer with eco-friendly focus
Tara Buakamsri,,THA,th,Bangkok,@tara_buakamsri,@tarabuakamsri,,Greenpeace Southeast Asia,influencer,Environmental campaigner
Pim Bubear,,THA,th,Bangkok,@pimbubear,not_sure,,,influencer,Model and environmental advocate
Chutimon Chuengcharoensukying,,THA,th,Bangkok,@aokbab,not_sure,,,influencer,Actress promoting sustainable living
Weeraphat Phuchong,,THA,th,Bangkok,@weeraphat_phuchong,not_sure,,Thai PBS,influencer,Journalist covering environmental issues
Noknoi Uraiporn,,THA,th,Bangkok,@noknoiuraiporn,not_sure,,,influencer,Nature photographer and conservationist
Suthichai Yoon,,THA,th,Bangkok,@suthichai,@suthichai,,The Nation,influencer,Veteran journalist on geopolitics
