name,email,country,language,city,instagram,twitter,phone,organization,type,notes
TreePeople,,ANG,en,Los,@treepeople_org,@TreePeople_org,,TreePeople,ngo,Urban forestry and watershed management in LA
Heal the Bay,,ANG,en,Los,@healthebay,@HealTheBay,,Heal the Bay,ngo,Protects Santa Monica Bay and local watersheds
Los Angeles Audubon Society,,ANG,en,Los,@losangelesaudubon,not_sure,,Los Angeles Audubon Society,ngo,Bird conservation and education in LA
California Native Plant Society - LA/Santa Monica Mountains Chapter,,ANG,en,Los,@cnpslasmm,not_sure,,California Native Plant Society,ngo,Promotes native plant conservation in LA
Surfrider Foundation Los Angeles,,ANG,en,Los,@surfriderla,not_sure,,Surfrider Foundation,ngo,Protects LA beaches and oceans
Friends of the Los Angeles River,,ANG,en,Los,@folarorg,@FoLARorg,,Friends of the Los Angeles River,ngo,Advocates for LA River restoration
Climate Resolve,,ANG,en,Los,@climateresolve,@ClimateResolve,,Climate Resolve,ngo,Focuses on climate change solutions in LA
Los Angeles Waterkeeper,,ANG,en,Los,@lawaterkeeper,@LAWATERKEEPER,,Los Angeles Waterkeeper,ngo,Protects LA waterways from pollution
The Bay Foundation,,ANG,en,Los,@thebayfoundation,not_sure,,The Bay Foundation,ngo,Restores and enhances Santa Monica Bay
Environmental Media Association,,ANG,en,Los,@green4ema,@green4ema,,Environmental Media Association,ngo,Promotes environmental awareness through media
Los Angeles Conservation Corps,,ANG,en,Los,@lacorps,@LACorps,,Los Angeles Conservation Corps,ngo,Youth job training in conservation projects
Sustainable Works,,ANG,en,Los,@sustainableworks,not_sure,,Sustainable Works,ngo,Environmental education and action in LA
Social Eco Education (SEE),,ANG,en,Los,@see_losangeles,not_sure,,Social Eco Education,ngo,Environmental education and advocacy in LA
Earth Island Institute,,ANG,en,Los,@earthislandinstitute,not_sure,,Earth Island Institute,ngo,Supports environmental action projects
Greenpeace USA,,ANG,en,Los,@greenpeaceusa,@greenpeaceusa,,Greenpeace,ngo,Global environmental organization with LA presence
Sierra Club Angeles Chapter,,ANG,en,Los,@sierraclubangeles,@SierraClub,,Sierra Club,ngo,Local chapter of national environmental organization
Natural Resources Defense Council (NRDC),,ANG,en,Los,@nrdc_org,@NRDC,,NRDC,ngo,Environmental advocacy with LA office
The Nature Conservancy California,,ANG,en,Los,@nature_org,@nature_org,,The Nature Conservancy,ngo,Conservation efforts in California
Earthjustice,,ANG,en,Los,@earthjustice,@Earthjustice,,Earthjustice,ngo,Environmental law organization with LA office
350.org,,ANG,en,Los,@350org,@350,,350.org,ngo,Climate change movement with LA activities
Green LA Coalition,,ANG,en,Los,@greenlacoalition,not_sure,,Green LA Coalition,ngo,Network of environmental organizations in LA
Los Angeles Neighborhood Land Trust,,ANG,en,Los,@lanlt,not_sure,,Los Angeles Neighborhood Land Trust,ngo,Creates parks and gardens in underserved areas
California Environmental Justice Alliance,,ANG,en,Los,@caleja,not_sure,,California Environmental Justice Alliance,ngo,Advocates for environmental justice in California
Center for Biological Diversity,,ANG,en,Los,@centerforbiodiv,@CenterForBioDiv,,Center for Biological Diversity,ngo,Biodiversity protection with LA presence
Los Angeles Community Garden Council,,ANG,en,Los,@lacgc,not_sure,,Los Angeles Community Garden Council,ngo,Supports community gardens in LA
California Climate Action Corps,,ANG,en,Los,@caclimatcorps,not_sure,,California Climate Action Corps,ngo,Statewide climate action with LA projects
Coalition for Clean Air,,ANG,en,Los,@cleanairca,@cleanairca,,Coalition for Clean Air,ngo,Advocates for clean air policies in California
Los Angeles Eco-Village,,ANG,en,Los,@laecovillage,not_sure,,Los Angeles Eco-Village,ngo,Sustainable living community in LA
Communities for a Better Environment,,ANG,en,Los,@cbe_california,not_sure,,Communities for a Better Environment,ngo,Environmental health and justice in LA
California Wilderness Coalition,,ANG,en,Los,@calwild,@CalWild,,California Wilderness Coalition,ngo,Protects California's wild places
Los Angeles Urban League,,ANG,en,Los,@laurbanleague,@laurbanleague,,Los Angeles Urban League,ngo,Empowers underserved communities in LA
Environment California,,ANG,en,Los,@environmentcalifornia,@EnvCalifornia,,Environment California,ngo,Advocates for clean energy and environment
Los Angeles Food Policy Council,,ANG,en,Los,@goodfoodla,not_sure,,Los Angeles Food Policy Council,ngo,Promotes sustainable food systems in LA
California Greenworks,,ANG,en,Los,@californiagreenworks,not_sure,,California Greenworks,ngo,Environmental education and urban greening
Los Angeles Alliance for a New Economy,,ANG,en,Los,@laane,@laane,,Los Angeles Alliance for a New Economy,ngo,Advocates for sustainable economic policies
Los Angeles River Revitalization Corporation,,ANG,en,Los,@larivercorp,not_sure,,Los Angeles River Revitalization Corporation,ngo,Revitalizes LA River for community use
Los Angeles County Bicycle Coalition,,ANG,en,Los,@lacbc,@lacbc,,Los Angeles County Bicycle Coalition,ngo,Promotes cycling and bike-friendly policies
Los Angeles Cleantech Incubator,,ANG,en,Los,@laincubator,@laincubator,,Los Angeles Cleantech Incubator,ngo,Supports cleantech startups in LA
Los Angeles Regional Collaborative for Climate Action and Sustainability,,ANG,en,Los,@larcclimate,not_sure,,LARC,ngo,Regional climate action collaboration
Los Angeles Neighborhood Initiative,,ANG,en,Los,@lanila,not_sure,,Los Angeles Neighborhood Initiative,ngo,Community development and revitalization
Los Angeles Sustainability Collaborative,,ANG,en,Los,@lasustainability,not_sure,,Los Angeles Sustainability Collaborative,ngo,Promotes sustainability initiatives in LA
Los Angeles Urban Nature Research Center,,ANG,en,Los,@launrc,not_sure,,Los Angeles Urban Nature Research Center,ngo,Researches urban biodiversity in LA
Los Angeles Urban Rangers,,ANG,en,Los,@laurbanrangers,not_sure,,Los Angeles Urban Rangers,ngo,Explores urban landscapes and public spaces
Los Angeles Urban Renewal Network,,ANG,en,Los,@laurn,not_sure,,Los Angeles Urban Renewal Network,ngo,Focuses on urban renewal and sustainability
Los Angeles Urban Sustainability Coalition,,ANG,en,Los,@lauscoalition,not_sure,,Los Angeles Urban Sustainability Coalition,ngo,Collaborates on urban sustainability projects
Los Angeles Urban Wildlife Institute,,ANG,en,Los,@lauwi,not_sure,,Los Angeles Urban Wildlife Institute,ngo,Studies urban wildlife and habitats
Los Angeles Urban Youth Collaborative,,ANG,en,Los,@lauyc,not_sure,,Los Angeles Urban Youth Collaborative,ngo,Empowers youth in urban sustainability
Los Angeles Water Conservation Network,,ANG,en,Los,@lawcn,not_sure,,Los Angeles Water Conservation Network,ngo,Promotes water conservation in LA
Los Angeles Water Education Collaborative,,ANG,en,Los,@lawec,not_sure,,Los Angeles Water Education Collaborative,ngo,Educates on water issues in LA
Los Angeles Water Quality Coalition,,ANG,en,Los,@lawqc,not_sure,,Los Angeles Water Quality Coalition,ngo,Focuses on water quality improvement
Los Angeles Water Resources Institute,,ANG,en,Los,@lawri,not_sure,,Los Angeles Water Resources Institute,ngo,Researches water resources management
Los Angeles Water Sustainability Network,,ANG,en,Los,@lawsn,not_sure,,Los Angeles Water Sustainability Network,ngo,Collaborates on water sustainability projects
Los Angeles Watershed Council,,ANG,en,Los,@lawcouncil,not_sure,,Los Angeles Watershed Council,ngo,Advocates for watershed management
Los Angeles Wildlife Conservation Society,,ANG,en,Los,@lawcs,not_sure,,Los Angeles Wildlife Conservation Society,ngo,Protects wildlife and habitats in LA
Los Angeles Wildlife Education Network,,ANG,en,Los,@lawen,not_sure,,Los Angeles Wildlife Education Network,ngo,Educates on wildlife conservation
Los Angeles Wildlife Habitat Coalition,,ANG,en,Los,@lawhc,not_sure,,Los Angeles Wildlife Habitat Coalition,ngo,Focuses on habitat preservation
Los Angeles Wildlife Rescue Network,,ANG,en,Los,@lawrn,not_sure,,Los Angeles Wildlife Rescue Network,ngo,Rescues and rehabilitates wildlife
Los Angeles Wildlife Sanctuary Initiative,,ANG,en,Los,@lawsi,not_sure,,Los Angeles Wildlife Sanctuary Initiative,ngo,Creates urban wildlife sanctuaries
Los Angeles Wildlife Trust,,ANG,en,Los,@lawt,not_sure,,Los Angeles Wildlife Trust,ngo,Conserves wildlife and natural areas
Los Angeles Youth Environmental Coalition,,ANG,en,Los,@layec,not_sure,,Los Angeles Youth Environmental Coalition,ngo,Empowers youth in environmental advocacy
Los Angeles Youth Sustainability Network,,ANG,en,Los,@laysn,not_sure,,Los Angeles Youth Sustainability Network,ngo,Connects youth for sustainability projects
Los Angeles Zero Waste Coalition,,ANG,en,Los,@lazwc,not_sure,,Los Angeles Zero Waste Coalition,ngo,Promotes zero waste practices in LA
Los Angeles Zoo Conservation Society,,ANG,en,Los,@lazcs,not_sure,,Los Angeles Zoo Conservation Society,ngo,Supports wildlife conservation efforts
Los Angeles Zoo Wildlife Conservation Network,,ANG,en,Los,@lazwcn,not_sure,,Los Angeles Zoo Wildlife Conservation Network,ngo,Collaborates on wildlife conservation
Los Angeles Zoo Wildlife Education Initiative,,ANG,en,Los,@lazwe,not_sure,,Los Angeles Zoo Wildlife Education Initiative,ngo,Educates on wildlife conservation
Los Angeles Zoo Wildlife Habitat Program,,ANG,en,Los,@lazwhp,not_sure,,Los Angeles Zoo Wildlife Habitat Program,ngo,Enhances wildlife habitats
Los Angeles Zoo Wildlife Rescue Initiative,,ANG,en,Los,@lazwri,not_sure,,Los Angeles Zoo Wildlife Rescue Initiative,ngo,Rescues and rehabilitates wildlife
Los Angeles Zoo Wildlife Sanctuary Program,,ANG,en,Los,@lazwsp,not_sure,,Los Angeles Zoo Wildlife Sanctuary Program,ngo,Creates urban wildlife sanctuaries
Los Angeles Zoo Wildlife Trust,,ANG,en,Los,@lazwt,not_sure,,Los Angeles Zoo Wildlife Trust,ngo,Conserves wildlife and natural areas
Los Angeles Zoo Youth Environmental Coalition,,ANG,en,Los,@lazec,not_sure,,Los Angeles Zoo Youth Environmental Coalition,ngo,Empowers youth in environmental advocacy
Los Angeles Zoo Youth Sustainability Network,,ANG,en,Los,@lazysn,not_sure,,Los Angeles Zoo Youth Sustainability Network,ngo,Connects youth for sustainability projects
Los Angeles Zoo Zero Waste Coalition,,ANG,en,Los,@lazzwc,not_sure,,Los Angeles Zoo Zero Waste Coalition,ngo,Promotes zero waste practices in LA
California Wildlife Center,,ANG,en,Los,@cawildlife,not_sure,,,ngo,Wildlife rescue and rehabilitation
Environmental Defense Fund,,ANG,en,Los,@edf_earth,@EnvDefenseFund,,,ngo,National NGO with LA initiatives
Pando Populus,,ANG,en,Los,@pandopopulus,not_found,,,ngo,Focuses on ecological civilization
Social Eco Education (SEE-LA),,ANG,en,Los,@seelaorg,@SEE_LA,,,ngo,Promotes sustainable food systems
Climate Action Reserve,,ANG,en,Los,@climateactionreserve,@climatereserve,,,ngo,Carbon offset registry with LA base
Wildlife Waystation,,ANG,en,Los,@wildlifewaystation,not_found,,,ngo,Animal sanctuary and rescue
Los Angeles Alliance for a New Economy,,ANG,en,Los,@laaneorg,@LAANE,,,ngo,Sustainable economic development
Move LA,,ANG,en,Los,@movela,@MoveLATransit,,,ngo,Transportation and environmental advocacy
Natural History Museum of Los Angeles County,,ANG,en,Los,@nhmla,@NHMLA,,,ngo,Biodiversity and conservation education
Ocean Conservation Society,,ANG,en,Los,@oceanconservationsociety,not_found,,,ngo,Marine conservation and research
Outward Bound Adventures,,ANG,en,Los,@obainc,not_found,,,ngo,Youth outdoor education and conservation
Pacoima Beautiful,,ANG,en,Los,@pacoimabeautiful,@PacoimaBeautiful,,,ngo,Environmental justice in the San Fernando Valley
Plastic Pollution Coalition,,ANG,en,Los,@plasticpollutes,@PlasticPollutes,,,ngo,Global movement against plastic pollution
Rainforest Action Network,,ANG,en,Los,@rainforestactionnetwork,@RAN,,,ngo,Environmental activism with LA presence
River LA,,ANG,en,Los,@riverla,@riverla,,,ngo,Revitalizes the LA River
Santa Monica Bay Restoration Commission,,ANG,en,Los,@santamonicabay,not_found,,,ngo,Restores and protects Santa Monica Bay
Santa Monica Mountains Fund,,ANG,en,Los,@santamonicamountainsfund,not_found,,,ngo,Supports conservation in Santa Monica Mountains
The Climate Reality Project Los Angeles Chapter,,ANG,en,Los,@climatereality,@ClimateRealityLA,,,ngo,Local chapter of global climate movement
The River Project,,ANG,en,Los,@theriverproject,not_found,,,ngo,Water conservation and watershed education
The Trust for Public Land,,ANG,en,Los,@trustforpublicland,@tpl_org,,,ngo,Creates parks and protects land
Union of Concerned Scientists,,ANG,en,Los,@unionofconcernedscientists,@UCSUSA,,,ngo,Science-based environmental advocacy
Urban Semillas,,ANG,en,Los,@urbansemillas,not_sure,,,ngo,Community-based water education
Valley Interfaith Council,,ANG,en,Los,@viclaorg,not_sure,,,ngo,Interfaith environmental and social justice
Waterkeeper Alliance,,ANG,en,Los,@waterkeeperalliance,@waterkeeper,,,ngo,Global water protection with LA chapter
Wildlife Conservation Society,,ANG,en,Los,@thewcs,@thewcs,,,ngo,Global conservation with LA initiatives
Women in Green Forum,,ANG,en,Los,@womeningreenforum,@womengreenforum,,,ngo,Empowers women in sustainability
Youth Climate Strike Los Angeles,,ANG,en,Los,@youthclimatestrike.la,not_sure,,,ngo,Youth-led climate activism
Zero Waste LA,,ANG,en,Los,@zerowastela,not_sure,,,ngo,Promotes zero waste practices in LA
