name,email,country,language,city,instagram,phone,organization,type,notes
Greenpeace East Asia,,KON,en,Hong,@greenpeace_hk,,Greenpeace,influencer,Prominent environmental NGO in Hong Kong
HK Climate Action,,KON,en,Hong,@hkclimateaction,,HK Climate Action,influencer,Local climate advocacy group
WildAid Hong Kong,,KON,en,Hong,@wildaid_hk,,WildAid,influencer,Focus on wildlife conservation
Dr. Rebecca Lee,,KON,en,Hong,@drrebeccalee,,Polar Museum Foundation,influencer,Renowned polar explorer and environmentalist
Hong Kong Bird Watching Society,,KON,en,Hong,@hkbws,,HKBWS,influencer,Promotes bird conservation in Hong Kong
Clean Air Network,,KON,en,Hong,@cleanairnetwork,,Clean Air Network,influencer,Advocates for air quality improvement
Dr. William Yu,,KON,en,Hong,@drwilliamyu,,World Green Organisation,influencer,CEO of World Green Organisation
Hong Kong Dolphin Conservation Society,,KON,en,Hong,@hkdcs,,HKDCS,influencer,Focus on dolphin conservation
Jane Goodall Institute Hong Kong,,KON,en,Hong,@janegoodallhk,,Jane Goodall Institute,influencer,Promotes conservation and peace
Green Sense Hong Kong,,KON,en,Hong,@greensensehk,,Green Sense,influencer,Environmental awareness and education
Dr. Sam Inglis,,KON,en,Hong,@drsaminglis,,HKU,influencer,Researcher in environmental science
Hong Kong Shark Foundation,,KON,en,Hong,@hksharkfoundation,,HKSF,influencer,Advocates against shark finning
EcoDrive Hong Kong,,KON,en,Hong,@ecodrivehk,,EcoDrive,influencer,Focus on reducing single-use plastics
Green Earth Hong Kong,,KON,en,Hong,@greenearth_hk,,Green Earth,influencer,Promotes sustainable living
Dr. Daisy Tam,,KON,en,Hong,@drdaisytam,,HKBU,influencer,Researcher on food sustainability
Hong Kong Green Finance Association,,KON,en,Hong,@hkgfa,,HKGFA,influencer,Promotes green finance initiatives
Plastic Free Seas,,KON,en,Hong,@plasticfreeseas,,Plastic Free Seas,influencer,Focus on marine pollution reduction
Dr. Martin Williams,,KON,en,Hong,@drmartinwilliams,,HK Outdoors,influencer,Nature conservation advocate
Hong Kong Green Building Council,,KON,en,Hong,@hkgbc,,HKGBC,influencer,Promotes sustainable building practices
Dr. Vivian Taam Wong,,KON,en,Hong,@drvivianwong,,HKU,influencer,Expert in environmental health
Green Monday,,KON,en,Hong,@greenmonday,,Green Monday,influencer,Promotes plant-based diets
Dr. Michael Leung,,KON,en,Hong,@drmichaelleung,,CityU,influencer,Researcher in renewable energy
Hong Kong Cleanup,,KON,en,Hong,@hkcleanup,,HK Cleanup,influencer,Organizes city-wide cleanups
Dr. Christine Loh,,KON,en,Hong,@drchristineloh,,Civic Exchange,influencer,Expert in environmental policy
Hong Kong Recycles,,KON,en,Hong,@hkrecycles,,HK Recycles,influencer,Promotes recycling initiatives
Dr. David Baker,,KON,en,Hong,@drdavidbaker,,HKU,influencer,Marine biology researcher
Green Council Hong Kong,,KON,en,Hong,@greencouncilhk,,Green Council,influencer,Promotes environmental certification
Dr. William Cheung,,KON,en,Hong,@drwilliamcheung,,HKU,influencer,Expert in climate change impact
Hong Kong Green Drinks,,KON,en,Hong,@hkgd,,Green Drinks,influencer,Networking for sustainability professionals
Dr. Janet Lee,,KON,en,Hong,@drjanetlee,,PolyU,influencer,Researcher in environmental engineering
Hong Kong Zero Carbon Partnership,,KON,en,Hong,@hkzcp,,Zero Carbon Partnership,influencer,Promotes zero carbon initiatives
Dr. Alex Lee,,KON,en,Hong,@dralexlee,,HKUST,influencer,Expert in sustainable development
Hong Kong Green Schools Alliance,,KON,en,Hong,@hkgsa,,Green Schools Alliance,influencer,Promotes sustainability in schools
Dr. Emily Chan,,KON,en,Hong,@dremilychan,,CUHK,influencer,Expert in public health and climate
Hong Kong Green Youth,,KON,en,Hong,@hkg_youth,,Green Youth,influencer,Youth-led environmental group
Dr. Peter Lee,,KON,en,Hong,@drpeterlee,,HKU,influencer,Researcher in environmental policy
Hong Kong Green Women,,KON,en,Hong,@hkgw,,Green Women,influencer,Focus on women in sustainability
Dr. Sarah Wong,,KON,en,Hong,@drsarahwong,,HKBU,influencer,Researcher in environmental science
Hong Kong Green Families,,KON,en,Hong,@hkgf,,Green Families,influencer,Promotes family-friendly sustainability
Dr. Thomas Chan,,KON,en,Hong,@drthomaschan,,PolyU,influencer,Expert in environmental technology
Hong Kong Green Entrepreneurs,,KON,en,Hong,@hkge,,Green Entrepreneurs,influencer,Supports green business initiatives
Dr. Linda Lee,,KON,en,Hong,@drlindalee,,CityU,influencer,Researcher in environmental law
Hong Kong Green Innovators,,KON,en,Hong,@hkgi,,Green Innovators,influencer,Promotes green innovation
Dr. Kevin Wong,,KON,en,Hong,@drkevinwong,,HKUST,influencer,Researcher in climate science
Dr. Alice Chan,,KON,en,Hong,@dralicechan,,CUHK,influencer,Expert in environmental education
Hong Kong Green Artists,,KON,en,Hong,@hkga,,Green Artists,influencer,Promotes environmental art
Dr. Jason Lee,,KON,en,Hong,@drjasonlee,,HKU,influencer,Researcher in environmental economics
Hong Kong Green Musicians,,KON,en,Hong,@hkgm,,Green Musicians,influencer,Focus on music for sustainability
Dr. Karen Wong,,KON,en,Hong,@drkarenwong,,PolyU,influencer,Researcher in environmental health
Dr. Eric Chan,,KON,en,Hong,@drericchan,,CityU,influencer,Expert in environmental policy
Dr. Fiona Lee,,KON,en,Hong,@drfionalee,,HKUST,influencer,Researcher in environmental science
Hong Kong Green Chefs,,KON,en,Hong,@hkgc,,Green Chefs,influencer,Promotes sustainable cooking
Dr. Henry Wong,,KON,en,Hong,@drhenrywong,,CUHK,influencer,Expert in environmental chemistry
Hong Kong Green Photographers,,KON,en,Hong,@hkgp,,Green Photographers,influencer,Focus on environmental photography
Dr. Grace Chan,,KON,en,Hong,@drgracechan,,HKU,influencer,Researcher in environmental policy
Dr. Oliver Lee,,KON,en,Hong,@droliwerlee,,PolyU,influencer,Researcher in environmental engineering
Hong Kong Green Historians,,KON,en,Hong,@hkgh,,Green Historians,influencer,Focus on environmental history
Dr. Rachel Wong,,KON,en,Hong,@drrachelwong,,CityU,influencer,Researcher in environmental science
Dr. Simon Chan,,KON,en,Hong,@drsimonchan,,HKUST,influencer,Expert in environmental technology
Hong Kong Green Lawyers,,KON,en,Hong,@hkgl,,Green Lawyers,influencer,Focus on environmental law
Dr. Teresa Lee,,KON,en,Hong,@drteresalee,,CUHK,influencer,Researcher in environmental health
Dr. Victor Wong,,KON,en,Hong,@drvictorwong,,HKU,influencer,Researcher in environmental policy
Dr. Rebecca Lee,,KON,en,Hong,@rebeccaleeexplorer,,,influencer,Renowned polar explorer and environmentalist
Friends of the Earth (HK),,KON,en,Hong,@foe_hk,,,influencer,Environmental NGO in Hong Kong
The Nature Conservancy Hong Kong,,KON,en,Hong,@tnc_hk,,,influencer,Nature conservation efforts in Hong Kong
Dr. Jeanne Ng,,KON,en,Hong,@drjeanng,,CLP Group,influencer,Expert in environmental sustainability
Kadoorie Farm and Botanic Garden,,KON,en,Hong,@kadooriefarm,,,influencer,Biodiversity conservation and education
Dr. Jason Chan,,KON,en,Hong,@drjasonchan,,City University of Hong Kong,influencer,Researcher in environmental science
Hong Kong Reptile & Amphibian Society,,KON,en,Hong,@hkrashk,,,influencer,Focus on reptile and amphibian conservation
Hong Kong Observatory,,KON,en,Hong,@hk_observatory,,,influencer,Weather and climate information
Dr. Martin Wong,,KON,en,Hong,@drmartinwong,,Hong Kong Polytechnic University,influencer,Researcher in environmental health
Hong Kong Climate Change Coalition,,KON,en,Hong,@hkclimatechange,,,influencer,Advocates for climate action
Hong Kong Youth for Climate Action,,KON,en,Hong,@hkyouthclimate,,,influencer,Youth-led climate advocacy group
Dr. Michael Chan,,KON,en,Hong,@drmichaelchan,,Hong Kong University of Science and Technology,influencer,Researcher in climate science
Hong Kong Zero Carbon Partnership,,KON,en,Hong,@hkzerocarbon,,,influencer,Promotes zero carbon initiatives
Dr. Lisa Leung,,KON,en,Hong,@drlisaleung,,Lingnan University,influencer,Researcher in environmental communication
Dr. Anthony Wong,,KON,en,Hong,@dranthonywong,,Hong Kong Baptist University,influencer,Expert in environmental chemistry
Dr. Karen Chan,,KON,en,Hong,@drkarenchan,,Hong Kong University,influencer,Researcher in environmental education
Dr. Peter Lam,,KON,en,Hong,@drpeterlam,,Hong Kong Polytechnic University,influencer,Expert in renewable energy
Dr. Jessica Wong,,KON,en,Hong,@drjessicawong,,Chinese University of Hong Kong,influencer,Researcher in environmental health
Dr. Samuel Chan,,KON,en,Hong,@drsamuelchan,,City University of Hong Kong,influencer,Researcher in environmental technology
Hong Kong Green Living,,KON,en,Hong,@hkgreenliving,,,influencer,Promotes sustainable living practices
Dr. Rachel Lee,,KON,en,Hong,@drrachellee,,Hong Kong University,influencer,Expert in environmental policy
Hong Kong Green Festival,,KON,en,Hong,@hkgreenfestival,,,influencer,Celebrates environmental awareness
Dr. Thomas Wong,,KON,en,Hong,@drthomaswong,,Hong Kong University of Science and Technology,influencer,Researcher in climate change
Hong Kong Green Youth,,KON,en,Hong,@hkgreenyouth,,,influencer,Youth-led environmental advocacy
Dr. Angela Chan,,KON,en,Hong,@drangelachan,,Lingnan University,influencer,Researcher in environmental sociology
Hong Kong Green Action,,KON,en,Hong,@hkgreenaction,,,influencer,Advocates for environmental justice
Dr. Kevin Lee,,KON,en,Hong,@drkevinlee,,Hong Kong Baptist University,influencer,Expert in environmental engineering
Hong Kong Green Future,,KON,en,Hong,@hkgreenfuture,,,influencer,Promotes sustainable development
Dr. Nancy Wong,,KON,en,Hong,@drnancywong,,Chinese University of Hong Kong,influencer,Researcher in environmental psychology
Hong Kong Green Innovation,,KON,en,Hong,@hkgreeninnovation,,,influencer,Focus on green technology
Hong Kong Green Vision,,KON,en,Hong,@hkgreenvision,,,influencer,Promotes environmental awareness
Hong Kong Green Network,,KON,en,Hong,@hkgreennetwork,,,influencer,Connects environmental professionals
Dr. Gordon Wong,,KON,en,Hong,@drgordonwong,,Hong Kong University of Science and Technology,influencer,Researcher in climate adaptation
Hong Kong Green Society,,KON,en,Hong,@hkgreensociety,,,influencer,Promotes environmental sustainability
Dr. Olivia Chan,,KON,en,Hong,@droliviachan,,Lingnan University,influencer,Researcher in environmental ethics
Hong Kong Green Alliance,,KON,en,Hong,@hkgreenalliance,,,influencer,Advocates for green policies
Dr. Patrick Lee,,KON,en,Hong,@drpatricklee,,Hong Kong Baptist University,influencer,Expert in environmental science
Hong Kong Green Initiative,,KON,en,Hong,@hkgreeninitiative,,,influencer,Promotes environmental initiatives
