name,email,country,language,city,instagram,twitter,phone,organization,type,notes
Sombat Boonngamanong,,THA,th,Bangkok,@nuling,not_sure,,Red Sunday Group,activist,Prominent peace and democracy activist
Kritsana Kaewmani,,THA,th,Bangkok,@greenpeace_th,not_sure,,Greenpeace Thailand,activist,Climate and environmental activist
Chumaporn Taengkliang,,THA,th,Bangkok,@chumaporn_tk,not_sure,,Women for Peace,activist,Advocates for peace and women's rights
Nattawut Saikuar,,THA,th,Bangkok,@nattawut.saikuar,not_sure,,United Front for Democracy,activist,Political and peace activist
Tara Buakamsri,,THA,th,Bangkok,@tara_buakamsri,not_sure,,Greenpeace Thailand,activist,Environmental and climate activist
Sasin Chalermlarp,,THA,th,Bangkok,@sasin.chalermlarp,not_sure,,Seub Nakhasathien Foundation,activist,Conservation and biodiversity advocate
Piyabutr Saengkanokkul,,THA,th,Bangkok,@piyabutr,not_sure,,Future Forward Party,activist,Political reform and peace activist
Jatupat Boonpattararaksa,,THA,th,Bangkok,@pai_daodin,not_sure,,Dao Din Group,activist,Human rights and environmental activist
Netiwit Chotiphatphaisal,,THA,th,Bangkok,@netiwit.chotiphatphaisal,not_sure,,Education for Liberation,activist,Education reform and peace advocate
Sirikan Charoensiri,,THA,th,Bangkok,@lawlongbeach,not_sure,,Thai Lawyers for Human Rights,activist,Human rights and peace activist
Anchana Heemmina,,THA,th,Bangkok,@anchanaheemmina,not_sure,,Duay Jai Group,activist,Peace and human rights advocate
Pornpen Khongkachonkiet,,THA,th,Bangkok,@pornpen_k,not_sure,,Cross Cultural Foundation,activist,Human rights and peace activist
Kwanravee Wangudom,,THA,th,Bangkok,@kwanravee,not_sure,,Peace and Culture Foundation,activist,Peace and cultural activist
Napas Na Pombejra,,THA,th,Bangkok,@napasnp,not_sure,,Climate Strike Thailand,activist,Climate change and youth activist
Piyarat Chongthep,,THA,th,Bangkok,@toto_piyarat,not_sure,,We Volunteer,activist,Political and peace activist
Chonticha Jangrew,,THA,th,Bangkok,@chonticha_j,not_sure,,People Go Network,activist,Human rights and peace advocate
Rangsiman Rome,,THA,th,Bangkok,@rangsiman_rome,not_sure,,Future Forward Party,activist,Political reform and peace activist
Sutharee Wannasiri,,THA,th,Bangkok,@suthareew,not_sure,,Fortify Rights,activist,Human rights and peace advocate
Sasin Chalermlarp,,THA,th,Bangkok,@sasin_ch,not_sure,,Seub Nakhasathien Foundation,activist,Leads prominent environmental NGO in Thailand
Kritsana Kaewmani,,THA,th,Bangkok,@kritsana_k,not_sure,,Greenpeace Thailand,activist,Active in climate change campaigns
Piyaporn Srichan,,THA,th,Bangkok,@piyaporn_s,not_sure,,Thai Climate Justice Network,activist,Advocates for climate justice
Nanticha Ocharoenchai,,THA,th,Bangkok,@nanticha_o,not_sure,,Climate Strike Thailand,activist,Organizer of climate strikes in Bangkok
Nattapong Nithi-Uthai,,THA,th,Bangkok,@nattapong_n,not_sure,,Bangkok River Partners,activist,Focuses on river conservation
Chayanit Itthipongmaetee,,THA,th,Bangkok,@chayanit_i,not_sure,,Bangkok Tribune,activist,Environmental journalist and activist
Kornkanok Yongsakul,,THA,th,Bangkok,@kornkanok_y,not_sure,,Thai Sea Watch Association,activist,Marine conservation advocate
Sutharee Wannasiri,,THA,th,Bangkok,@sutharee_w,not_sure,,Fortify Rights,activist,Human rights and environmental activist
Pimchanok Leelaporn,,THA,th,Bangkok,@pimchanok_l,not_sure,,Wildlife Friends Foundation Thailand,activist,Wildlife conservationist
Thanaporn Promyong,,THA,th,Bangkok,@thanaporn_p,not_sure,,Green World Foundation,activist,Promotes environmental education
Chompunut Chaiyan,,THA,th,Bangkok,@chompunut_c,not_sure,,Ecological Alert and Recovery Thailand,activist,Focuses on ecological recovery
Jirawat Prasansap,,THA,th,Bangkok,@jirawat_p,not_sure,,Thai Environment Institute,activist,Environmental policy advocate
Sopida Chaiyasarn,,THA,th,Bangkok,@sopida_c,not_sure,,Bangkok Climate Change Network,activist,Climate change network coordinator
Kritsana Thongbai,,THA,th,Bangkok,@kritsana_t,not_sure,,Thai Youth Climate Movement,activist,Youth climate movement leader
Pongsakorn Chindawatana,,THA,th,Bangkok,@pongsakorn_c,not_sure,,EarthRights International,activist,Environmental and human rights advocate
Nattaporn Rattanaporn,,THA,th,Bangkok,@nattaporn_r,not_sure,,Bangkok Green Network,activist,Promotes urban sustainability
Chutima Sidasathian,,THA,th,Bangkok,@chutima_s,not_sure,,Phuketwan,activist,Environmental journalist and activist
Kamonwan Chaiyaporn,,THA,th,Bangkok,@kamonwan_c,not_sure,,Thai Green Network,activist,Focuses on green policy advocacy
Suwanna Gauntlett,,THA,th,Bangkok,@suwanna_g,not_sure,,Wildlife Alliance,activist,Wildlife protection advocate
Piyathida Chaiyaporn,,THA,th,Bangkok,@piyathida_c,not_sure,,Bangkok Environmental Education Network,activist,Environmental education promoter
Nattapong Chaiyaporn,,THA,th,Bangkok,@nattapong_c,not_sure,,Bangkok Green Society,activist,Urban green space advocate
Kritsana Chaiyaporn,,THA,th,Bangkok,@kritsana_c,not_sure,,Bangkok Biodiversity Network,activist,Biodiversity conservation advocate
Piyaporn Chaiyaporn,,THA,th,Bangkok,@piyaporn_c,not_sure,,Bangkok Climate Action Network,activist,Climate action coordinator
Nanticha Chaiyaporn,,THA,th,Bangkok,@nanticha_c,not_sure,,Bangkok Environmental Network,activist,Environmental network leader
Sasin Chaiyaporn,,THA,th,Bangkok,@sasin_c,not_sure,,Bangkok Nature Conservation Society,activist,Nature conservation advocate
Kornkanok Yongsakul,,THA,th,Bangkok,@kornkanoky,not_sure,,Climate Strike Thailand,activist,Organizes climate strikes in Bangkok
Tara Buakamsri,,THA,th,Bangkok,@tarabuakamsri,@tarabuakamsri,,Greenpeace Thailand,activist,Director of Greenpeace Thailand
Chonticha Jangrew,,THA,th,Bangkok,@chonticha_jangrew,not_sure,,Thai Climate Justice,activist,Advocates for climate justice in Thailand
Rangsiman Rome,,THA,th,Bangkok,@rangsimanrome,@RangsimanRome,,Democracy Restoration Group,activist,Advocates for democracy and climate action
Sirikan Charoensiri,,THA,th,Bangkok,@lawyer_lookkaew,@sirikanya_tlh,,Thai Lawyers for Human Rights,activist,Human rights and environmental lawyer
Netiwit Chotiphatphaisal,,THA,th,Bangkok,@netiwitc,@NetiwitC,,Education for Liberation of Siam,activist,Advocates for educational reform and climate
Kritsuda Khunasen,,THA,th,Bangkok,@kritsuda_k,not_sure,,Thai Lawyers for Human Rights,activist,Human rights and environmental advocate
Jirapat Tatsanasomboon,,THA,th,Bangkok,@jirapat_t,not_sure,,Climate Strike Thailand,activist,Youth climate activist in Bangkok
Nattapong Boonpakdee,,THA,th,Bangkok,@nattapong_b,not_sure,,Thai Climate Justice,activist,Climate justice advocate in Thailand
Chaiyaphum Pasae,,THA,th,Bangkok,@chaiyaphum_p,not_sure,,Northern Development Foundation,activist,Focuses on indigenous rights and environment
Nattaporn Chompoo,,THA,th,Bangkok,@nattaporn_c,not_sure,,Thai Climate Justice,activist,Advocates for climate justice in Thailand
Suthida Chanthawong,,THA,th,Bangkok,@suthida_c,not_sure,,Climate Strike Thailand,activist,Youth climate activist in Bangkok
Nattapong Sae-tan,,THA,th,Bangkok,@nattapong_st,not_sure,,Greenpeace Thailand,activist,Environmental activist with Greenpeace
Napasorn Phumee,,THA,th,Bangkok,@napasorn_p,not_sure,,Thai Climate Justice,activist,Climate justice advocate in Thailand
Chaiwat Satha-anand,,THA,th,Bangkok,@chaiwat_sa,not_sure,,Peace Information Center,activist,Peace and conflict resolution advocate
Nattapong Srisuwan,,THA,th,Bangkok,@nattapong_ss,not_sure,,Greenpeace Thailand,activist,Environmental activist with Greenpeace
Napasorn Charoensuk,,THA,th,Bangkok,@napasorn_c,not_sure,,Climate Strike Thailand,activist,Organizes climate strikes in Bangkok
Chaiyaporn Sae-tang,,THA,th,Bangkok,@chaiyaporn_st,not_sure,,Thai Climate Justice,activist,Advocates for climate justice in Thailand
Kritsana Sae-tang,,THA,th,Bangkok,@kritsana_st,not_sure,,Greenpeace Thailand,activist,Environmental activist with Greenpeace
Nattaporn Sae-tang,,THA,th,Bangkok,@nattaporn_st,not_sure,,Thai Climate Justice,activist,Climate justice advocate in Thailand
Suthida Sae-tang,,THA,th,Bangkok,@suthida_st,not_sure,,Climate Strike Thailand,activist,Youth climate activist in Bangkok
Napasorn Sae-tang,,THA,th,Bangkok,@napasorn_st,not_sure,,Thai Climate Justice,activist,Climate justice advocate in Thailand
Chaiwat Sae-tang,,THA,th,Bangkok,@chaiwat_st,not_sure,,Peace Information Center,activist,Peace and conflict resolution advocate
Sasin Chalermlarp,,THA,th,Bangkok,@sasin_chalermlarp,not_sure,,Seub Nakhasathien Foundation,activist,Leads environmental conservation efforts in Thailand
Piyaporn Wongruang,,THA,th,Bangkok,@piyaporn_w,not_sure,,Environmental Journalist,activist,Covers environmental issues in Thailand
Nanticha Ocharoenchai,,THA,th,Bangkok,@nanticha,not_sure,,Climate Strike Thailand,activist,Organizes climate strikes in Bangkok
Chayanis Krittanurak,,THA,th,Bangkok,@chayanis_k,not_sure,,Thai Climate Justice,activist,Advocates for climate justice in Thailand
Rungnapa Apisorn,,THA,th,Bangkok,@rungnapa_a,not_sure,,Nature Conservationist,activist,Promotes biodiversity conservation
Pattama Ruenroeng,,THA,th,Bangkok,@pattama_r,not_sure,,Peace and Conflict Researcher,activist,Focuses on peace initiatives
Jirapat Chusuwan,,THA,th,Bangkok,@jirapat_c,not_sure,,Wildlife Conservationist,activist,Works on wildlife protection projects
Pimchanok Suksawat,,THA,th,Bangkok,@pimchanok_s,not_sure,,Climate Action Network,activist,Coordinates climate action campaigns
Worawut Rattanapong,,THA,th,Bangkok,@worawut_r,not_sure,,Peacebuilding Initiatives,activist,Engages in peacebuilding activities
Chalita Phongpan,,THA,th,Bangkok,@chalita_p,not_sure,,Climate Justice Advocate,activist,Advocates for climate justice
Nattaporn Kanjanapong,,THA,th,Bangkok,@nattaporn_k,not_sure,,Environmental Awareness Campaigner,activist,Raises awareness on environmental issues
Thanaporn Chusak,,THA,th,Bangkok,@thanaporn_c,not_sure,,Climate Change Educator,activist,Educates on climate change impacts
Suthida Wong,,THA,th,Bangkok,@suthida_w,not_sure,,Peace and Environment Advocate,activist,Promotes peace and environmental protection
Jirapat Ruenroeng,,THA,th,Bangkok,@jirapat_r,not_sure,,Wildlife Protection Advocate,activist,Advocates for wildlife protection
Pattama Charoenrat,,THA,th,Bangkok,@pattama_c,not_sure,,Environmental Sustainability Promoter,activist,Promotes environmental sustainability
Chayanis Wongruang,,THA,th,Bangkok,@chayanis_w,not_sure,,Climate Action Advocate,activist,Advocates for climate action
Rungnapa Krittanurak,,THA,th,Bangkok,@rungnapa_k,not_sure,,Biodiversity Conservationist,activist,Focuses on biodiversity conservation
Nanticha Apisorn,,THA,th,Bangkok,@nanticha_a,not_sure,,Climate Strike Organizer,activist,Organizes climate strikes
Kornkanok Chusuwan,,THA,th,Bangkok,@kornkanok_c,not_sure,,Greenpeace Activist,activist,Active in Greenpeace campaigns
Sasin Yongsakul,,THA,th,Bangkok,@sasin_y,not_sure,,Environmental Conservationist,activist,Leads conservation efforts in Thailand
Thanapong Wong,,THA,th,Bangkok,@thanapong_w,not_sure,,Eco-Friendly Advocate,activist,Promotes eco-friendly practices
Pimchanok Charoensuk,,THA,th,Bangkok,@pimchanok_c,not_sure,,Climate Network Coordinator,activist,Coordinates climate networks
Kritsana Suksawat,,THA,th,Bangkok,@kritsana_s,not_sure,,Sustainable Development Promoter,activist,Promotes sustainable development
Sopida Chaiyaphum,,THA,th,Bangkok,@sopida_ch,not_sure,,Environmental Policy Advocate,activist,Advocates for environmental policies
Worawut Charoen,,THA,th,Bangkok,@worawut_c,not_sure,,Peacebuilding Advocate,activist,Advocates for peacebuilding
Chalita Rattanapong,,THA,th,Bangkok,@chalita_r,not_sure,,Climate Justice Promoter,activist,Promotes climate justice
Nattaporn Phongpan,,THA,th,Bangkok,@nattaporn_p,not_sure,,Environmental Campaigner,activist,Campaigns for environmental awareness
Piyaporn Kanjanapong,,THA,th,Bangkok,@piyaporn_k,not_sure,,Nature Advocate,activist,Advocates for nature protection
Thanaporn Charoenrat,,THA,th,Bangkok,@thanaporn_ch,not_sure,,Climate Educator,activist,Educates on climate issues
Suthida Chusak,,THA,th,Bangkok,@suthida_ch,not_sure,,Peace and Environment Promoter,activist,Promotes peace and environment
Jirapat Wong,,THA,th,Bangkok,@jirapat_w,not_sure,,Wildlife Advocate,activist,Advocates for wildlife conservation
Chayanis Charoen,,THA,th,Bangkok,@chayanis_c,not_sure,,Climate Action Promoter,activist,Promotes climate action
Rungnapa Wongruang,,THA,th,Bangkok,@rungnapa_w,not_sure,,Biodiversity Advocate,activist,Advocates for biodiversity
Nanticha Krittanurak,,THA,th,Bangkok,@nanticha_k,not_sure,,Climate Strike Activist,activist,Active in climate strikes
