name,email,country,language,city,instagram,phone,organization,type,notes
Fundación Terram,,CHL,es,Santiago,@fundacionterram,,,other,Environmental policy and advocacy organization
Greenpeace Chile,,CHL,es,Santiago,@greenpeacechile,,,other,Global environmental organization with local presence
Fundación Basura,,CHL,es,Santiago,@fundacionbasura,,,other,Promotes zero waste lifestyle in Chile
Red de Pobreza Energética,,CHL,es,Santiago,@redpobrezaenergetica,,,other,Focuses on energy poverty and sustainability
Fundación Fungi,,CHL,es,Santiago,@fundacionfungi,,,other,Conservation of fungi biodiversity
Fundación Huilo Huilo,,CHL,es,Santiago,@fundacionhuilohuilo,,,other,Conservation and sustainable tourism
Fundación Chile,,CHL,es,Santiago,@fundacionchile,,,other,Innovation in sustainability and education
Fundación Casa de la Paz,,CHL,es,Santiago,@casadelapaz,,,other,Promotes peace and environmental education
Fundación Pumalín,,CHL,es,Santiago,@fundacionpumalin,,,other,Conservation of native forests
Fundación Lepe,,CHL,es,Santiago,@fundacionlepe,,,other,Supports sustainable development projects
Fundación Ríos to Rivers,,CHL,es,Santiago,@riostorivers,,,other,Focuses on river conservation and education
Fundación Mar Adentro,,CHL,es,Santiago,@fundacionmaradentro,,,other,Promotes art and nature conservation
Fundación Kennedy,,CHL,es,Santiago,@fundacionkennedy,,,other,Wetland conservation and restoration
Fundación Reforestemos,,CHL,es,Santiago,@reforestemos,,,other,Reforestation and native forest conservation
Fundación Avina,,CHL,es,Santiago,@fundacionavina,,,other,Sustainable development and social innovation
Fundación Huella Local,,CHL,es,Santiago,@huellalocal,,,other,Local development and sustainability projects
Fundación Ciudadano Inteligente,,CHL,es,Santiago,@ciudadanointeligente,,,other,Promotes transparency and civic engagement
Fundación Iguales,,CHL,es,Santiago,@fundacioniguales,,,other,Advocates for equality and human rights
Fundación Proyecta Memoria,,CHL,es,Santiago,@proyectamemoria,,,other,Preserves historical memory and promotes peace
Fundación Sol,,CHL,es,Santiago,@fundacionsol,,,other,Research on labor and social issues
Fundación Trascender,,CHL,es,Santiago,@fundaciontrascender,,,other,Volunteerism and social development
Fundación Superación de la Pobreza,,CHL,es,Santiago,@superaciondelapobreza,,,other,Poverty alleviation and social inclusion
Fundación Mi Parque,,CHL,es,Santiago,@miparque,,,other,Urban green spaces and community development
Fundación América Solidaria,,CHL,es,Santiago,@americasolidaria,,,other,International cooperation and social development
Fundación Colunga,,CHL,es,Santiago,@fundacioncolunga,,,other,Social innovation and collaboration
Fundación Pro Bono,,CHL,es,Santiago,@probono_cl,,,other,Legal assistance and social justice
Fundación Chile Descentralizado,,CHL,es,Santiago,@chiledescentralizado,,,other,Promotes regional development and decentralization
Fundación Educación 2020,,CHL,es,Santiago,@educacion2020,,,other,Education reform and policy advocacy
Fundación Emilia,,CHL,es,Santiago,@fundacionemilia,,,other,Road safety and accident prevention
CODEFF,,CHL,es,Santiago,@codeff_chile,,,other,Oldest environmental NGO in Chile
Red de Acción por los Derechos Ambientales,,CHL,es,Santiago,@rada_chile,,,other,Advocates for environmental rights
Fundación Mi Parque,,CHL,es,Santiago,@fundacionmiparque,,,other,Urban green space development
Fundación Ronda,,CHL,es,Santiago,@fundacionronda,,,other,Social inclusion and environmental education
Fundación Sendero de Chile,,CHL,es,Santiago,@senderodechile,,,other,Promotes outdoor activities and conservation
Fundación Vivir Más Feliz,,CHL,es,Santiago,@vivirmasfeliz,,,other,Supports children with cancer and their families
Fundación Todo Mejora,,CHL,es,Santiago,@todomejora,,,other,LGBTQ+ youth support and mental health
Fundación Integra,,CHL,es,Santiago,@fundacionintegra,,,other,Early childhood education and care
Fundación País Digital,,CHL,es,Santiago,@paisdigital,,,other,Digital transformation and innovation
Fundación Descúbreme,,CHL,es,Santiago,@descubreme,,,other,Inclusion of people with disabilities
Fundación Tierra Austral,,CHL,es,Santiago,@fundaciontierraaustral,,,other,Land conservation and sustainable use
Fundación Tompkins Conservation,,CHL,es,Santiago,@tompkins_conservation,,,other,Large-scale conservation projects in Chile
Fundación Vida Silvestre,,CHL,es,Santiago,@fundacionvidasilvestre,,,other,Wildlife conservation and education
Instituto de Ecología y Biodiversidad,,CHL,es,Santiago,@iebchile,,,other,Research on ecology and biodiversity
Observatorio Ciudadano,,CHL,es,Santiago,@observatoriociudadano,,,other,Human rights and environmental justice
Sociedad Chilena de Ecología,,CHL,es,Santiago,@sochileco,,,other,Professional society for ecologists in Chile
Sustentable,,CHL,es,Santiago,@sustentable,,,other,Promotes sustainable development practices
Territorios Vivos,,CHL,es,Santiago,@territoriosvivos,,,other,Community-based conservation initiatives
Chile Sustentable,,CHL,es,Santiago,@chilesustentable,,,other,Advocacy for sustainable policies in Chile
Fundación Junto al Barrio,,CHL,es,Santiago,@juntoalbarrio,,,other,Community development and empowerment
Fundación Urbanismo Social,,CHL,es,Santiago,@urbanismosocial,,,other,Sustainable urban development and planning
Fundación Vivienda,,CHL,es,Santiago,@fundacionvivienda,,,other,Affordable housing and community development
Fundación para la Innovación Agraria,,CHL,es,Santiago,@fia_chile,,,other,Agricultural innovation and sustainability
Fundación para la Promoción y Desarrollo de la Mujer,,CHL,es,Santiago,@prodemu,,,other,Women's empowerment and development
Fundación para la Vida,,CHL,es,Santiago,@fundacionparalavida,,,other,Promotes health and environmental well-being
Fundación Proyecto Propio,,CHL,es,Santiago,@proyectopropio,,,other,Supports local entrepreneurship and innovation
Fundación Rodelillo,,CHL,es,Santiago,@fundacionrodelillo,,,other,Family support and community development
Fundación San Carlos de Maipo,,CHL,es,Santiago,@fundacionsancarlos,,,other,Social development and environmental projects
Fundación Semilla,,CHL,es,Santiago,@fundacionsemilla,,,other,Education and environmental awareness
Fundación Servicio Jesuita a Migrantes,,CHL,es,Santiago,@sjmchile,,,other,Supports migrants and refugees in Chile
Fundación Techo,,CHL,es,Santiago,@techo,,,other,Housing and community development for the poor
Fundación Trabajo para un Hermano,,CHL,es,Santiago,@trabajoparaunhermano,,,other,Employment and social inclusion initiatives
Amigos de los Parques,,CHL,es,Santiago,@amigosdelosparques,,Amigos de los Parques,other,Focus on national park conservation
Fundación MERI,,CHL,es,Santiago,@fundacionmeri,,Fundación MERI,other,Focus on marine conservation and research
Fundación Vida Silvestre,,CHL,es,Santiago,@vidasilvestrecl,,Fundación Vida Silvestre,other,Wildlife conservation and education
Red de Observadores de Aves y Vida Silvestre de Chile,,CHL,es,Santiago,@roc_chile,,Red de Observadores de Aves y Vida Silvestre de Chile,other,Birdwatching and wildlife conservation
The Nature Conservancy Chile,,CHL,es,Santiago,@tnc_chile,,The Nature Conservancy Chile,other,Global conservation organization with local projects
WWF Chile,,CHL,es,Santiago,@wwf_chile,,WWF Chile,other,Global wildlife conservation organization active locally
Fundación Chile Lagos Limpios,,CHL,es,Santiago,@chilelagoslimpios,,Fundación Chile Lagos Limpios,other,Focus on clean water and lake conservation
Fundación Patagonia,,CHL,es,Santiago,@fundacionpatagonia,,Fundación Patagonia,other,Conservation projects in Patagonia region
