name,email,country,language,city,instagram,twitter,phone,organization,type,notes
David Suzuki Foundation,,CAN,en,Vancouver,@davidsuzukifdn,@DavidSuzukiFDN,,,ngo,Prominent environmental NGO in Canada
Ecojustice Canada,,CAN,en,Vancouver,@ecojustice_ca,@ecojustice_ca,,,ngo,Environmental law organization based in Vancouver
Sierra Club BC,,CAN,en,Vancouver,@sierraclubbc,@SierraClubBC,,,ngo,Focuses on climate action and nature protection
West Coast Environmental Law,,CAN,en,Vancouver,@wcelaw,not_sure,,,ngo,Provides legal support for environmental issues
Georgia Strait Alliance,,CAN,en,Vancouver,@georgiastraitbc,not_sure,,,ngo,Protects marine environment in Georgia Strait
Wildlife Rescue Association of BC,,CAN,en,Vancouver,@wildliferescuebc,not_sure,,,ngo,Rescues and rehabilitates wildlife in BC
Vancouver Foundation,,CAN,en,Vancouver,@vancouverfdn,not_sure,,,ngo,Funds community projects including environmental initiatives
SPEC (Society Promoting Environmental Conservation),,CAN,en,Vancouver,@specbc,not_sure,,,ngo,Focuses on urban sustainability and conservation
BC Sustainable Energy Association,,CAN,en,Vancouver,@bcsustainableenergy,not_sure,,,ngo,Promotes sustainable energy solutions in BC
Living Oceans Society,,CAN,en,Vancouver,@livingoceans,not_sure,,,ngo,Advocates for healthy oceans and marine life
Pacific Wild,,CAN,en,Vancouver,@pacificwild,not_sure,,,ngo,Protects wildlife and their habitat on BC coast
Raincoast Conservation Foundation,,CAN,en,Vancouver,@raincoastconservation,not_sure,,,ngo,Conserves coastal ecosystems and wildlife
Dogwood BC,,CAN,en,Vancouver,@dogwoodbc,not_sure,,,ngo,Empowers citizens to protect environment and democracy
Wilderness Committee,,CAN,en,Vancouver,@wildernesscommittee,not_sure,,,ngo,Advocates for wilderness and wildlife protection
Fraser Riverkeeper,,CAN,en,Vancouver,@fraserriverkeeper,not_sure,,,ngo,Protects water quality in Fraser River
Nature Vancouver,,CAN,en,Vancouver,@naturevancouver,not_sure,,,ngo,Promotes nature appreciation and conservation
Greenpeace Canada,,CAN,en,Vancouver,@greenpeace_canada,@GreenpeaceCA,,,ngo,International environmental NGO with Vancouver office
Ocean Wise,,CAN,en,Vancouver,@oceanwise,@OceanWise,,,ngo,Focuses on ocean conservation and education
BC Parks Foundation,,CAN,en,Vancouver,@bcparksfdn,not_sure,,,ngo,Supports BC parks and protected areas
Canadian Parks and Wilderness Society (CPAWS) BC,,CAN,en,Vancouver,@cpawsbc,not_sure,,,ngo,Protects wilderness and parks in BC
Vancouver Urban Farming Society,,CAN,en,Vancouver,@vanurbanfarmers,not_sure,,,ngo,Promotes urban agriculture and sustainability
Be The Change Earth Alliance,,CAN,en,Vancouver,@bethechangeearthalliance,not_sure,,,ngo,Educates on sustainable living and climate action
Environmental Youth Alliance,,CAN,en,Vancouver,@eyabc,not_sure,,,ngo,Empowers youth for environmental leadership
Vancouver Renewable Energy Cooperative,,CAN,en,Vancouver,@vrecsolar,not_found,,,ngo,Promotes renewable energy solutions in Vancouver
Wild Bird Trust of British Columbia,,CAN,en,Vancouver,@wildbirdtrustbc,not_found,,,ngo,Protects bird habitats and promotes bird conservation
Watershed Watch Salmon Society,,CAN,en,Vancouver,@watershedwatchbc,@WatershedWatch_,,,ngo,Protects wild salmon and their habitats
The Land Conservancy of BC,,CAN,en,Vancouver,@tlc4bc,@TLC4BC,,,ngo,Conserves land and cultural heritage in BC
BC Nature,,CAN,en,Vancouver,@bcnature,@BCNature,,,ngo,Federation of naturalist clubs in BC
Vancouver Humane Society,,CAN,en,Vancouver,@vancouverhumane,@VanHumane,,,ngo,Advocates for animal welfare and protection
Nature Trust of British Columbia,,CAN,en,Vancouver,@naturetrustbc,@NatureTrustBC,,,ngo,Acquires and manages ecologically significant land
BC Environmental Network,,CAN,en,Vancouver,@bceconet,not_found,,,ngo,Network of environmental groups in BC
Vancouver Aquarium,,CAN,en,Vancouver,@vanaqua,@vanaqua,,,ngo,Focuses on marine research and conservation
Burnaby Association for Community Inclusion,,CAN,en,Vancouver,@baci.bc,not_found,,,ngo,Supports inclusive communities and environmental projects
Canadian Wildlife Federation,,CAN,en,Vancouver,@cwf_fcf,@CWF_FCF,,,ngo,National NGO with strong presence in Vancouver
Vancouver Island Marmot Recovery Foundation,,CAN,en,Vancouver,@vimarmot,@marmotsdotorg,,,ngo,Focuses on recovery of endangered marmots
BC Aboriginal Fisheries Commission,,CAN,en,Vancouver,@bcafc,not_found,,,ngo,Supports Indigenous fisheries and conservation
BC Wildlife Federation,,CAN,en,Vancouver,@bcwildlifefederation,@BCWildlife,,,ngo,Conserves and protects BC's wildlife and habitats
Canadian Freshwater Alliance,,CAN,en,Vancouver,@freshwateralliance,@H2OAlliance,,,ngo,Protects freshwater ecosystems across Canada
Vancouver Public Space Network,,CAN,en,Vancouver,@vancouverpsn,@VancouverPSN,,,ngo,Advocates for public space and urban sustainability
BC Green Party,,CAN,en,Vancouver,@bcgreens,@BCGreens,,,ngo,Political party focused on environmental issues
Vancouver Climate Save,,CAN,en,Vancouver,@vancouverclimatesave,not_found,,,ngo,Part of global movement for climate action
Fraser Basin Council,,CAN,en,Vancouver,@fraserbasin,@FraserBasin,,,ngo,Sustainability and resilience in Fraser Basin
BC Nature,,CAN,en,Vancouver,@bcnaturefederation,not_sure,,,ngo,Federation of naturalist clubs in BC
Environmental Youth Alliance,,CAN,en,Vancouver,@eyabuzz,not_sure,,,ngo,Youth-led environmental projects
North Shore Black Bear Society,,CAN,en,Vancouver,@northshoreblackbearsociety,not_sure,,,ngo,Bear conservation and education
Burnaby Association for Community Inclusion,,CAN,en,Vancouver,@baci.burnaby,not_sure,,,ngo,Community inclusion and environmental projects
Surfrider Foundation Vancouver,,CAN,en,Vancouver,@surfridervancouver,not_sure,,,ngo,Protects ocean and beaches
Vancouver Urban Farming Society,,CAN,en,Vancouver,@vanurbanfarming,not_sure,,,ngo,Promotes urban agriculture
Nature Conservancy of Canada - BC Region,,CAN,en,Vancouver,@natureconservancy_ca,@NCC_CNC,,,ngo,Land conservation and biodiversity
Vancouver Renewable Energy Cooperative,,CAN,en,Vancouver,@vanrenewable,not_sure,,,ngo,Promotes renewable energy solutions
BC Climate Action Secretariat,,CAN,en,Vancouver,@bcgovnews,@BCGovNews,,,ngo,Provincial climate policy and action
Wildsight,,CAN,en,Vancouver,@wildsight,@wildsight,,,ngo,Conservation and sustainable communities
Vancouver Coastal Health - Environmental Health,,CAN,en,Vancouver,@vchhealthcare,not_sure,,,ngo,Environmental health and safety
Vancouver Public Library - Sustainability,,CAN,en,Vancouver,@vancouverpubliclibrary,@VPL,,,ngo,Sustainability programs and resources
Vancouver Island Marmot Recovery Foundation,,CAN,en,Vancouver,@marmotsos,not_sure,,,ngo,Conservation of endangered marmots
Vancouver Bird Strategy,,CAN,en,Vancouver,@vancouverbirds,not_sure,,,ngo,Bird conservation and urban habitat
Vancouver Climate Hub,,CAN,en,Vancouver,@vancouverclimatehub,not_sure,,,ngo,Climate action and advocacy
Vancouver Greenest City Initiative,,CAN,en,Vancouver,@greenestcity,not_sure,,,ngo,City's sustainability and climate goals
Vancouver Food Policy Council,,CAN,en,Vancouver,@vanfoodpolicy,not_sure,,,ngo,Food security and sustainable food systems
Vancouver Urban Forestry Foundation,,CAN,en,Vancouver,@vancouverurbanforestry,not_sure,,,ngo,Urban tree planting and care
Vancouver Water Watch,,CAN,en,Vancouver,@vanwaterwatch,not_sure,,,ngo,Water conservation and protection
Vancouver Zero Waste Centre,,CAN,en,Vancouver,@vanzerowaste,not_sure,,,ngo,Promotes zero waste practices
Vancouver Environmental Education Centre,,CAN,en,Vancouver,@vanenviroedu,not_sure,,,ngo,Environmental education programs
Vancouver Sustainability Network,,CAN,en,Vancouver,@vansustainability,not_sure,,,ngo,Network for sustainability initiatives
Vancouver Environmental Youth Alliance,,CAN,en,Vancouver,@vaneyouthalliance,not_sure,,,ngo,Youth-led environmental action
Vancouver EcoVillage,,CAN,en,Vancouver,@vanecovillage,not_sure,,,ngo,Sustainable living and community building
Vancouver Environmental Law Centre,,CAN,en,Vancouver,@vanenvlawcentre,not_sure,,,ngo,Legal support for environmental issues
Vancouver Green Building Council,,CAN,en,Vancouver,@vangreenbuilding,not_sure,,,ngo,Promotes sustainable building practices
Vancouver Climate Action Network,,CAN,en,Vancouver,@vanclimateaction,not_sure,,,ngo,Climate advocacy and education
Vancouver Environmental Coalition,,CAN,en,Vancouver,@vanenvcoalition,not_sure,,,ngo,Coalition of environmental groups
Vancouver Green Spaces Initiative,,CAN,en,Vancouver,@vangreenspaces,not_sure,,,ngo,Promotes urban green spaces
Vancouver Environmental Justice Network,,CAN,en,Vancouver,@vanenvjustice,not_sure,,,ngo,Focus on environmental justice issues
Vancouver EcoAction Network,,CAN,en,Vancouver,@vanecoaction,not_sure,,,ngo,Community-led environmental action
Vancouver Green Economy Coalition,,CAN,en,Vancouver,@vangreeneconomy,not_sure,,,ngo,Promotes green economic development
Vancouver Environmental Health Coalition,,CAN,en,Vancouver,@vanenvhealth,not_sure,,,ngo,Focus on environmental health issues
Vancouver Green Transportation Initiative,,CAN,en,Vancouver,@vangreentransport,not_sure,,,ngo,Promotes sustainable transportation
Vancouver Environmental Research Centre,,CAN,en,Vancouver,@vanenvresearch,not_sure,,,ngo,Conducts environmental research
Vancouver Green Living Network,,CAN,en,Vancouver,@vangreenliving,not_sure,,,ngo,Network for sustainable living practices
Vancouver Environmental Policy Institute,,CAN,en,Vancouver,@vanenvpolicy,not_sure,,,ngo,Policy research and advocacy
Vancouver Green Energy Alliance,,CAN,en,Vancouver,@vangreenenergy,not_sure,,,ngo,Promotes renewable energy solutions
Vancouver Environmental Action Group,,CAN,en,Vancouver,@vanenvaction,not_sure,,,ngo,Grassroots environmental advocacy
Vancouver Green Infrastructure Initiative,,CAN,en,Vancouver,@vangreeninfra,not_sure,,,ngo,Promotes green infrastructure projects
Vancouver Environmental Advocacy Network,,CAN,en,Vancouver,@vanenvadvocacy,not_sure,,,ngo,Advocacy for environmental issues
Vancouver Green Building Network,,CAN,en,Vancouver,@vangreenbuildingnetwork,not_found,,,ngo,Promotes sustainable building practices
Vancouver Environmental Sustainability Network,,CAN,en,Vancouver,@vansustainabilitynetwork,not_found,,,ngo,Network for sustainability initiatives
Vancouver Green Community Initiative,,CAN,en,Vancouver,@vangreencommunity,not_found,,,ngo,Community-led green projects
Vancouver Environmental Education Network,,CAN,en,Vancouver,@vanenveducation,not_found,,,ngo,Environmental education programs
Vancouver Green Economy Network,,CAN,en,Vancouver,@vangreeneconomynetwork,not_found,,,ngo,Promotes green economic development
Vancouver Environmental Health Network,,CAN,en,Vancouver,@vanenvhealthnetwork,not_found,,,ngo,Focus on environmental health issues
Vancouver Green Transportation Network,,CAN,en,Vancouver,@vangreentransportnetwork,not_found,,,ngo,Promotes sustainable transportation
Vancouver Environmental Research Network,,CAN,en,Vancouver,@vanenvresearchnetwork,not_found,,,ngo,Conducts environmental research
Vancouver Green Living Initiative,,CAN,en,Vancouver,@vangreenlivinginitiative,not_found,,,ngo,Network for sustainable living practices
Vancouver Environmental Policy Network,,CAN,en,Vancouver,@vanenvpolicynetwork,not_found,,,ngo,Policy research and advocacy
Vancouver Green Energy Network,,CAN,en,Vancouver,@vangreenenergynetwork,not_found,,,ngo,Promotes renewable energy solutions
Vancouver Environmental Action Network,,CAN,en,Vancouver,@vanenvactionnetwork,not_found,,,ngo,Grassroots environmental advocacy
Vancouver Green Infrastructure Network,,CAN,en,Vancouver,@vangreeninfranetwork,not_found,,,ngo,Promotes green infrastructure projects
Vancouver Environmental Advocacy Network,,CAN,en,Vancouver,@vanenvadvocacynetwork,not_found,,,ngo,Advocacy for environmental issues
Be The Change Earth Alliance,,CAN,en,Vancouver,@bethechangeearth,@BeTheChangeEA,,,ngo,Environmental education and action
Bird Studies Canada,,CAN,en,Vancouver,@birdscanada,@BirdsCanada,,,ngo,Bird research and conservation
Salmon Safe BC,,CAN,en,Vancouver,@salmonsafebc,@SalmonSafeBC,,,ngo,Protects salmon habitats
