name,email,country,language,city,instagram,phone,organization,type,notes
Environment Support Group,,IND,hi,Bangalore,@esgindia,,Environment Support Group,other,Local environmental advocacy group
Ashoka Trust for Research in Ecology and the Environment,,IND,hi,Bangalore,@atree_org,,ATREE,other,Research on ecology and environment
Bangalore Sustainability Forum,,IND,hi,Bangalore,@bangaloresustainabilityforum,,Bangalore Sustainability Forum,other,Promotes sustainable urban living
Indian Institute of Science,,IND,hi,Bangalore,@iiscbangalore,,IISc,other,Research on climate and sustainability
Centre for Environment Education,,IND,hi,Bangalore,@ceebangalore,,CEE,other,Environmental education and awareness
Bangalore Political Action Committee,,IND,hi,Bangalore,@bpacofficial,,B.PAC,other,Civic and political engagement
Jhatkaa.org,,IND,hi,Bangalore,@jhatkaadotorg,,Jhatkaa.org,other,Digital advocacy for social change
Citizen Matters,,IND,hi,Bangalore,@citizenmatters,,Citizen Matters,other,Covers urban issues and civic engagement
Hasiru Dala,,IND,hi,Bangalore,@hasirudala,,Hasiru Dala,other,Waste management and social justice
The Energy and Resources Institute,,IND,hi,Bangalore,@teriin,,TERI,other,Research on energy and environment
Greenpeace India,,IND,hi,Bangalore,@greenpeaceindia,,Greenpeace India,other,Environmental activism and campaigns
Wildlife Conservation Society India,,IND,hi,Bangalore,@wcsindia,,WCS India,other,Wildlife conservation and research
The Nature Conservancy India,,IND,hi,Bangalore,@tnc_india,,TNC India,other,Nature conservation and climate action
Bangalore Environment Trust,,IND,hi,Bangalore,@bangaloreenvironmenttrust,,Bangalore Environment Trust,other,Environmental protection initiatives
Sustainability Initiatives,,IND,hi,Bangalore,@sustainability_initiatives,,Sustainability Initiatives,other,Promotes sustainable practices
Centre for Science and Environment,,IND,hi,Bangalore,@cseindia,,CSE,other,Research and advocacy on environment
Bangalore Climate Action Group,,IND,hi,Bangalore,@bangaloreclimateaction,,Bangalore Climate Action Group,other,Local climate action initiatives
Indian Youth Climate Network,,IND,hi,Bangalore,@iycn.in,,IYCN,other,Youth-led climate action network
Sustainable Alternatives for Poverty Reduction and Ecological Justice,,IND,hi,Bangalore,@sapindia,,SAP,other,Focus on sustainability and justice
Bangalore Eco Team,,IND,hi,Bangalore,@bangaloreecoteam,,Bangalore Eco Team,other,Community-driven environmental projects
Bangalore Green Brigade,,IND,hi,Bangalore,@bangaloregreenbrigade,,Bangalore Green Brigade,other,Urban greening and conservation efforts
Centre for Wildlife Studies,,IND,hi,Bangalore,@cwsindia,,CWS,other,Wildlife research and conservation
Bangalore Peace Initiative,,IND,hi,Bangalore,@bangalorepeaceinitiative,,Bangalore Peace Initiative,other,Promotes peace and conflict resolution
Bangalore Biodiversity Network,,IND,hi,Bangalore,@bangalorebiodiversitynetwork,,Bangalore Biodiversity Network,other,Biodiversity conservation efforts
Bangalore Urban Farming Collective,,IND,hi,Bangalore,@bangaloreurbanfarming,,Bangalore Urban Farming Collective,other,Promotes urban agriculture and sustainability
Bangalore Water Warriors,,IND,hi,Bangalore,@bangalorewaterwarriors,,Bangalore Water Warriors,other,Water conservation and management
Bangalore Green Spaces Initiative,,IND,hi,Bangalore,@bangaloregreenspaces,,Bangalore Green Spaces Initiative,other,Protects and promotes green spaces
Bangalore Renewable Energy Group,,IND,hi,Bangalore,@bangalorerenewableenergy,,Bangalore Renewable Energy Group,other,Advocates for renewable energy solutions
Bangalore Wildlife Volunteers,,IND,hi,Bangalore,@bangalorewildlifevolunteers,,Bangalore Wildlife Volunteers,other,Wildlife protection and rescue efforts
Bangalore Clean Air Initiative,,IND,hi,Bangalore,@bangalorecleanair,,Bangalore Clean Air Initiative,other,Focus on air quality improvement
Bangalore Green Transport Network,,IND,hi,Bangalore,@bangaloregreentransport,,Bangalore Green Transport Network,other,Promotes sustainable transport solutions
Bangalore Climate Resilience Group,,IND,hi,Bangalore,@bangaloreclimateresilience,,Bangalore Climate Resilience Group,other,Focus on climate resilience strategies
Bangalore Eco-Friendly Living Collective,,IND,hi,Bangalore,@bangaloreecofriendlyliving,,Bangalore Eco-Friendly Living Collective,other,Promotes eco-friendly lifestyles
Bangalore Green Building Council,,IND,hi,Bangalore,@bangaloregreenbuilding,,Bangalore Green Building Council,other,Advocates for sustainable architecture
Bangalore Environmental Justice Network,,IND,hi,Bangalore,@bangaloreenvironmentaljustice,,Bangalore Environmental Justice Network,other,Focus on environmental justice issues
Bangalore Nature Lovers,,IND,hi,Bangalore,@bangalorenaturelovers,,Bangalore Nature Lovers,other,Community of nature enthusiasts
Bangalore Green Economy Forum,,IND,hi,Bangalore,@bangaloregreeneconomy,,Bangalore Green Economy Forum,other,Focus on sustainable economic practices
Bangalore Urban Ecology Network,,IND,hi,Bangalore,@bangaloreurbanecology,,Bangalore Urban Ecology Network,other,Urban ecology and biodiversity
Bangalore Clean Energy Coalition,,IND,hi,Bangalore,@bangalorecleanenergy,,Bangalore Clean Energy Coalition,other,Promotes clean energy initiatives
Bangalore Environmental Education Society,,IND,hi,Bangalore,@bangaloreenvironmentaleducation,,Bangalore Environmental Education Society,other,Focus on environmental education
Bangalore Green Technology Group,,IND,hi,Bangalore,@bangaloregreentechnology,,Bangalore Green Technology Group,other,Promotes green technology solutions
Bangalore Biodiversity Conservation Society,,IND,hi,Bangalore,@bangalorebiodiversityconservation,,Bangalore Biodiversity Conservation Society,other,Focus on biodiversity conservation
Bangalore Environmental Policy Forum,,IND,hi,Bangalore,@bangaloreenvironmentalpolicy,,Bangalore Environmental Policy Forum,other,Advocates for environmental policy changes
Bangalore Green Innovation Hub,,IND,hi,Bangalore,@bangaloregreeninnovation,,Bangalore Green Innovation Hub,other,Focus on green innovation and startups
Bangalore Climate Education Network,,IND,hi,Bangalore,@bangaloreclimateeducation,,Bangalore Climate Education Network,other,Promotes climate education initiatives
Bangalore Environmental Research Institute,,IND,hi,Bangalore,@bangaloreenvironmentalresearch,,Bangalore Environmental Research Institute,other,Conducts environmental research
Bangalore Green Community Network,,IND,hi,Bangalore,@bangaloregreencommunity,,Bangalore Green Community Network,other,Community-driven green initiatives
Bangalore Sustainable Development Forum,,IND,hi,Bangalore,@bangaloresustainabledevelopment,,Bangalore Sustainable Development Forum,other,Focus on sustainable development goals
Bangalore Environmental Advocacy Group,,IND,hi,Bangalore,@bangaloreenvironmentaladvocacy,,Bangalore Environmental Advocacy Group,other,Advocates for environmental protection
Bangalore Green Energy Society,,IND,hi,Bangalore,@bangaloregreenenergy,,Bangalore Green Energy Society,other,Promotes green energy solutions
Bangalore Urban Sustainability Network,,IND,hi,Bangalore,@bangaloreurbansustainability,,Bangalore Urban Sustainability Network,other,Focus on urban sustainability practices
Bangalore Environmental Awareness Group,,IND,hi,Bangalore,@bangaloreenvironmentalawareness,,Bangalore Environmental Awareness Group,other,Promotes environmental awareness campaigns
Bangalore Green Infrastructure Forum,,IND,hi,Bangalore,@bangaloregreeninfrastructure,,Bangalore Green Infrastructure Forum,other,Focus on green infrastructure development
Bangalore Climate Justice Network,,IND,hi,Bangalore,@bangaloreclimatejustice,,Bangalore Climate Justice Network,other,Advocates for climate justice
Bangalore Green Economy Network,,IND,hi,Bangalore,@bangaloregreeneconomynetwork,,Bangalore Green Economy Network,other,Focus on green economic practices
Bangalore Environmental Protection Society,,IND,hi,Bangalore,@bangaloreenvironmentalprotection,,Bangalore Environmental Protection Society,other,Promotes environmental protection initiatives
Bangalore Green Innovation Network,,IND,hi,Bangalore,@bangaloregreeninnovationnetwork,,Bangalore Green Innovation Network,other,Focus on green innovation and technology
Bangalore Climate Action Network,,IND,hi,Bangalore,@bangaloreclimateactionnetwork,,Bangalore Climate Action Network,other,Promotes climate action initiatives
Bangalore Environmental Justice Forum,,IND,hi,Bangalore,@bangaloreenvironmentaljusticeforum,,Bangalore Environmental Justice Forum,other,Focus on environmental justice issues
Bangalore Green Technology Network,,IND,hi,Bangalore,@bangaloregreentechnologynetwork,,Bangalore Green Technology Network,other,Promotes green technology solutions
Bangalore Biodiversity Research Group,,IND,hi,Bangalore,@bangalorebiodiversityresearch,,Bangalore Biodiversity Research Group,other,Conducts biodiversity research
Bangalore Environmental Policy Network,,IND,hi,Bangalore,@bangaloreenvironmentalpolicynetwork,,Bangalore Environmental Policy Network,other,Advocates for environmental policy changes
Bangalore Green Innovation Forum,,IND,hi,Bangalore,@bangaloregreeninnovationforum,,Bangalore Green Innovation Forum,other,Focus on green innovation and startups
Bangalore Climate Education Forum,,IND,hi,Bangalore,@bangaloreclimateeducationforum,,Bangalore Climate Education Forum,other,Promotes climate education initiatives
Bangalore Environmental Research Network,,IND,hi,Bangalore,@bangaloreenvironmentalresearchnetwork,,Bangalore Environmental Research Network,other,Conducts environmental research
Bangalore Green Community Forum,,IND,hi,Bangalore,@bangaloregreencommunityforum,,Bangalore Green Community Forum,other,Community-driven green initiatives
Bangalore Sustainable Development Network,,IND,hi,Bangalore,@bangaloresustainabledevelopmentnetwork,,Bangalore Sustainable Development Network,other,Focus on sustainable development goals
Bangalore Environmental Advocacy Network,,IND,hi,Bangalore,@bangaloreenvironmentaladvocacynetwork,,Bangalore Environmental Advocacy Network,other,Advocates for environmental protection
Bangalore Green Energy Network,,IND,hi,Bangalore,@bangaloregreenenergynetwork,,Bangalore Green Energy Network,other,Promotes green energy solutions
Bangalore Urban Sustainability Forum,,IND,hi,Bangalore,@bangaloreurbansustainabilityforum,,Bangalore Urban Sustainability Forum,other,Focus on urban sustainability practices
Bangalore Environmental Awareness Network,,IND,hi,Bangalore,@bangaloreenvironmentalawarenessnetwork,,Bangalore Environmental Awareness Network,other,Promotes environmental awareness campaigns
Bangalore Green Infrastructure Network,,IND,hi,Bangalore,@bangaloregreeninfrastructurenetwork,,Bangalore Green Infrastructure Network,other,Focus on green infrastructure development
Bangalore Climate Justice Forum,,IND,hi,Bangalore,@bangaloreclimatejusticeforum,,Bangalore Climate Justice Forum,other,Advocates for climate justice
Bangalore Green Economy Forum,,IND,hi,Bangalore,@bangaloregreeneconomyforum,,Bangalore Green Economy Forum,other,Focus on green economic practices
Bangalore Environmental Protection Network,,IND,hi,Bangalore,@bangaloreenvironmentalprotectionnetwork,,Bangalore Environmental Protection Network,other,Promotes environmental protection initiatives
Bangalore Climate Action Forum,,IND,hi,Bangalore,@bangaloreclimateactionforum,,Bangalore Climate Action Forum,other,Promotes climate action initiatives
Bangalore Environmental Justice Network,,IND,hi,Bangalore,@bangaloreenvironmentaljusticenetwork,,Bangalore Environmental Justice Network,other,Focus on environmental justice issues
Bangalore Green Technology Forum,,IND,hi,Bangalore,@bangaloregreentechnologyforum,,Bangalore Green Technology Forum,other,Promotes green technology solutions
Bangalore Biodiversity Research Network,,IND,hi,Bangalore,@bangalorebiodiversityresearchnetwork,,Bangalore Biodiversity Research Network,other,Conducts biodiversity research
Bangalore Environmental Policy Forum,,IND,hi,Bangalore,@bangaloreenvironmentalpolicyforum,,Bangalore Environmental Policy Forum,other,Advocates for environmental policy changes
Bangalore Green Innovation Hub,,IND,hi,Bangalore,@bangaloregreeninnovationhub,,Bangalore Green Innovation Hub,other,Focus on green innovation and startups
Bangalore Climate Education Network,,IND,hi,Bangalore,@bangaloreclimateeducationnetwork,,Bangalore Climate Education Network,other,Promotes climate education initiatives
Bangalore Environmental Research Institute,,IND,hi,Bangalore,@bangaloreenvironmentalresearchinstitute,,Bangalore Environmental Research Institute,other,Conducts environmental research
Bangalore Green Community Network,,IND,hi,Bangalore,@bangaloregreencommunitynetwork,,Bangalore Green Community Network,other,Community-driven green initiatives
Bangalore Sustainable Development Forum,,IND,hi,Bangalore,@bangaloresustainabledevelopmentforum,,Bangalore Sustainable Development Forum,other,Focus on sustainable development goals
Bangalore Environmental Advocacy Group,,IND,hi,Bangalore,@bangaloreenvironmentaladvocacygroup,,Bangalore Environmental Advocacy Group,other,Advocates for environmental protection
Bangalore Green Energy Society,,IND,hi,Bangalore,@bangaloregreenenergysociety,,Bangalore Green Energy Society,other,Promotes green energy solutions
Bangalore Urban Sustainability Network,,IND,hi,Bangalore,@bangaloreurbansustainabilitynetwork,,Bangalore Urban Sustainability Network,other,Focus on urban sustainability practices
Bangalore Environmental Awareness Group,,IND,hi,Bangalore,@bangaloreenvironmentalawarenessgroup,,Bangalore Environmental Awareness Group,other,Promotes environmental awareness campaigns
Bangalore Green Infrastructure Forum,,IND,hi,Bangalore,@bangaloregreeninfrastructureforum,,Bangalore Green Infrastructure Forum,other,Focus on green infrastructure development
Bangalore Climate Justice Network,,IND,hi,Bangalore,@bangaloreclimatejusticenetwork,,Bangalore Climate Justice Network,other,Advocates for climate justice
Bangalore Environmental Protection Society,,IND,hi,Bangalore,@bangaloreenvironmentalprotectionsociety,,Bangalore Environmental Protection Society,other,Promotes environmental protection initiatives
Namma Bengaluru Foundation,,IND,hi,Bangalore,@nammabengalurufoundation,,Namma Bengaluru Foundation,other,Advocates for sustainable urban governance
The Alternative,,IND,hi,Bangalore,@thealternativeindia,,The Alternative,other,Sustainable living and social change
Bangalore Creative Circus,,IND,hi,Bangalore,@blrcreativecircus,,Bangalore Creative Circus,other,Promotes sustainability through art and culture
Sustainability Initiatives,,IND,hi,Bangalore,@sustainability.initiatives,,Sustainability Initiatives,other,Focus on sustainable urban solutions
Bangalore Birding,,IND,hi,Bangalore,@bangalorebirding,,Bangalore Birding,other,Birdwatching and conservation community
Bangalore Rising,,IND,hi,Bangalore,@bangalorerising,,Bangalore Rising,other,Citizen-led urban development initiatives
Save Bangalore Lakes,,IND,hi,Bangalore,@savebangalorelakes,,Save Bangalore Lakes,other,Lake conservation and restoration efforts
Youth for Parivarthan,,IND,hi,Bangalore,@youthforparivarthan,,Youth for Parivarthan,other,Youth-led civic and environmental projects
