name,email,country,language,city,instagram,twitter,phone,organization,type,notes
Ma Jun,,CHN,zh,Beijing,@majun_environment,not_sure,,Institute of Public & Environmental Affairs,influencer,Prominent environmentalist and NGO leader
Liang Hong,,CHN,zh,Beijing,@lianghong_climate,not_sure,,Climate Reality Project China,influencer,Climate change advocate and speaker
Wang Jing,,CHN,zh,Beijing,@wangjing_peace,not_sure,,Beijing Peace Forum,influencer,Peace and conflict resolution expert
Zhang Wei,,CHN,zh,Beijing,@zhangwei_biodiversity,not_sure,,Beijing Biodiversity Conservation Center,influencer,Leads city biodiversity NGO
Chen Li,,CHN,zh,Beijing,@chenli_geopolitics,not_sure,,Geopolitics Institute of China,influencer,Geopolitical analyst and commentator
Liu Fang,,CHN,zh,Beijing,@liufang_nature,not_sure,,Nature Conservation Society,influencer,Nature conservation advocate
Sun Qiang,,CHN,zh,Beijing,@sunqiang_climate,not_sure,,Greenpeace East Asia,influencer,Climate action leader in Beijing
Zhao Min,,CHN,zh,Beijing,@zhaomin_peace,not_sure,,Peace and Development Foundation,influencer,Promotes peace initiatives in Beijing
Yang Hua,,CHN,zh,Beijing,@yanghua_environment,not_sure,,Environmental Protection Association,influencer,Environmental protection advocate
Gao Lei,,CHN,zh,Beijing,@gaolei_climate,not_sure,,Climate Action Network China,influencer,Climate network coordinator in Beijing
Xu Lin,,CHN,zh,Beijing,@xulin_biodiversity,not_sure,,Wildlife Conservation Society China,influencer,Wildlife conservation expert
Zheng Yi,,CHN,zh,Beijing,@zhengyi_peace,not_sure,,International Peace Institute,influencer,Peace and diplomacy advocate
Huang Mei,,CHN,zh,Beijing,@huangmei_nature,not_sure,,Nature Watch China,influencer,Nature and wildlife advocate
Fang Yu,,CHN,zh,Beijing,@fangyu_climate,not_sure,,Climate Change Research Center,influencer,Climate researcher and influencer
Luo Ping,,CHN,zh,Beijing,@luoping_geopolitics,not_sure,,Center for Geopolitical Studies,influencer,Geopolitical expert and analyst
Deng Hui,,CHN,zh,Beijing,@denghui_environment,not_sure,,Beijing Environmental Group,influencer,Environmental policy advocate
Qin Rong,,CHN,zh,Beijing,@qinrong_climate,not_sure,,China Climate Action Network,influencer,Climate action influencer
Yuan Fei,,CHN,zh,Beijing,@yuanfei_biodiversity,not_sure,,Biodiversity Research Institute,influencer,Biodiversity researcher and advocate
Shen Yan,,CHN,zh,Beijing,@shenyang_peace,not_sure,,Peace Studies Center,influencer,Peace studies expert
Jiang Nan,,CHN,zh,Beijing,@jiangnan_nature,not_sure,,Nature Conservation Alliance,influencer,Nature conservation leader
Zhou Rui,,CHN,zh,Beijing,@zhourui_climate,not_sure,,Climate Policy Institute,influencer,Climate policy influencer
Tang Wei,,CHN,zh,Beijing,@tangwei_geopolitics,not_sure,,Geopolitical Strategy Group,influencer,Geopolitical strategist
Liao Min,,CHN,zh,Beijing,@liaomin_environment,not_sure,,Environmental Advocacy Network,influencer,Environmental advocacy leader
He Fang,,CHN,zh,Beijing,@hefang_climate,not_sure,,Climate Solutions China,influencer,Climate solutions advocate
Zhu Ling,,CHN,zh,Beijing,@zhuling_biodiversity,not_sure,,Biodiversity Protection Group,influencer,Biodiversity protection advocate
Peng Yu,,CHN,zh,Beijing,@pengyu_peace,not_sure,,Peace and Harmony Foundation,influencer,Peace and harmony promoter
Cai Wen,,CHN,zh,Beijing,@caiwen_nature,not_sure,,Nature Protection Society,influencer,Nature protection advocate
Xie Jun,,CHN,zh,Beijing,@xiejun_climate,not_sure,,Climate Advocacy Group,influencer,Climate advocacy leader
Yin Hao,,CHN,zh,Beijing,@yinhao_geopolitics,not_sure,,Geopolitical Affairs Institute,influencer,Geopolitical affairs expert
Guo Li,,CHN,zh,Beijing,@guoli_environment,not_sure,,Environmental Awareness Initiative,influencer,Environmental awareness advocate
Zou Ming,,CHN,zh,Beijing,@zouming_climate,not_sure,,Climate Change Alliance,influencer,Climate change influencer
Liu Yan,,CHN,zh,Beijing,@liuyan_biodiversity,not_sure,,Biodiversity Initiative,influencer,Biodiversity initiative leader
Wu Feng,,CHN,zh,Beijing,@wufeng_peace,not_sure,,Peace Promotion Group,influencer,Peace promotion advocate
Zhang Ming,,CHN,zh,Beijing,@zhangming_nature,not_sure,,Nature Advocacy Network,influencer,Nature advocacy leader
Liang Chen,,CHN,zh,Beijing,@liangchen_climate,not_sure,,Climate Awareness Group,influencer,Climate awareness influencer
Wang Lei,,CHN,zh,Beijing,@wanglei_geopolitics,not_sure,,Geopolitical Research Center,influencer,Geopolitical research expert
Zhao Hui,,CHN,zh,Beijing,@zhaohui_environment,not_sure,,Environmental Education Group,influencer,Environmental education advocate
Chen Ming,,CHN,zh,Beijing,@chenming_climate,not_sure,,Climate Education Initiative,influencer,Climate education influencer
Liu Wei,,CHN,zh,Beijing,@liuwei_biodiversity,not_sure,,Biodiversity Education Group,influencer,Biodiversity education leader
Sun Li,,CHN,zh,Beijing,@sunli_peace,not_sure,,Peace Education Network,influencer,Peace education advocate
Zhang Li,,CHN,zh,Beijing,@zhangli_nature,not_sure,,Nature Education Society,influencer,Nature education leader
Wang Ming,,CHN,zh,Beijing,@wangming_climate,not_sure,,Climate Action Education,influencer,Climate action educator
Li Hua,,CHN,zh,Beijing,@lihua_geopolitics,not_sure,,Geopolitical Education Group,influencer,Geopolitical education expert
Zhou Li,,CHN,zh,Beijing,@zhouli_environment,not_sure,,Environmental Education Initiative,influencer,Environmental education influencer
Chen Wei,,CHN,zh,Beijing,@chenwei_climate,not_sure,,Climate Education Network,influencer,Climate education advocate
Liu Ming,,CHN,zh,Beijing,@liuming_biodiversity,not_sure,,Biodiversity Education Initiative,influencer,Biodiversity education influencer
Sun Wei,,CHN,zh,Beijing,@sunwei_peace,not_sure,,Peace Education Initiative,influencer,Peace education influencer
Zhang Wei,,CHN,zh,Beijing,@zhangwei_nature,not_sure,,Nature Education Initiative,influencer,Nature education influencer
Wang Li,,CHN,zh,Beijing,@wangli_climate,not_sure,,Climate Education Group,influencer,Climate education leader
Li Ming,,CHN,zh,Beijing,@liming_geopolitics,not_sure,,Geopolitical Education Initiative,influencer,Geopolitical education influencer
Zhou Wei,,CHN,zh,Beijing,@zhouwei_environment,not_sure,,Environmental Education Network,influencer,Environmental education leader
Chen Li,,CHN,zh,Beijing,@chenli_climate,not_sure,,Climate Education Society,influencer,Climate education society leader
Sun Ming,,CHN,zh,Beijing,@sunming_peace,not_sure,,Peace Education Society,influencer,Peace education society leader
Wang Wei,,CHN,zh,Beijing,@wangwei_climate,not_sure,,Climate Education Initiative,influencer,Climate education initiative leader
Li Wei,,CHN,zh,Beijing,@liwei_geopolitics,not_sure,,Geopolitical Education Society,influencer,Geopolitical education society leader
Zhou Ming,,CHN,zh,Beijing,@zhouming_environment,not_sure,,Environmental Education Society,influencer,Environmental education society leader
Liu Li,,CHN,zh,Beijing,@liuli_biodiversity,not_sure,,Biodiversity Education Society,influencer,Biodiversity education society leader
Liang Hong,,CHN,zh,Beijing,@lianghong_env,not_sure,,Green Beijing,influencer,Leads city biodiversity NGO
Wang Mei,,CHN,zh,Beijing,@wangmei_climate,not_sure,,Climate Action Beijing,influencer,Climate activist and speaker
Zhang Wei,,CHN,zh,Beijing,@zhangwei_peace,not_sure,,Peace Beijing,influencer,Advocates for peace initiatives
Chen Xia,,CHN,zh,Beijing,@chenxia_nature,not_sure,,Nature Conservation Beijing,influencer,Nature conservation advocate
Liu Fang,,CHN,zh,Beijing,@liufang_geo,not_sure,,Geopolitics Forum,influencer,Geopolitics expert and commentator
Sun Li,,CHN,zh,Beijing,@sunli_environment,not_sure,,Environmental Protection Beijing,influencer,Environmental protection influencer
Zhao Ming,,CHN,zh,Beijing,@zhaoming_climate,not_sure,,Climate Change Beijing,influencer,Climate change advocate
Guo Yan,,CHN,zh,Beijing,@guoyan_peace,not_sure,,Peace Advocate,influencer,Promotes peace and conflict resolution
Huang Lei,,CHN,zh,Beijing,@huanglei_nature,not_sure,,Nature Beijing,influencer,Nature and wildlife conservationist
Yang Min,,CHN,zh,Beijing,@yangmin_geo,not_sure,,Geopolitical Insights,influencer,Geopolitical analyst and influencer
Li Na,,CHN,zh,Beijing,@lina_climate,not_sure,,Climate Solutions Beijing,influencer,Climate solutions advocate
Zhou Qiang,,CHN,zh,Beijing,@zhouqiang_peace,not_sure,,Peace Initiatives Beijing,influencer,Peace initiatives promoter
Fang Yu,,CHN,zh,Beijing,@fangyu_nature,not_sure,,Nature Advocate,influencer,Nature advocate and influencer
Deng Lin,,CHN,zh,Beijing,@denglin_geo,not_sure,,Geopolitical Forum,influencer,Geopolitical influencer
Wu Jing,,CHN,zh,Beijing,@wujing_environment,not_sure,,Environmental Advocate,influencer,Environmental advocate and speaker
Xie Hua,,CHN,zh,Beijing,@xiehua_climate,not_sure,,Climate Action,influencer,Climate action influencer
Yuan Fei,,CHN,zh,Beijing,@yuanfei_peace,not_sure,,Peace Advocate Beijing,influencer,Peace advocate and influencer
Gao Lin,,CHN,zh,Beijing,@gaolin_nature,not_sure,,Nature Conservationist,influencer,Nature conservationist and influencer
Jin Hua,,CHN,zh,Beijing,@jinhua_geo,not_sure,,Geopolitical Analyst,influencer,Geopolitical analyst and influencer
Qin Yue,,CHN,zh,Beijing,@qinyue_climate,not_sure,,Climate Advocate,influencer,Climate advocate and influencer
Shen Li,,CHN,zh,Beijing,@shenli_peace,not_sure,,Peace Beijing,influencer,Peace advocate and influencer
Tang Wei,,CHN,zh,Beijing,@tangwei_nature,not_sure,,Nature Advocate,influencer,Nature advocate and influencer
He Ming,,CHN,zh,Beijing,@heming_geo,not_sure,,Geopolitical Insights,influencer,Geopolitical influencer and analyst
Zheng Li,,CHN,zh,Beijing,@zhengli_climate,not_sure,,Climate Solutions,influencer,Climate solutions advocate
Luo Yan,,CHN,zh,Beijing,@luoyan_peace,not_sure,,Peace Advocate,influencer,Peace advocate and influencer
Peng Yu,,CHN,zh,Beijing,@pengyu_nature,not_sure,,Nature Conservationist,influencer,Nature conservationist and influencer
Cai Lin,,CHN,zh,Beijing,@cailin_geo,not_sure,,Geopolitical Forum,influencer,Geopolitical influencer and analyst
Zhu Feng,,CHN,zh,Beijing,@zhufeng_climate,not_sure,,Climate Advocate,influencer,Climate advocate and influencer
Xu Wei,,CHN,zh,Beijing,@xuwei_peace,not_sure,,Peace Initiatives,influencer,Peace initiatives promoter
Ma Li,,CHN,zh,Beijing,@mali_nature,not_sure,,Nature Advocate,influencer,Nature advocate and influencer
Han Ming,,CHN,zh,Beijing,@hanming_geo,not_sure,,Geopolitical Analyst,influencer,Geopolitical analyst and influencer
Yin Hua,,CHN,zh,Beijing,@yinhua_climate,not_sure,,Climate Action,influencer,Climate action influencer
Liao Yan,,CHN,zh,Beijing,@liaoyan_peace,not_sure,,Peace Advocate,influencer,Peace advocate and influencer
Kong Lin,,CHN,zh,Beijing,@konglin_nature,not_sure,,Nature Conservationist,influencer,Nature conservationist and influencer
Qiao Wei,,CHN,zh,Beijing,@qiaowei_geo,not_sure,,Geopolitical Insights,influencer,Geopolitical influencer and analyst
Fan Li,,CHN,zh,Beijing,@fanli_climate,not_sure,,Climate Solutions,influencer,Climate solutions advocate
Shi Yue,,CHN,zh,Beijing,@shiyue_peace,not_sure,,Peace Advocate,influencer,Peace advocate and influencer
Zou Ming,,CHN,zh,Beijing,@zouming_nature,not_sure,,Nature Advocate,influencer,Nature advocate and influencer
Lian Hua,,CHN,zh,Beijing,@lianhua_geo,not_sure,,Geopolitical Forum,influencer,Geopolitical influencer and analyst
Gong Fei,,CHN,zh,Beijing,@gongfei_climate,not_sure,,Climate Advocate,influencer,Climate advocate and influencer
Jiang Wei,,CHN,zh,Beijing,@jiangwei_peace,not_sure,,Peace Initiatives,influencer,Peace initiatives promoter
Liu Ming,,CHN,zh,Beijing,@liuming_nature,not_sure,,Nature Advocate,influencer,Nature advocate and influencer
Zhang Hua,,CHN,zh,Beijing,@zhanghua_geo,not_sure,,Geopolitical Analyst,influencer,Geopolitical analyst and influencer
