name,email,country,language,city,instagram,phone,organization,type,notes
Zhang Wei,,CHN,zh,Beijing,@zhangweipodcast,,Green Future Podcast,podcaster,Hosts top climate podcast in Beijing
Li Ming,,CHN,zh,Beijing,@limingtalks,,Peace Talks,podcaster,Focuses on peace and geopolitics
Wang Fang,,CHN,zh,Beijing,@wangfangnature,,Nature Voices,podcaster,Covers biodiversity and conservation
Chen Jie,,CHN,zh,Beijing,@chenjieglobal,,Global Perspectives,podcaster,Discusses international affairs
Liu Yan,,CHN,zh,Beijing,@liuyaneco,,Eco Future,podcaster,Environmental protection advocate
Zhao Lei,,CHN,zh,Beijing,@zhaoleipod,,Climate Change Now,podcaster,Climate change discussions
Sun Qiang,,CHN,zh,Beijing,@sunqiangpeace,,Peaceful Dialogues,podcaster,War prevention and peace talks
Guo Lin,,CHN,zh,Beijing,@guolinpodcast,,Nature and Us,podcaster,Nature conservation topics
Zheng Hua,,CHN,zh,Beijing,@zhenghuapod,,Geopolitical Insights,podcaster,Geopolitical analysis
Yang Mei,,CHN,zh,Beijing,@yangmeipodcast,,Eco Talks,podcaster,Focus on environmental issues
Xu Ning,,CHN,zh,Beijing,@xuningpod,,Climate Conversations,podcaster,Climate change and solutions
Huang Li,,CHN,zh,Beijing,@huanglipod,,Peace and Harmony,podcaster,Peace initiatives and discussions
Zhou Qian,,CHN,zh,Beijing,@zhouqianpod,,Nature's Voice,podcaster,Biodiversity and conservation
Gao Feng,,CHN,zh,Beijing,@gaofengpod,,Global Affairs,podcaster,International relations and geopolitics
Tang Wei,,CHN,zh,Beijing,@tangweipod,,Eco Warriors,podcaster,Environmental activism and awareness
Liu Hua,,CHN,zh,Beijing,@liuhuapod,,Peaceful Futures,podcaster,Focus on peace and conflict resolution
Yuan Jing,,CHN,zh,Beijing,@yuanjingpod,,Nature's Call,podcaster,Nature conservation efforts
Deng Lin,,CHN,zh,Beijing,@denglinpod,,Geopolitical Talks,podcaster,Geopolitical discussions and insights
Fang Yu,,CHN,zh,Beijing,@fangyupod,,Eco Perspectives,podcaster,Environmental issues and solutions
Shen Li,,CHN,zh,Beijing,@shenlipod,,Peace Dialogues,podcaster,Peace and conflict resolution
Qin Wei,,CHN,zh,Beijing,@qinweipod,,Nature's Path,podcaster,Biodiversity and nature conservation
Zhang Hua,,CHN,zh,Beijing,@zhanghuapod,,Global Insights,podcaster,Geopolitical analysis and discussions
Li Fang,,CHN,zh,Beijing,@lifangpod,,Eco Future,podcaster,Environmental protection and sustainability
Wang Qiang,,CHN,zh,Beijing,@wangqiangpod,,Peace Talks,podcaster,Focus on peace and war prevention
Chen Li,,CHN,zh,Beijing,@chenlipod,,Nature's Voice,podcaster,Nature conservation and biodiversity
Zhao Ming,,CHN,zh,Beijing,@zhaomingpod,,Geopolitical Perspectives,podcaster,Geopolitical discussions and insights
Sun Li,,CHN,zh,Beijing,@sunlipod,,Eco Warriors,podcaster,Environmental activism and awareness
Guo Wei,,CHN,zh,Beijing,@guoweipod,,Peaceful Futures,podcaster,Focus on peace and conflict resolution
Zheng Lin,,CHN,zh,Beijing,@zhenglinpod,,Nature's Call,podcaster,Nature conservation efforts
Yang Hua,,CHN,zh,Beijing,@yanghuapod,,Geopolitical Talks,podcaster,Geopolitical discussions and insights
Xu Wei,,CHN,zh,Beijing,@xuweipod,,Eco Perspectives,podcaster,Environmental issues and solutions
Huang Ming,,CHN,zh,Beijing,@huangmingpod,,Peace Dialogues,podcaster,Peace and conflict resolution
Zhou Wei,,CHN,zh,Beijing,@zhouweipod,,Nature's Path,podcaster,Biodiversity and nature conservation
Gao Li,,CHN,zh,Beijing,@gaolipod,,Global Insights,podcaster,Geopolitical analysis and discussions
Tang Ming,,CHN,zh,Beijing,@tangmingpod,,Eco Future,podcaster,Environmental protection and sustainability
Liu Qiang,,CHN,zh,Beijing,@liuqpod,,Peace Talks,podcaster,Focus on peace and war prevention
Yuan Li,,CHN,zh,Beijing,@yuanlipod,,Nature's Voice,podcaster,Nature conservation and biodiversity
Deng Ming,,CHN,zh,Beijing,@dengmingpod,,Geopolitical Perspectives,podcaster,Geopolitical discussions and insights
Fang Li,,CHN,zh,Beijing,@fanglipod,,Eco Warriors,podcaster,Environmental activism and awareness
Shen Wei,,CHN,zh,Beijing,@shenweipod,,Peaceful Futures,podcaster,Focus on peace and conflict resolution
Qin Ming,,CHN,zh,Beijing,@qinmingpod,,Nature's Call,podcaster,Nature conservation efforts
Zhang Li,,CHN,zh,Beijing,@zhanglipod,,Geopolitical Talks,podcaster,Geopolitical discussions and insights
Li Wei,,CHN,zh,Beijing,@liweipod,,Eco Perspectives,podcaster,Environmental issues and solutions
Wang Ming,,CHN,zh,Beijing,@wangmingpod,,Peace Dialogues,podcaster,Peace and conflict resolution
Chen Wei,,CHN,zh,Beijing,@chenweipod,,Nature's Path,podcaster,Biodiversity and nature conservation
Zhao Li,,CHN,zh,Beijing,@zhaolipod,,Global Insights,podcaster,Geopolitical analysis and discussions
Sun Ming,,CHN,zh,Beijing,@sunmingpod,,Eco Future,podcaster,Environmental protection and sustainability
Zheng Ming,,CHN,zh,Beijing,@zhengmingpod,,Nature's Voice,podcaster,Nature conservation and biodiversity
Yang Wei,,CHN,zh,Beijing,@yangweipod,,Geopolitical Perspectives,podcaster,Geopolitical discussions and insights
Xu Ming,,CHN,zh,Beijing,@xumingpod,,Eco Warriors,podcaster,Environmental activism and awareness
Huang Wei,,CHN,zh,Beijing,@huangweipod,,Peaceful Futures,podcaster,Focus on peace and conflict resolution
Zhou Ming,,CHN,zh,Beijing,@zhoumingpod,,Nature's Call,podcaster,Nature conservation efforts
Gao Wei,,CHN,zh,Beijing,@gaoweipod,,Geopolitical Talks,podcaster,Geopolitical discussions and insights
Liu Wei,,CHN,zh,Beijing,@liuweipod,,Peace Dialogues,podcaster,Peace and conflict resolution
Yuan Ming,,CHN,zh,Beijing,@yuanmingpod,,Nature's Path,podcaster,Biodiversity and nature conservation
Deng Wei,,CHN,zh,Beijing,@dengweipod,,Global Insights,podcaster,Geopolitical analysis and discussions
Fang Ming,,CHN,zh,Beijing,@fangmingpod,,Eco Future,podcaster,Environmental protection and sustainability
Zhang Wei,,CHN,zh,Beijing,@zhangweipod,,Geopolitical Perspectives,podcaster,Geopolitical discussions and insights
Li Ming,,CHN,zh,Beijing,@limingpod,,Eco Warriors,podcaster,Environmental activism and awareness
Wang Wei,,CHN,zh,Beijing,@wangweipod,,Peaceful Futures,podcaster,Focus on peace and conflict resolution
Chen Ming,,CHN,zh,Beijing,@chenmingpod,,Nature's Call,podcaster,Nature conservation efforts
Zhao Wei,,CHN,zh,Beijing,@zhaoweipod,,Geopolitical Talks,podcaster,Geopolitical discussions and insights
Zhang Wei,,CHN,zh,Beijing,@zhangwei_podcast,,Green Talk,podcaster,Hosts top climate podcast in Beijing
Li Ming,,CHN,zh,Beijing,@liming_geo,,Geopolitics Today,podcaster,Focuses on geopolitics and international affairs
Wang Fang,,CHN,zh,Beijing,@wangfang_nature,,Nature Voices,podcaster,Covers nature and biodiversity topics
Chen Jie,,CHN,zh,Beijing,@chenjie_peace,,Peaceful Dialogues,podcaster,Discusses peace and conflict resolution
Liu Yan,,CHN,zh,Beijing,@liuyan_climate,,Climate Change Conversations,podcaster,Explores climate change impacts in China
Zhao Lei,,CHN,zh,Beijing,@zhaolei_environment,,Environmental Insights,podcaster,Focus on environmental protection
Sun Qiang,,CHN,zh,Beijing,@sunqiang_world,,World Affairs Podcast,podcaster,Covers international relations and geopolitics
Yang Hua,,CHN,zh,Beijing,@yanghua_biodiversity,,Biodiversity Talks,podcaster,Discusses biodiversity conservation
Gao Lin,,CHN,zh,Beijing,@gaolin_peace,,Peace Talks,podcaster,Focus on peace initiatives
Zhou Mei,,CHN,zh,Beijing,@zhoumei_climate,,Climate Action Podcast,podcaster,Hosts climate action discussions
Xu Ning,,CHN,zh,Beijing,@xuning_geo,,Geopolitical Insights,podcaster,Explores geopolitical issues
Huang Li,,CHN,zh,Beijing,@huangli_nature,,Nature's Voice,podcaster,Covers nature conservation topics
Deng Fei,,CHN,zh,Beijing,@dengfei_climate,,Climate Dialogues,podcaster,Discusses climate change solutions
Ma Jun,,CHN,zh,Beijing,@majun_peace,,Peaceful Futures,podcaster,Focus on peace and diplomacy
Tang Wei,,CHN,zh,Beijing,@tangwei_environment,,Environmental Talks,podcaster,Hosts environmental protection discussions
Yin Fang,,CHN,zh,Beijing,@yinfang_geo,,Geopolitical Conversations,podcaster,Explores global geopolitical trends
Qian Li,,CHN,zh,Beijing,@qianli_nature,,Nature's Future,podcaster,Focus on future of nature conservation
Luo Jing,,CHN,zh,Beijing,@luojing_climate,,Climate Futures,podcaster,Discusses future climate scenarios
Feng Yu,,CHN,zh,Beijing,@fengyu_peace,,Peaceful Solutions,podcaster,Focus on peacebuilding strategies
Cheng Min,,CHN,zh,Beijing,@chengmin_environment,,Environmental Futures,podcaster,Covers future of environmental protection
Jiang Wei,,CHN,zh,Beijing,@jiangwei_geo,,Geopolitical Futures,podcaster,Explores future geopolitical scenarios
Han Lei,,CHN,zh,Beijing,@hanlei_nature,,Nature's Path,podcaster,Focus on nature conservation paths
Guo Ming,,CHN,zh,Beijing,@guoming_climate,,Climate Paths,podcaster,Discusses paths to climate resilience
Zheng Li,,CHN,zh,Beijing,@zhengli_peace,,Peace Paths,podcaster,Focus on paths to peace
Pan Yu,,CHN,zh,Beijing,@panyu_environment,,Environmental Paths,podcaster,Covers paths to environmental sustainability
Shi Lei,,CHN,zh,Beijing,@shilei_geo,,Geopolitical Paths,podcaster,Explores paths in geopolitics
Cai Lin,,CHN,zh,Beijing,@cailin_nature,,Nature's Journey,podcaster,Focus on nature conservation journeys
He Fang,,CHN,zh,Beijing,@hefang_climate,,Climate Journeys,podcaster,Discusses climate change journeys
Kong Wei,,CHN,zh,Beijing,@kongwei_peace,,Peace Journeys,podcaster,Focus on peace journeys
Liao Ning,,CHN,zh,Beijing,@liaoning_environment,,Environmental Journeys,podcaster,Covers environmental protection journeys
Miao Li,,CHN,zh,Beijing,@miaoli_geo,,Geopolitical Journeys,podcaster,Explores geopolitical journeys
Nie Yun,,CHN,zh,Beijing,@nieyun_nature,,Nature's Quest,podcaster,Focus on nature conservation quests
Ou Yang,,CHN,zh,Beijing,@ouyang_climate,,Climate Quests,podcaster,Discusses climate change quests
Peng Fei,,CHN,zh,Beijing,@pengfei_peace,,Peace Quests,podcaster,Focus on peace quests
Qiu Lin,,CHN,zh,Beijing,@qiulin_environment,,Environmental Quests,podcaster,Covers environmental protection quests
Rao Ming,,CHN,zh,Beijing,@raoming_geo,,Geopolitical Quests,podcaster,Explores geopolitical quests
Shen Li,,CHN,zh,Beijing,@shenli_nature,,Nature's Odyssey,podcaster,Focus on nature conservation odysseys
Tian Wei,,CHN,zh,Beijing,@tianwei_climate,,Climate Odyssey,podcaster,Discusses climate change odysseys
