name,email,country,language,city,instagram,twitter,phone,organization,type,notes
Pravit Rojanaphruk,,THA,th,Bangkok,@pravitR,@PravitR,,Khaosod English,journalist,Covers politics and human rights
Nanchanok Wongsamuth,,THA,th,Bangkok,@nanchanokw,not_sure,,Bangkok Post,journalist,Focuses on environmental issues
Supalak Ganjanakhundee,,THA,th,Bangkok,@supalakg,not_sure,,The Nation,journalist,Reports on ASEAN and geopolitics
Anchalee Kongrut,,THA,th,Bangkok,@anchaleek,not_sure,,Bangkok Post,journalist,Writes about urban development and environment
Tulsathit Taptim,,THA,th,Bangkok,@tulsathit,not_sure,,The Nation,journalist,Covers political and social issues
Kavi Chongkittavorn,,THA,th,Bangkok,@kavi_chong,not_sure,,Bangkok Post,journalist,Expert on international relations
Prachatai English,,THA,th,Bangkok,@prachatai_en,@prachatai_en,,Prachatai,journalist,Independent news on social justice
Saksith Saiyasombut,,THA,th,Bangkok,@SaksithCNA,@Saksith,,Channel NewsAsia,journalist,Covers Thai politics and society
Wasamon Audjarint,,THA,th,Bangkok,@wasamon_a,not_sure,,Bangkok Post,journalist,Focuses on climate change
Teeranai Charuvastra,,THA,th,Bangkok,@teeranaic,not_sure,,Khaosod English,journalist,Reports on human rights and politics
Yvonne Bohwongprasert,,THA,th,Bangkok,@yvonneboh,not_sure,,Bangkok Post,journalist,Writes on cultural and environmental topics
Nattaya Chetchotiros,,THA,th,Bangkok,@nattayac,not_sure,,Bangkok Post,journalist,Senior editor with focus on politics
Panu Wongcha-um,,THA,th,Bangkok,@panuw,not_sure,,Reuters,journalist,Covers Thai politics and economy
Chalida Ekvitthayavechnukul,,THA,th,Bangkok,@chalida_e,not_sure,,Associated Press,journalist,Reports on Southeast Asian affairs
Nopporn Wong-Anan,,THA,th,Bangkok,@noppornw,not_sure,,Reuters,journalist,Focuses on Thai politics and society
Pailin Wedel,,THA,th,Bangkok,@pailinwedel,not_sure,,Independent,journalist,Documentary filmmaker on social issues
Chaiyot Yongcharoenchai,,THA,th,Bangkok,@chaiyoty,not_sure,,Bangkok Post,journalist,Investigative journalist on crime and environment
Aekarach Sattaburuth,,THA,th,Bangkok,@aekarach_s,not_sure,,Bangkok Post,journalist,Covers political news
Nopparat Chaichalearmmongkol,,THA,th,Bangkok,@nopparatc,not_sure,,Bloomberg,journalist,Reports on Thai economy and politics
Sasiwan Mokkhasen,,THA,th,Bangkok,@sasiwanm,not_sure,,Khaosod English,journalist,Focuses on social issues and environment
Chutima Sidasathian,,THA,th,Bangkok,@chutimas,not_sure,,Phuketwan,journalist,Reports on human rights and environment
Nina Suebsukcharoen,,THA,th,Bangkok,@ninasuebsuk,not_sure,,Independent,journalist,Covers culture and environment
Patpicha Tanakasempipat,,THA,th,Bangkok,@patpichat,not_sure,,Reuters,journalist,Focuses on Thai politics and society
Kornchanok Raksaseri,,THA,th,Bangkok,@kornchanokr,not_sure,,Bangkok Post,journalist,Writes on politics and social issues
Nattaporn Chanchokpong,,THA,th,Bangkok,@nattapornc,not_sure,,The Nation,journalist,Covers environmental news
Suthichai Yoon,,THA,th,Bangkok,@suthichaiyoon,not_sure,,The Nation,journalist,Veteran journalist on politics and society
Kritsada Mueanhawong,,THA,th,Bangkok,@kritsadath,not_sure,,The Thaiger,journalist,Focuses on Thai news and environment
Pimuk Rakkanam,,THA,th,Bangkok,@pimukr,not_sure,,Bangkok Post,journalist,Covers urban development and environment
Nattaporn Weerachon,,THA,th,Bangkok,@nattapornw,not_sure,,The Nation,journalist,Reports on Thai politics and society
Terry Fredrickson,,THA,th,Bangkok,@terryfredrickson,not_sure,,Bangkok Post,journalist,Writes on education and environment
Nattaya Kwanmuang,,THA,th,Bangkok,@nattayakwan,not_sure,,Bangkok Post,journalist,Focuses on urban issues and environment
Pichaya Svasti,,THA,th,Bangkok,@pichayasvasti,not_sure,,Bangkok Post,journalist,Covers cultural and environmental topics
Chularat Saengpassa,,THA,th,Bangkok,@chularats,not_sure,,The Nation,journalist,Reports on social issues and environment
Veena Thoopkrajae,,THA,th,Bangkok,@veenat,not_sure,,The Nation,journalist,Focus on social and environmental issues
Kavi Chongkittavorn,,THA,th,Bangkok,@kavics,not_sure,,Bangkok Post,journalist,Covers ASEAN and geopolitics
Chalida Ekvitthayavechnukul,,THA,th,Bangkok,@chalidaek,not_sure,,Associated Press,journalist,Reports on Thai news and politics
Patpicha Tanakasempipat,,THA,th,Bangkok,@patpicha,not_sure,,Reuters,journalist,Covers Thai politics and human rights
Sirintra Sirisak,,THA,th,Bangkok,@sirintra,not_sure,,Thai PBS,journalist,Reports on environmental issues
Suthichai Yoon,,THA,th,Bangkok,@suthichai,not_sure,,The Nation,journalist,Veteran journalist and commentator
Kritsada Mueanhawong,,THA,th,Bangkok,@kritsadaphuket,not_sure,,The Thaiger,journalist,Reports on Thai news and society
Chayanit Itthipongmaetee,,THA,th,Bangkok,@chayaniti,not_sure,,Khaosod English,journalist,Focus on Thai politics and society
Nattaya Phetdee,,THA,th,Bangkok,@nattayap,not_sure,,Thai PBS,journalist,Covers environmental and social issues
Nattakorn Devakula,,THA,th,Bangkok,@nattakorn,not_sure,,Voice TV,journalist,Political commentator and host
Suthichai Yoon,,THA,th,Bangkok,@suthichai_live,not_sure,,The Nation,journalist,Veteran journalist on international affairs
Kong Rithdee,,THA,th,Bangkok,@kongrithdee,not_sure,,Bangkok Post,journalist,Focuses on cultural and environmental topics
Veeramalla Anjaiah,,THA,th,Bangkok,@veeramalla,not_sure,,Jakarta Post,journalist,Covers ASEAN and regional geopolitics
Panu Wongcha-um,,THA,th,Bangkok,@panuwongchaum,not_sure,,Reuters,journalist,Focuses on Thai politics and climate issues
Kavi Chongkittavorn,,THA,th,Bangkok,@kavichong,not_sure,,The Nation,journalist,Senior journalist on ASEAN and geopolitics
Pichaya Changsorn,,THA,th,Bangkok,@pichayac,not_sure,,The Nation,journalist,Writes on economic impacts of climate change
Yvonne Bohwongprasert,,THA,th,Bangkok,@yvonnebohwong,not_sure,,Bangkok Post,journalist,Focuses on cultural and environmental journalism
Nattakarn Vichienwanitchkul,,THA,th,Bangkok,@nattakarnv,not_sure,,Thai PBS,journalist,Reports on biodiversity and conservation
Prachaya Phetthong,,THA,th,Bangkok,@prachayap,not_sure,,The Nation,journalist,Covers environmental policies
Veerawit Tianchainan,,THA,th,Bangkok,@veerawitt,not_sure,,The Nation,journalist,Focuses on peace and conflict resolution
Suwit Khunkitti,,THA,th,Bangkok,@suwitk,not_sure,,Bangkok Post,journalist,Covers environmental policies and conservation
Piyaporn Wongruang,,THA,th,Bangkok,@piyapornw,not_sure,,Bangkok Post,journalist,Writes on biodiversity and conservation
