name,email,country,language,city,instagram,twitter,phone,organization,type,notes
Sofía Diamante,,AIR,en,Buenos,@sofiadiamante,@sofidiamante,,La Nación,journalist,Covers energy and climate issues
Martín Dinatale,,AIR,en,Buenos,@mdinatale,@mdinatale,,El Cronista,journalist,Focus on geopolitics and international affairs
Valeria Román,,AIR,en,Buenos,@valeriaroman,@valeriaroman,,Clarín,journalist,"Science journalist, covers climate change"
Ezequiel Fernández Moores,,AIR,en,Buenos,@ezequielmoores,@EzequielMoores,,La Nación,journalist,Writes on sports and social issues
Nicolás Wiñazki,,AIR,en,Buenos,@nicolaswinazki,@wwnicolas,,Clarín,journalist,"Investigative journalist, covers politics"
Silvia Naishtat,,AIR,en,Buenos,@silvia_naishtat,@silvia_naishtat,,Clarín,journalist,Economy and business journalist
Hugo Alconada Mon,,AIR,en,Buenos,@halconada,@halconada,,La Nación,journalist,"Investigative journalist, covers corruption"
María O'Donnell,,AIR,en,Buenos,@odonnellmaria,@odonnellmaria,,Radio Con Vos,journalist,Political analyst and radio host
Carlos Pagni,,AIR,en,Buenos,@carlospagni,@carlos_pagni,,La Nación,journalist,Political columnist and analyst
Florencia Etcheves,,AIR,en,Buenos,@fetcheves,@fetcheves,,Author and Journalist,journalist,Writes on social issues and crime
Joaquín Morales Solá,,AIR,en,Buenos,@jmorales_sola,@jmorales_sola,,La Nación,journalist,Political columnist
Reynaldo Sietecase,,AIR,en,Buenos,@reysietecase,@reysietecase,,Radio Con Vos,journalist,Radio host and columnist
Marcelo Longobardi,,AIR,en,Buenos,@mlongobardi,@mlongobardi,,CNN Radio,journalist,Political commentator
Ernesto Tenembaum,,AIR,en,Buenos,@ertenembaum,@ertenembaum,,Radio Con Vos,journalist,Political analyst and radio host
Jorge Lanata,,AIR,en,Buenos,@lanatajorge,@lanatajorge,,Radio Mitre,journalist,Investigative journalist and TV host
Luis Novaresio,,AIR,en,Buenos,@luisnovaresio,@luisnovaresio,,Radio La Red,journalist,Radio host and columnist
Romina Manguel,,AIR,en,Buenos,@rominamanguel,@rominamanguel,,A24,journalist,Political journalist and TV host
Nelson Castro,,AIR,en,Buenos,@nelsoncastro,not_sure,,TN,journalist,Political analyst and TV host
Eduardo Feinmann,,AIR,en,Buenos,@edufeiok,@edufeiok,,Radio Mitre,journalist,Political commentator
Cristina Pérez,,AIR,en,Buenos,@cris_noticias,@Cris_noticias,,Telefe Noticias,journalist,News anchor and journalist
Gustavo Sylvestre,,AIR,en,Buenos,@gatosylvestre,@Gatosylvestre,,Radio 10,journalist,Political commentator and radio host
Jorge Fontevecchia,,AIR,en,Buenos,@jorgefontevecchia,not_sure,,Perfil,journalist,Media executive and columnist
María Laura Santillán,,AIR,en,Buenos,@marialauratv,not_sure,,CNN Radio,journalist,News anchor and journalist
Alejandro Bercovich,,AIR,en,Buenos,@aleberco,@aleberco,,Radio Con Vos,journalist,Economics journalist and radio host
Daniel Malnatti,,AIR,en,Buenos,@danielmalnatti,not_sure,,TN,journalist,TV journalist and reporter
Marcelo Zlotogwiazda,,AIR,en,Buenos,@zlotogwiazda,not_sure,,Radio Con Vos,journalist,Economics journalist and radio host
Luis Majul,,AIR,en,Buenos,@majulluis,@majulluis,,La Cornisa,journalist,Investigative journalist and TV host
María Julia Oliván,,AIR,en,Buenos,@majuliajulian,not_sure,,Radio Nacional,journalist,Political journalist and radio host
Rodolfo Barili,,AIR,en,Buenos,@barilirodolfo,@barilirodolfo,,Telefe Noticias,journalist,News anchor and journalist
Luciana Geuna,,AIR,en,Buenos,@lucianageuna,@lucianageuna,,TN,journalist,Investigative journalist and TV host
Nicolás Artusi,,AIR,en,Buenos,@sommelierdecafe,not_sure,,Radio Metro,journalist,Cultural journalist and radio host
Diego Iglesias,,AIR,en,Buenos,@iglesiasdiego,not_sure,,C5N,journalist,Political journalist and TV host
Mónica Gutiérrez,,AIR,en,Buenos,@monicagutierrezok,not_sure,,Radio Nacional,journalist,News anchor and journalist
Germán Paoloski,,AIR,en,Buenos,@germanpaoloski,@germanpaoloski,,Telefe,journalist,TV host and journalist
Sergio Lapegüe,,AIR,en,Buenos,@sergiolapegue,@sergiolapegue,,TN,journalist,News anchor and journalist
Marcelo Bonelli,,AIR,en,Buenos,@bonellimarcelo,not_sure,,TN,journalist,Political journalist and TV host
María Belén Aramburu,,AIR,en,Buenos,@belu_aramburu,not_sure,,A24,journalist,News anchor and journalist
Eduardo van der Kooy,,AIR,en,Buenos,@evanderkooy,not_sure,,Clarín,journalist,Political columnist
Claudio Rígoli,,AIR,en,Buenos,@claudiorigoli,not_sure,,C5N,journalist,News anchor and journalist
María Isabel Sánchez,,AIR,en,Buenos,@marisabelsanchez,not_sure,,Radio Mitre,journalist,Radio host and journalist
Guillermo Lobo,,AIR,en,Buenos,@guillermolobo,not_sure,,TN,journalist,Science journalist and TV host
Paula García,,AIR,en,Buenos,@paulagarciaok,not_sure,,Radio Mitre,journalist,Radio host and journalist
Pablo Sirvén,,AIR,en,Buenos,@psirven,@psirven,,La Nación,journalist,Cultural journalist and columnist
María Eugenia Duffard,,AIR,en,Buenos,@maruduffard,not_sure,,TN,journalist,Investigative journalist and TV host
Daniel Tognetti,,AIR,en,Buenos,@danieltognetti,not_sure,,Radio del Plata,journalist,Political journalist and radio host
Alejandro Fantino,,AIR,en,Buenos,@fantinofantino,@fantinofantino,,ESPN,journalist,Sports journalist and TV host
Emiliano Gullo,,AIR,en,Buenos,@emilianogullo,not_sure,,Página/12,journalist,Writes on environmental issues
Martín De Ambrosio,,AIR,en,Buenos,@martindeambrosio,not_sure,,Freelance,journalist,Writes on science and environment
Nicolás Maggi,,AIR,en,Buenos,@nicomaggi,not_sure,,Clarín,journalist,Covers environmental news
Florencia Ballarino,,AIR,en,Buenos,@florballarino,not_sure,,Infobae,journalist,Focuses on climate and sustainability
Pablo Esteban,,AIR,en,Buenos,@pabloesteban,not_sure,,Página/12,journalist,Writes on science and environment
Guadalupe López,,AIR,en,Buenos,@guadalopez,not_sure,,La Nación,journalist,Covers environmental issues
Fernando Krakowiak,,AIR,en,Buenos,@fkrakowiak,not_sure,,Página/12,journalist,Focuses on energy and climate
Ana Clara Pérez Cotten,,AIR,en,Buenos,@anaclarapc,not_sure,,Télam,journalist,Covers environmental topics
Hernán Cappiello,,AIR,en,Buenos,@hernancappiello,not_sure,,La Nación,journalist,Writes on geopolitics and environment
María Eugenia Pintos,,AIR,en,Buenos,@mepintos,not_sure,,Clarín,journalist,Covers climate change
Alejandro Rebossio,,AIR,en,Buenos,@alejandrorebossio,@alejorebossio,,El País,journalist,Writes on economy and environment
Nora Bär,,AIR,en,Buenos,@norabar,not_sure,,La Nación,journalist,Focuses on science and climate
Daniel Gutman,,AIR,en,Buenos,@danielgutman,not_sure,,IPS News,journalist,Covers environmental issues
Gabriela Origlia,,AIR,en,Buenos,@gabrielaoriglia,not_sure,,La Nación,journalist,Writes on climate and politics
Martín Slipczuk,,AIR,en,Buenos,@martinslipczuk,not_sure,,Chequeado,journalist,Focuses on fact-checking climate news
Marina Aizen,,AIR,en,Buenos,@marinaaizen,not_sure,,Freelance,journalist,Writes on environment and climate
Diego Genoud,,AIR,en,Buenos,@diegogenoud,not_sure,,Freelance,journalist,Covers politics and environment
Silvia Stang,,AIR,en,Buenos,@silviastang,not_sure,,La Nación,journalist,Writes on economy and climate
Javier Drovetto,,AIR,en,Buenos,@javierdrovetto,not_sure,,Chequeado,journalist,Focuses on fact-checking environmental news
Florencia Carbone,,AIR,en,Buenos,@florcarbone,not_sure,,La Nación,journalist,Covers geopolitics and environment
Ana M. Vara,,AIR,en,Buenos,@anavara,not_sure,,Freelance,journalist,Focuses on science and climate change
Matías Longoni,,AIR,en,Buenos,@matiaslongoni,not_sure,,Bichos de Campo,journalist,Covers agriculture and environment
Fernando Soriano,,AIR,en,Buenos,@ferosoriano,not_sure,,Infobae,journalist,Writes on environment and society
Santiago Rey,,AIR,en,Buenos,@santiagorey,not_sure,,Freelance,journalist,Covers environmental issues
Paula Lugones,,AIR,en,Buenos,@paulalugones,not_sure,,Clarín,journalist,Writes on international affairs and climate
Juan Pablo Csipka,,AIR,en,Buenos,@jpcsipka,not_sure,,Freelance,journalist,Focuses on science and environment
Verónica Smink,,AIR,en,Buenos,@verosmink,not_sure,,BBC Mundo,journalist,Covers Latin American environmental issues
María Laura Avignolo,,AIR,en,Buenos,@mlavignolo,not_sure,,Clarín,journalist,Covers international affairs and climate
Javier Lewkowicz,,AIR,en,Buenos,@javierlewkowicz,not_sure,,Página/12,journalist,Writes on economy and environment
Florencia Tuchin,,AIR,en,Buenos,@flor_tuchin,not_sure,,Chequeado,journalist,Focuses on fact-checking climate news
Silvia Naishtat,,AIR,en,Buenos,@silvianaishtat,not_sure,,Clarín,journalist,Covers economy and climate
Joaquín Sánchez Mariño,,AIR,en,Buenos,@joaquinsanchezmarino,not_sure,,Infobae,journalist,Writes on society and environment
María Daniela Yaccar,,AIR,en,Buenos,@mdanielayaccar,not_sure,,La Nación,journalist,Covers politics and climate
María Eugenia Estenssoro,,AIR,en,Buenos,@mariaeugeniestenssoro,not_sure,,Freelance,journalist,Writes on politics and environment
Hernán Patiño Mayer,,AIR,en,Buenos,@hernanpatinomayer,not_sure,,Freelance,journalist,Covers geopolitics and environment
Claudio Jacquelin,,AIR,en,Buenos,@claudiojacquelin,not_sure,,La Nación,journalist,Writes on politics and climate
Martín Dinatale,,AIR,en,Buenos,@martindinatale,not_sure,,Infobae,journalist,Covers geopolitics and international affairs
Pablo Sigal,,AIR,en,Buenos,@pablosigal,not_sure,,Clarín,journalist,Health and environment reporter
Nicolás Lantos,,AIR,en,Buenos,@nicolaslantos,not_sure,,Página/12,journalist,Covers politics and social issues
Alejandro Rebossio,,AIR,en,Buenos,@arebossio,not_sure,,El País,journalist,Economics and environment focus
Marcelo Longobardi,,AIR,en,Buenos,@longobardimarcelo,not_sure,,Radio Mitre,journalist,Radio host and political commentator
Eduardo van der Kooy,,AIR,en,Buenos,@eduardovanderkooy,not_sure,,Clarín,journalist,Political columnist
María Julia Oliván,,AIR,en,Buenos,@majuliaolivan,not_sure,,Radio Nacional,journalist,Radio host and journalist
Santiago del Moro,,AIR,en,Buenos,@santidelmoro,not_sure,,Telefe,journalist,TV host and journalist
Viviana Canosa,,AIR,en,Buenos,@vivianacanosaok,not_sure,,A24,journalist,TV host and journalist
María Belén Aramburu,,AIR,en,Buenos,@belenaramburu,not_sure,,A24,journalist,TV host and journalist
Débora Plager,,AIR,en,Buenos,@deboraplager,not_sure,,A24,journalist,TV host and journalist
Marcelo Zlotogwiazda,,AIR,en,Buenos,@mzlotogwiazda,not_sure,,C5N,journalist,Economics and politics journalist
Julio Bazán,,AIR,en,Buenos,@juliobazanok,not_sure,,TN,journalist,News reporter and journalist
Lorena Maciel,,AIR,en,Buenos,@lorenamaciel,not_sure,,TN,journalist,News anchor and journalist
Fernando Carnota,,AIR,en,Buenos,@fcarnota,not_sure,,Radio Mitre,journalist,Radio host and journalist
Marcela Pagano,,AIR,en,Buenos,@marcelapagano,not_sure,,A24,journalist,Economics journalist
Emilia Delfino,,AIR,en,Buenos,@emiliadelfino,not_sure,,Perfil,journalist,Investigative journalist on environmental issues
Diego Iglesias,,AIR,en,Buenos,@diegoniglesias,not_sure,,Infobae,journalist,Hosts geopolitics podcast
