name,email,country,language,city,instagram,phone,organization,type,notes
Guilherme Figueiredo,,PAU,en,Sao,@guilhermefigueiredo,,ClimaCast,podcaster,Hosts top climate podcast in Sao Paulo
Ana Paula Souza,,PAU,en,Sao,@anapaulasouza,,Peace Talks Brazil,podcaster,Focuses on peace and conflict resolution
Ricardo Oliveira,,PAU,en,Sao,@ricardooliveira,,Nature's Voice,podcaster,Covers biodiversity and conservation topics
Fernanda Lima,,PAU,en,Sao,@fernandalima,,GeoPod,podcaster,Discusses geopolitics and international affairs
Lucas Martins,,PAU,en,Sao,@lucasmartins,,EcoCast Brazil,podcaster,Environmental protection and climate change
Mariana Costa,,PAU,en,Sao,@marianacosta,,Green Wave Podcast,podcaster,Focuses on sustainable living and climate
João Silva,,PAU,en,Sao,@joaosilva,,Peaceful Dialogues,podcaster,Covers peace initiatives and diplomacy
Carla Mendes,,PAU,en,Sao,@carlamendes,,Biodiversity Talks,podcaster,Discusses biodiversity and conservation
Felipe Santos,,PAU,en,Sao,@felipesantos,,Climate Conversations,podcaster,Hosts climate change discussions
Renata Almeida,,PAU,en,Sao,@renataalmeida,,Global Affairs Podcast,podcaster,Focuses on geopolitics and global issues
Thiago Pereira,,PAU,en,Sao,@thiagopereira,,Eco Voices,podcaster,Covers environmental issues and solutions
Beatriz Ramos,,PAU,en,Sao,@beatrizramos,,Peaceful Planet,podcaster,Discusses peace and conflict resolution
Pedro Fernandes,,PAU,en,Sao,@pedrofernandes,,Nature Talks,podcaster,Focuses on nature conservation
Juliana Rocha,,PAU,en,Sao,@julianarocha,,Climate Action Podcast,podcaster,Hosts climate action discussions
Rafael Costa,,PAU,en,Sao,@rafaelcosta,,Geopolitical Insights,podcaster,Covers international affairs and geopolitics
Camila Oliveira,,PAU,en,Sao,@camilaoliveira,,Eco Warriors,podcaster,Focuses on environmental activism
André Lima,,PAU,en,Sao,@andrelima,,Peace Talks Brazil,podcaster,Discusses peace initiatives
Larissa Martins,,PAU,en,Sao,@larissamartins,,Biodiversity Podcast,podcaster,Covers biodiversity topics
Diego Souza,,PAU,en,Sao,@diegosouza,,Climate Change Chronicles,podcaster,Focuses on climate change
Patricia Silva,,PAU,en,Sao,@patriciasilva,,Global Peace Podcast,podcaster,Discusses global peace initiatives
Rodrigo Almeida,,PAU,en,Sao,@rodrigoalmeida,,Nature's Call,podcaster,Focuses on nature conservation
Sofia Costa,,PAU,en,Sao,@sofiacosta,,EcoCast Brazil,podcaster,Environmental protection and climate change
Bruno Santos,,PAU,en,Sao,@brunosantos,,Peaceful Dialogues,podcaster,Covers peace initiatives and diplomacy
Isabela Mendes,,PAU,en,Sao,@isabelamendes,,Biodiversity Talks,podcaster,Discusses biodiversity and conservation
Victor Oliveira,,PAU,en,Sao,@victorolivera,,Climate Conversations,podcaster,Hosts climate change discussions
Luana Ferreira,,PAU,en,Sao,@luanaferreira,,Global Affairs Podcast,podcaster,Focuses on geopolitics and global issues
Eduardo Lima,,PAU,en,Sao,@eduardolima,,Eco Voices,podcaster,Covers environmental issues and solutions
Natalia Ramos,,PAU,en,Sao,@nataliaramos,,Peaceful Planet,podcaster,Discusses peace and conflict resolution
Henrique Fernandes,,PAU,en,Sao,@henriquefernandes,,Nature Talks,podcaster,Focuses on nature conservation
Gabriela Rocha,,PAU,en,Sao,@gabrielarocha,,Climate Action Podcast,podcaster,Hosts climate action discussions
Marcelo Costa,,PAU,en,Sao,@marcelocosta,,Geopolitical Insights,podcaster,Covers international affairs and geopolitics
Tatiana Oliveira,,PAU,en,Sao,@tatianaoliveira,,Eco Warriors,podcaster,Focuses on environmental activism
Vitor Lima,,PAU,en,Sao,@vitorlima,,Peace Talks Brazil,podcaster,Discusses peace initiatives
Aline Martins,,PAU,en,Sao,@alinemartins,,Biodiversity Podcast,podcaster,Covers biodiversity topics
Leonardo Souza,,PAU,en,Sao,@leonardosouza,,Climate Change Chronicles,podcaster,Focuses on climate change
Paula Silva,,PAU,en,Sao,@paulasilva,,Global Peace Podcast,podcaster,Discusses global peace initiatives
Rafael Almeida,,PAU,en,Sao,@rafaelalmeida,,Nature's Call,podcaster,Focuses on nature conservation
Carolina Costa,,PAU,en,Sao,@carolinacosta,,EcoCast Brazil,podcaster,Environmental protection and climate change
Daniel Santos,,PAU,en,Sao,@danielsantos,,Peaceful Dialogues,podcaster,Covers peace initiatives and diplomacy
Luiza Mendes,,PAU,en,Sao,@luizamendes,,Biodiversity Talks,podcaster,Discusses biodiversity and conservation
Fernando Oliveira,,PAU,en,Sao,@fernandooliveira,,Climate Conversations,podcaster,Hosts climate change discussions
Amanda Rocha,,PAU,en,Sao,@amandarocha,,Global Affairs Podcast,podcaster,Focuses on geopolitics and global issues
Gustavo Lima,,PAU,en,Sao,@gustavolima,,Eco Voices,podcaster,Covers environmental issues and solutions
Vanessa Ramos,,PAU,en,Sao,@vanessaramos,,Peaceful Planet,podcaster,Discusses peace and conflict resolution
Matheus Fernandes,,PAU,en,Sao,@matheusfernandes,,Nature Talks,podcaster,Focuses on nature conservation
Bianca Rocha,,PAU,en,Sao,@biancarocha,,Climate Action Podcast,podcaster,Hosts climate action discussions
Renan Costa,,PAU,en,Sao,@renancosta,,Geopolitical Insights,podcaster,Covers international affairs and geopolitics
Jessica Oliveira,,PAU,en,Sao,@jessicaoliveira,,Eco Warriors,podcaster,Focuses on environmental activism
Rafaela Lima,,PAU,en,Sao,@rafaelalima,,Peace Talks Brazil,podcaster,Discusses peace initiatives
Marcos Martins,,PAU,en,Sao,@marcosmartins,,Biodiversity Podcast,podcaster,Covers biodiversity topics
Joana Souza,,PAU,en,Sao,@joanasouza,,Climate Change Chronicles,podcaster,Focuses on climate change
Felipe Silva,,PAU,en,Sao,@felipesilva,,Global Peace Podcast,podcaster,Discusses global peace initiatives
Clara Almeida,,PAU,en,Sao,@claraalmeida,,Nature's Call,podcaster,Focuses on nature conservation
Rodrigo Costa,,PAU,en,Sao,@rodrigocosta,,EcoCast Brazil,podcaster,Environmental protection and climate change
Julio Santos,,PAU,en,Sao,@juliosantos,,Peaceful Dialogues,podcaster,Covers peace initiatives and diplomacy
Helena Mendes,,PAU,en,Sao,@helenamendes,,Biodiversity Talks,podcaster,Discusses biodiversity and conservation
Caio Oliveira,,PAU,en,Sao,@caiooliveira,,Climate Conversations,podcaster,Hosts climate change discussions
Livia Rocha,,PAU,en,Sao,@liviarocha,,Global Affairs Podcast,podcaster,Focuses on geopolitics and global issues
Thiago Lima,,PAU,en,Sao,@thiagolima,,Eco Voices,podcaster,Covers environmental issues and solutions
Marina Ramos,,PAU,en,Sao,@marinaramos,,Peaceful Planet,podcaster,Discusses peace and conflict resolution
Bruna Fernandes,,PAU,en,Sao,@brunafernandes,,Nature Talks,podcaster,Focuses on nature conservation
Gabriel Rocha,,PAU,en,Sao,@gabrielrocha,,Climate Action Podcast,podcaster,Hosts climate action discussions
Lucas Costa,,PAU,en,Sao,@lucascosta,,Geopolitical Insights,podcaster,Covers international affairs and geopolitics
Caroline Oliveira,,PAU,en,Sao,@carolineoliveira,,Eco Warriors,podcaster,Focuses on environmental activism
Vinicius Lima,,PAU,en,Sao,@viniciuslima,,Peace Talks Brazil,podcaster,Discusses peace initiatives
Ana Martins,,PAU,en,Sao,@anamartins,,Biodiversity Podcast,podcaster,Covers biodiversity topics
Rafael Souza,,PAU,en,Sao,@rafaelsouza,,Climate Change Chronicles,podcaster,Focuses on climate change
Camila Silva,,PAU,en,Sao,@camilasilva,,Global Peace Podcast,podcaster,Discusses global peace initiatives
Bruno Almeida,,PAU,en,Sao,@brunoalmeida,,Nature's Call,podcaster,Focuses on nature conservation
Eduarda Costa,,PAU,en,Sao,@eduardacosta,,EcoCast Brazil,podcaster,Environmental protection and climate change
Isadora Mendes,,PAU,en,Sao,@isadoramendes,,Biodiversity Talks,podcaster,Discusses biodiversity and conservation
Gustavo Oliveira,,PAU,en,Sao,@gustavooliveira,,Climate Conversations,podcaster,Hosts climate change discussions
Larissa Rocha,,PAU,en,Sao,@larissarocha,,Global Affairs Podcast,podcaster,Focuses on geopolitics and global issues
Renato Lima,,PAU,en,Sao,@renatolima,,Eco Voices,podcaster,Covers environmental issues and solutions
Carla Ramos,,PAU,en,Sao,@carlaramos,,Peaceful Planet,podcaster,Discusses peace and conflict resolution
Lucas Fernandes,,PAU,en,Sao,@lucasfernandes,,Nature Talks,podcaster,Focuses on nature conservation
Mariana Rocha,,PAU,en,Sao,@marianarocha,,Climate Action Podcast,podcaster,Hosts climate action discussions
Pedro Costa,,PAU,en,Sao,@pedrocosta,,Geopolitical Insights,podcaster,Covers international affairs and geopolitics
Sofia Oliveira,,PAU,en,Sao,@sofiaoliveira,,Eco Warriors,podcaster,Focuses on environmental activism
Luana Martins,,PAU,en,Sao,@luanamartins,,Biodiversity Podcast,podcaster,Covers biodiversity topics
Climáximo Podcast,,PAU,en,Sao,@climaximopodcast,,Climáximo,podcaster,Focuses on climate action in Brazil
Papo de Ambientalista,,PAU,en,Sao,@papodeambientalista,,Papo de Ambientalista,podcaster,Discusses environmental issues in Sao Paulo
Geopolítica em Pauta,,PAU,en,Sao,@geopoliticaempauta,,Geopolítica em Pauta,podcaster,Covers geopolitics with a focus on Brazil
Natureza Viva Podcast,,PAU,en,Sao,@naturezavivapodcast,,Natureza Viva,podcaster,Explores biodiversity and conservation topics
Paz e Conflitos,,PAU,en,Sao,@pazeconflitos,,Paz e Conflitos,podcaster,Focuses on peace and conflict resolution
Sustentabilidade em Foco,,PAU,en,Sao,@sustentabilidadeemfoco,,Sustentabilidade em Foco,podcaster,Discusses sustainability practices in Brazil
Podcast Verde,,PAU,en,Sao,@podcastverde,,Podcast Verde,podcaster,Covers environmental news and green initiatives
Diálogos Climáticos,,PAU,en,Sao,@dialogosclimaticos,,Diálogos Climáticos,podcaster,Hosts discussions on climate change impacts
Futuro Sustentável,,PAU,en,Sao,@futurosustentavel,,Futuro Sustentável,podcaster,Explores sustainable futures and innovations
Podcast da Terra,,PAU,en,Sao,@podcastdaterra,,Podcast da Terra,podcaster,Focuses on earth sciences and conservation
Vozes do Clima,,PAU,en,Sao,@vozesdoclima,,Vozes do Clima,podcaster,Amplifies voices on climate action
Podcast Paz Mundial,,PAU,en,Sao,@podcastpazmundial,,Podcast Paz Mundial,podcaster,Discusses global peace initiatives
EcoCast Brasil,,PAU,en,Sao,@ecocastbrasil,,EcoCast Brasil,podcaster,Covers ecological topics in Brazil
Geopolítica Hoje,,PAU,en,Sao,@geopoliticahoje,,Geopolítica Hoje,podcaster,Analyzes current geopolitical events
Podcast Ambiental,,PAU,en,Sao,@podcastambiental,,Podcast Ambiental,podcaster,Focuses on environmental protection
Sao Paulo Sustentável,,PAU,en,Sao,@saopaulosustentavel,,Sao Paulo Sustentável,podcaster,Promotes sustainable living in Sao Paulo
Podcast da Biodiversidade,,PAU,en,Sao,@podcastdabiodiversidade,,Podcast da Biodiversidade,podcaster,Explores biodiversity conservation efforts
Paz e Harmonia,,PAU,en,Sao,@pazeharmonia,,Paz e Harmonia,podcaster,Focuses on peacebuilding and harmony
Clima em Debate,,PAU,en,Sao,@climaemdebate,,Clima em Debate,podcaster,Hosts debates on climate policy
Podcast de Geopolítica,,PAU,en,Sao,@podcastdegeopolitica,,Podcast de Geopolítica,podcaster,Analyzes geopolitical strategies
