name,email,country,language,city,instagram,twitter,phone,organization,type,notes
Green Korea United,,KOR,ko,Seoul,@greenkorea,@greenkorea,,,ngo,Focus on environmental protection and policy.
Korean Federation for Environmental Movement,,KOR,ko,Seoul,@kfem_official,@kfem,,,ngo,Largest environmental NGO in Korea.
WWF Korea,,KOR,ko,Seoul,@wwfkorea,@WWF_Korea,,,ngo,Part of global WWF network.
Greenpeace Korea,,KOR,ko,Seoul,@greenpeacekorea,@greenpeacekorea,,,ngo,Focus on climate change and sustainability.
Korea Zero Waste Movement Network,,KOR,ko,Seoul,@zerowastekorea,not_sure,,,ngo,Promotes zero waste lifestyle.
Korea Green Foundation,,KOR,ko,Seoul,@koreagreenfoundation,not_sure,,,ngo,Supports environmental education and campaigns.
Climate Change Center,,KOR,ko,Seoul,@climatechangecenter,not_sure,,,ngo,Focus on climate policy and education.
Seoul Green Trust,,KOR,ko,Seoul,@seoulgreentrust,not_sure,,,ngo,Urban greening and park management.
Korea Environmental Education Network,,KOR,ko,Seoul,@keenetwork,not_sure,,,ngo,Promotes environmental education.
Korea Biodiversity Foundation,,KOR,ko,Seoul,@koreabiodiversity,not_sure,,,ngo,Focus on biodiversity conservation.
Korean Women's Environmental Network,,KOR,ko,Seoul,@kwen_official,not_sure,,,ngo,Empowers women in environmental issues.
Korea Water Forum,,KOR,ko,Seoul,@koreawaterforum,not_sure,,,ngo,Focus on water resource management.
Korea Energy Agency,,KOR,ko,Seoul,@energyagency,not_sure,,,ngo,Promotes sustainable energy use.
Korea Institute for International Economic Policy,,KOR,ko,Seoul,@kiep_official,not_sure,,,ngo,Research on international economic policy.
Korea Peace Foundation,,KOR,ko,Seoul,@koreapeacefoundation,not_sure,,,ngo,Focus on peace and conflict resolution.
Korea Institute for National Unification,,KOR,ko,Seoul,@kinu_official,not_sure,,,ngo,Research on Korean unification.
Korea Institute for Defense Analyses,,KOR,ko,Seoul,@kida_official,not_sure,,,ngo,Focus on defense and security policy.
Korea Institute for Health and Social Affairs,,KOR,ko,Seoul,@kihasa_official,not_sure,,,ngo,Focus on health and social policy.
Korea Institute for Industrial Economics and Trade,,KOR,ko,Seoul,@kiiet_official,not_sure,,,ngo,Research on industrial economics.
Seoul Environmental Movement Center,,KOR,ko,Seoul,@seoul_env_center,not_sure,,,ngo,Local environmental initiatives in Seoul
Green Asia Network,,KOR,ko,Seoul,@green_asia_network,not_sure,,,ngo,Focus on desertification and climate change
Korea Climate and Environment Network,,KOR,ko,Seoul,@kcenetwork,not_sure,,,ngo,Climate change advocacy and education
Korean Federation for Peaceful Unification,,KOR,ko,Seoul,@kfpu_official,not_sure,,,ngo,Advocates for peace and unification
Korean Council for Reconciliation and Cooperation,,KOR,ko,Seoul,@kcrc_official,not_sure,,,ngo,Promotes reconciliation between Koreas
Korean National Commission for UNESCO,,KOR,ko,Seoul,@unesco_korea,not_sure,,,ngo,Supports UNESCO's mission in Korea
Korea International Cooperation Agency,,KOR,ko,Seoul,@koica_official,not_sure,,,ngo,International development and cooperation
Korean Red Cross,,KOR,ko,Seoul,@koreanredcross,not_sure,,,ngo,Humanitarian aid and disaster relief
Korea Human Rights Foundation,,KOR,ko,Seoul,@khrf_official,not_sure,,,ngo,Promotes human rights in Korea
Korea Youth Climate Action,,KOR,ko,Seoul,@kyca_official,not_sure,,,ngo,Youth-led climate action group
Korea Green Building Council,,KOR,ko,Seoul,@kgbc_official,not_sure,,,ngo,Promotes sustainable building practices
Climate Action Network Korea,,KOR,ko,Seoul,@climateactionnetworkkorea,not_sure,,,ngo,Network of organizations tackling climate change
Seoul Environmental Federation,,KOR,ko,Seoul,@seoulenvironment,not_sure,,,ngo,Local environmental protection initiatives
Korean Women's Environmental Network,,KOR,ko,Seoul,@kwen_korea,not_sure,,,ngo,Focus on women and environmental issues
Korean Society for Atmospheric Environment,,KOR,ko,Seoul,@ksae_official,not_sure,,,ngo,Focus on air quality and atmospheric research
Korea Energy Agency,,KOR,ko,Seoul,@koreaenergyagency,not_sure,,,ngo,Promotes energy efficiency and renewable energy
Korean Ocean Conservation Society,,KOR,ko,Seoul,@korean_ocean_conservation,not_sure,,,ngo,Marine conservation and protection
Korea Environmental Education Network,,KOR,ko,Seoul,@keen_korea,not_sure,,,ngo,Environmental education and awareness
Korean Society of Climate Change Research,,KOR,ko,Seoul,@ksccr_official,not_sure,,,ngo,Research on climate change impacts and solutions
Korea Forest Conservation Association,,KOR,ko,Seoul,@koreaforest,not_sure,,,ngo,Forest conservation and management
Korea Institute of Ecological Architecture and Environment,,KOR,ko,Seoul,@kieae_official,not_sure,,,ngo,Sustainable architecture and environmental design
Korean Society of Environmental Restoration Technology,,KOR,ko,Seoul,@ksert_official,not_sure,,,ngo,Restoration of degraded environments
Korea Environmental Industry & Technology Institute,,KOR,ko,Seoul,@keitikorea,not_sure,,,ngo,Supports environmental technology and industry
Korean Society of Environmental Engineers,,KOR,ko,Seoul,@ksee_official,not_sure,,,ngo,Engineering solutions for environmental challenges
Korea Environmental Policy and Administration Society,,KOR,ko,Seoul,@kepas_official,not_sure,,,ngo,Focus on environmental policy and governance
Korea Society of Environmental Toxicology,,KOR,ko,Seoul,@kset_official,not_sure,,,ngo,Research on environmental toxins and health impacts
Korean Society of Environmental Science,,KOR,ko,Seoul,@kses_official,not_sure,,,ngo,Promotes environmental science research and education
Korea Society for Environmental Analysis,,KOR,ko,Seoul,@ksea_official,not_sure,,,ngo,Focus on environmental monitoring and analysis
Korean Society of Environmental Health,,KOR,ko,Seoul,@kseh_official,not_sure,,,ngo,Research on environmental health issues
Korea Society of Environmental Biology,,KOR,ko,Seoul,@kseb_official,not_sure,,,ngo,Biodiversity and ecological research
Korea Society of Environmental Geology,,KOR,ko,Seoul,@kseg_official,not_sure,,,ngo,Geological impacts on the environment
Korean Society of Environmental Biotechnology,,KOR,ko,Seoul,@ksebtech_official,not_sure,,,ngo,Biotechnological solutions for environmental issues
Korea Society of Environmental Chemistry,,KOR,ko,Seoul,@ksec_official,not_sure,,,ngo,Chemical analysis of environmental pollutants
Korean Society of Environmental Physics,,KOR,ko,Seoul,@ksep_official,not_sure,,,ngo,Physical processes in environmental systems
Korea Society of Environmental Microbiology,,KOR,ko,Seoul,@ksem_official,not_sure,,,ngo,Microbial impacts on the environment
Korean Society of Environmental Sociology,,KOR,ko,Seoul,@ksesoc_official,not_sure,,,ngo,Social dimensions of environmental issues
Korean Society of Environmental Toxicology and Chemistry,,KOR,ko,Seoul,@ksetac_official,not_sure,,,ngo,Toxicological and chemical research on environment
Korean Society of Environmental Economics,,KOR,ko,Seoul,@kseecon_official,not_sure,,,ngo,Economic analysis of environmental policies
Korean Society of Environmental Design,,KOR,ko,Seoul,@ksed_official,not_sure,,,ngo,Design solutions for environmental sustainability
Korean Society of Environmental Law,,KOR,ko,Seoul,@ksel_official,not_sure,,,ngo,Legal frameworks for environmental protection
Korean Society of Environmental Policy and Administration,,KOR,ko,Seoul,@ksepa_official,not_sure,,,ngo,Policy and administration of environmental issues
Korean Society of Environmental Policy and Planning,,KOR,ko,Seoul,@ksepp_official,not_sure,,,ngo,Planning and policy development for environment
Korean Society of Environmental Science and Technology,,KOR,ko,Seoul,@ksest_official,not_sure,,,ngo,Science and technology for environmental solutions
Korean Society of Environmental Sociology and Policy,,KOR,ko,Seoul,@ksesop_official,not_sure,,,ngo,Sociological and policy aspects of environment
Korean Society of Environmental Design and Planning,,KOR,ko,Seoul,@ksedp_official,not_sure,,,ngo,Design and planning for sustainable environments
Korean Society of Environmental Policy and Economics,,KOR,ko,Seoul,@ksepe_official,not_sure,,,ngo,Economic policies for environmental sustainability
Korean Society of Environmental Education and Communication,,KOR,ko,Seoul,@kseec_official,not_found,,,ngo,Education and communication for environmental awareness
Korean Society of Environmental Law and Policy,,KOR,ko,Seoul,@kselp_official,not_found,,,ngo,Legal and policy frameworks for environment
Korean Society of Environmental Management and Policy,,KOR,ko,Seoul,@ksemp_official,not_found,,,ngo,Management and policy for environmental issues
Korean Society of Environmental Monitoring and Assessment,,KOR,ko,Seoul,@ksema_official,not_found,,,ngo,Assessment of environmental quality and impacts
Korean Society of Environmental Planning and Design,,KOR,ko,Seoul,@ksepd_official,not_found,,,ngo,Planning and design for sustainable environments
Korean Society of Environmental Policy and Management,,KOR,ko,Seoul,@ksepm_official,not_found,,,ngo,Policy and management for environmental sustainability
Korean Society of Environmental Design and Management,,KOR,ko,Seoul,@ksedm_official,not_found,,,ngo,Design and management for sustainable environments
Korean Society of Environmental Policy and Law,,KOR,ko,Seoul,@ksepl_official,not_found,,,ngo,Policy and legal frameworks for environment
Korean Society of Environmental Management and Science,,KOR,ko,Seoul,@ksems_official,not_found,,,ngo,Management and science for environmental issues
Korean Society of Environmental Policy and Science,,KOR,ko,Seoul,@kseps_official,not_found,,,ngo,Policy and science for environmental solutions
Korean Society of Environmental Sociology and Management,,KOR,ko,Seoul,@ksesom_official,not_found,,,ngo,Sociological and management aspects of environment
Korean Society of Environmental Policy and Communication,,KOR,ko,Seoul,@ksepc_official,not_found,,,ngo,Policy and communication for environmental awareness
Korean Society of Environmental Management and Law,,KOR,ko,Seoul,@kseml_official,not_found,,,ngo,Management and legal frameworks for environment
Korean Society of Environmental Science and Management,,KOR,ko,Seoul,@ksesm_official,not_found,,,ngo,Science and management for environmental solutions
Korean Society of Environmental Design and Communication,,KOR,ko,Seoul,@ksedc_official,not_found,,,ngo,Design and communication for sustainable environments
Korean Society of Environmental Monitoring and Design,,KOR,ko,Seoul,@ksemd_official,not_found,,,ngo,Monitoring and design for environmental quality
Korean Society of Environmental Policy and Sociology,,KOR,ko,Seoul,@ksepsoc_official,not_found,,,ngo,Policy and sociological aspects of environment
Korean Society of Environmental Management and Communication,,KOR,ko,Seoul,@ksemc_official,not_found,,,ngo,Management and communication for environmental awareness
Korea Energy Foundation,,KOR,ko,Seoul,@koreaenergyfoundation,not_sure,,,ngo,Promotes energy efficiency and renewable energy
Korea Environmental Industry Association,,KOR,ko,Seoul,@keia_official,not_sure,,,ngo,Supports environmental industry and technology
Korea Institute of Environmental Science and Technology,,KOR,ko,Seoul,@kies_official,not_sure,,,ngo,Research and development in environmental science
Korea Water Resources Association,,KOR,ko,Seoul,@kwra_official,not_sure,,,ngo,Focus on water resource management and policy
Korea Ocean Research and Development Institute,,KOR,ko,Seoul,@kordi_official,not_sure,,,ngo,Research on marine science and oceanography
Korea Institute for Marine Science & Technology Promotion,,KOR,ko,Seoul,@kimst_official,not_sure,,,ngo,Promotes marine science and technology
Korea Institute of Geoscience and Mineral Resources,,KOR,ko,Seoul,@kigam_official,not_sure,,,ngo,Research on geoscience and mineral resources
Korea Institute of Ocean Science and Technology,,KOR,ko,Seoul,@kiost_official,not_sure,,,ngo,Focus on ocean science and technology research
Korea Institute of Civil Engineering and Building Technology,,KOR,ko,Seoul,@kict_official,not_sure,,,ngo,Research on sustainable civil engineering practices
Korea Institute of Energy Research,,KOR,ko,Seoul,@kier_official,not_sure,,,ngo,Focus on energy research and technology development
Korea Institute of Science and Technology,,KOR,ko,Seoul,@kist_official,not_sure,,,ngo,Research on science and technology innovation
Korea Institute of Industrial Technology,,KOR,ko,Seoul,@kitech_official,not_sure,,,ngo,Focus on industrial technology and innovation
Korea Institute of Machinery and Materials,,KOR,ko,Seoul,@kimm_official,not_sure,,,ngo,Research on machinery and materials technology
Korea Institute of Nuclear Safety,,KOR,ko,Seoul,@kins_official,not_sure,,,ngo,Focus on nuclear safety and regulation
Korea Institute of Oceanography,,KOR,ko,Seoul,@kio_official,not_sure,,,ngo,Research on oceanography and marine ecosystems
Korea Institute of Science and Technology Evaluation and Planning,,KOR,ko,Seoul,@kistep_official,not_sure,,,ngo,Focus on science and technology policy planning
Korea Institute of Toxicology,,KOR,ko,Seoul,@kit_official,not_sure,,,ngo,Research on toxicology and environmental health
