name,email,country,language,city,instagram,phone,organization,type,notes
The Bangkok Podcast,,THA,th,Bangkok,@bangkokpodcast,,Bangkok Podcast,podcaster,Discusses Bangkok's urban and environmental issues
Green Wave Radio,,THA,th,Bangkok,@greenwave1065,,Green Wave Radio,podcaster,Focus on environmental sustainability
The Cloud Podcast,,THA,th,Bangkok,@readthecloud,,The Cloud,podcaster,Covers culture and environmental topics
Nature Talk Thailand,,THA,th,Bangkok,@naturetalkthailand,,Nature Talk,podcaster,Focus on biodiversity and conservation
The Standard Podcast,,THA,th,Bangkok,@thestandardth,,The Standard,podcaster,Covers politics and environmental issues
Sal Forest Podcast,,THA,th,Bangkok,@salforest,,Sal Forest,podcaster,Discusses forest conservation and climate
The Matter Podcast,,THA,th,Bangkok,@thematterco,,The Matter,podcaster,Focus on social issues and environment
Thai PBS Podcast,,THA,th,Bangkok,@thaipbs,,Thai PBS,podcaster,National broadcaster with environmental shows
Voice of Nature,,THA,th,Bangkok,@voiceofnatureth,,Voice of Nature,podcaster,Covers nature and wildlife conservation
The Green Room,,THA,th,Bangkok,@thegreenroomth,,The Green Room,podcaster,Focus on sustainable living and climate
Eco Thailand Podcast,,THA,th,Bangkok,@ecothailand,,Eco Thailand,podcaster,Discusses eco-friendly practices
Bangkok Climate Podcast,,THA,th,Bangkok,@bangkokclimate,,Bangkok Climate,podcaster,Focus on climate change impacts in Bangkok
Peace Talk Thailand,,THA,th,Bangkok,@peacetalkth,,Peace Talk,podcaster,Covers peace initiatives and geopolitics
Sustainable Bangkok,,THA,th,Bangkok,@sustainablebangkok,,Sustainable Bangkok,podcaster,Focus on urban sustainability
The Urban Green Podcast,,THA,th,Bangkok,@urbangreenth,,Urban Green,podcaster,Discusses green urban planning
Climate Action Thailand,,THA,th,Bangkok,@climateactionth,,Climate Action,podcaster,Focus on climate activism and policy
Bangkok Nature Cast,,THA,th,Bangkok,@bangkoknaturecast,,Bangkok Nature,podcaster,Covers local biodiversity and conservation
The Peaceful Podcast,,THA,th,Bangkok,@peacefulpodcastth,,The Peaceful Podcast,podcaster,Focus on peace and conflict resolution
Eco Warriors Thailand,,THA,th,Bangkok,@ecowarriorsth,,Eco Warriors,podcaster,Discusses environmental activism
Bangkok Environmental Podcast,,THA,th,Bangkok,@bangkokenviro,,Bangkok Environmental,podcaster,Focus on local environmental issues
The Green Wave Podcast,,THA,th,Bangkok,@thegreenwavepodcast,,The Green Wave,podcaster,Focuses on climate and nature topics
Peace Talk Thailand,,THA,th,Bangkok,@peacetalkthailand,,Peace Talk,podcaster,Discusses peace and conflict resolution
Bangkok Nature Podcast,,THA,th,Bangkok,@bangkoknaturepod,,Bangkok Nature,podcaster,Covers biodiversity and conservation issues
Geopolitics Today Thailand,,THA,th,Bangkok,@geopoliticstodayth,,Geopolitics Today,podcaster,Analyzes international affairs
Eco Voice Bangkok,,THA,th,Bangkok,@ecovoicebangkok,,Eco Voice,podcaster,Environmental issues and sustainability
Climate Action Podcast,,THA,th,Bangkok,@climateactionpodcast,,Climate Action,podcaster,Focus on climate change solutions
Sustainable Future Thailand,,THA,th,Bangkok,@sustainablefutureth,,Sustainable Future,podcaster,Discusses sustainability initiatives
Peaceful Minds Podcast,,THA,th,Bangkok,@peacefulmindspodcast,,Peaceful Minds,podcaster,Mental health and peace topics
Bangkok Climate Voices,,THA,th,Bangkok,@bangkokclimatevoices,,Bangkok Climate,podcaster,Local climate advocacy
Nature's Call Thailand,,THA,th,Bangkok,@naturescallthailand,,Nature's Call,podcaster,Explores Thailand's natural beauty
Global Peace Podcast,,THA,th,Bangkok,@globalpeacepodcast,,Global Peace,podcaster,International peace initiatives
Eco Warriors Thailand,,THA,th,Bangkok,@ecowarriorsthailand,,Eco Warriors,podcaster,Environmental activism and education
Bangkok Geopolitical Insights,,THA,th,Bangkok,@bangkokgeopoliticalinsights,,Geopolitical Insights,podcaster,Focus on regional geopolitics
The Climate Shift,,THA,th,Bangkok,@theclimateshift,,The Climate Shift,podcaster,Climate change awareness
Peaceful Thailand Podcast,,THA,th,Bangkok,@peacefulthailandpodcast,,Peaceful Thailand,podcaster,Promotes peace and harmony
Bangkok Biodiversity Podcast,,THA,th,Bangkok,@bangkokbiodiversitypodcast,,Bangkok Biodiversity,podcaster,Biodiversity and conservation
Climate Conversations Thailand,,THA,th,Bangkok,@climateconversationsth,,Climate Conversations,podcaster,Climate dialogue and solutions
Peaceful Pathways Podcast,,THA,th,Bangkok,@peacefulpathwayspodcast,,Peaceful Pathways,podcaster,Focus on peacebuilding
Bangkok Environmental Podcast,,THA,th,Bangkok,@bangkokenvironmentalpodcast,,Bangkok Environmental,podcaster,Environmental issues in Bangkok
Geopolitical Pulse Thailand,,THA,th,Bangkok,@geopoliticalpulseth,,Geopolitical Pulse,podcaster,Global and regional geopolitics
Eco Bangkok Podcast,,THA,th,Bangkok,@ecobangkokpodcast,,Eco Bangkok,podcaster,Eco-friendly living in Bangkok
Climate Change Thailand,,THA,th,Bangkok,@climatechangethailand,,Climate Change,podcaster,Climate change impacts and actions
Peaceful Voices Thailand,,THA,th,Bangkok,@peacefulvoicesthailand,,Peaceful Voices,podcaster,Promotes peace and dialogue
Bangkok Green Podcast,,THA,th,Bangkok,@bangkokgreenpodcast,,Bangkok Green,podcaster,Green initiatives and sustainability
Nature's Voice Thailand,,THA,th,Bangkok,@naturesvoicethailand,,Nature's Voice,podcaster,Nature conservation and awareness
Geopolitics Uncovered Thailand,,THA,th,Bangkok,@geopoliticsuncoveredth,,Geopolitics Uncovered,podcaster,Explores geopolitical issues
Eco-Friendly Thailand,,THA,th,Bangkok,@ecofriendlythailand,,Eco-Friendly,podcaster,Promotes eco-friendly practices
Bangkok Peace Podcast,,THA,th,Bangkok,@bangkokpeacepodcast,,Bangkok Peace,podcaster,Focus on peace initiatives
Climate Warriors Thailand,,THA,th,Bangkok,@climatewarriorsthailand,,Climate Warriors,podcaster,Climate activism and advocacy
Sustainable Voices Bangkok,,THA,th,Bangkok,@sustainablevoicesbangkok,,Sustainable Voices,podcaster,Sustainability discussions
Bangkok Geopolitical Podcast,,THA,th,Bangkok,@bangkokgeopoliticalpodcast,,Bangkok Geopolitical,podcaster,Geopolitical analysis and insights
Eco-Conscious Thailand,,THA,th,Bangkok,@ecoconsciousthailand,,Eco-Conscious,podcaster,Eco-conscious living and practices
Peaceful Solutions Podcast,,THA,th,Bangkok,@peacefulsolutionspodcast,,Peaceful Solutions,podcaster,Peacebuilding and conflict resolution
Bangkok Climate Podcast,,THA,th,Bangkok,@bangkokclimatepodcast,,Bangkok Climate,podcaster,Climate issues and solutions
Nature's Guardians Thailand,,THA,th,Bangkok,@naturesguardiansthailand,,Nature's Guardians,podcaster,Nature conservation efforts
Geopolitical Dialogues Thailand,,THA,th,Bangkok,@geopoliticaldialoguesth,,Geopolitical Dialogues,podcaster,Geopolitical discussions and analysis
Eco Innovators Thailand,,THA,th,Bangkok,@ecoinnovatorsthailand,,Eco Innovators,podcaster,Eco-friendly innovations and ideas
Bangkok Peaceful Podcast,,THA,th,Bangkok,@bangkokpeacefulpodcast,,Bangkok Peaceful,podcaster,Promotes peace and understanding
Climate Action Voices,,THA,th,Bangkok,@climateactionvoices,,Climate Action,podcaster,Climate action and advocacy
Sustainable Thailand Podcast,,THA,th,Bangkok,@sustainablethailandpodcast,,Sustainable Thailand,podcaster,Sustainability and green practices
Bangkok Geopolitical Voices,,THA,th,Bangkok,@bangkokgeopoliticalvoices,,Bangkok Geopolitical,podcaster,Geopolitical insights and commentary
Eco-Friendly Voices Thailand,,THA,th,Bangkok,@ecofriendlyvoicesthailand,,Eco-Friendly Voices,podcaster,Eco-friendly practices and awareness
Peaceful Thailand Voices,,THA,th,Bangkok,@peacefulthailandvoices,,Peaceful Thailand,podcaster,Peace and dialogue promotion
Bangkok Climate Warriors,,THA,th,Bangkok,@bangkokclimatewarriors,,Bangkok Climate,podcaster,Climate activism and solutions
Nature's Protectors Thailand,,THA,th,Bangkok,@naturesprotectorsthailand,,Nature's Protectors,podcaster,Nature conservation and protection
Geopolitical Insights Thailand,,THA,th,Bangkok,@geopoliticalinsightsth,,Geopolitical Insights,podcaster,Geopolitical analysis and insights
Eco-Conscious Voices Thailand,,THA,th,Bangkok,@ecoconsciousvoicesthailand,,Eco-Conscious Voices,podcaster,Eco-conscious living and practices
Peaceful Solutions Thailand,,THA,th,Bangkok,@peacefulsolutionsthailand,,Peaceful Solutions,podcaster,Peacebuilding and conflict resolution
Bangkok Climate Voices Podcast,,THA,th,Bangkok,@bangkokclimatevoicespodcast,,Bangkok Climate,podcaster,Climate issues and solutions
Nature's Guardians Podcast,,THA,th,Bangkok,@naturesguardianspodcast,,Nature's Guardians,podcaster,Nature conservation efforts
Geopolitical Dialogues Podcast,,THA,th,Bangkok,@geopoliticaldialoguespodcast,,Geopolitical Dialogues,podcaster,Geopolitical discussions and analysis
Eco Innovators Podcast,,THA,th,Bangkok,@ecoinnovatorspodcast,,Eco Innovators,podcaster,Eco-friendly innovations and ideas
Climate Action Voices Podcast,,THA,th,Bangkok,@climateactionvoicespodcast,,Climate Action,podcaster,Climate action and advocacy
Bangkok Geopolitical Voices Podcast,,THA,th,Bangkok,@bangkokgeopoliticalvoicespodcast,,Bangkok Geopolitical,podcaster,Geopolitical insights and commentary
Eco-Friendly Voices Podcast,,THA,th,Bangkok,@ecofriendlyvoicespodcast,,Eco-Friendly Voices,podcaster,Eco-friendly practices and awareness
Peaceful Thailand Voices Podcast,,THA,th,Bangkok,@peacefulthailandvoicespodcast,,Peaceful Thailand,podcaster,Peace and dialogue promotion
Bangkok Climate Warriors Podcast,,THA,th,Bangkok,@bangkokclimatewarriorspodcast,,Bangkok Climate,podcaster,Climate activism and solutions
Nature's Protectors Podcast,,THA,th,Bangkok,@naturesprotectorspodcast,,Nature's Protectors,podcaster,Nature conservation and protection
Geopolitical Insights Podcast,,THA,th,Bangkok,@geopoliticalinsightspodcast,,Geopolitical Insights,podcaster,Geopolitical analysis and insights
Eco-Conscious Voices Podcast,,THA,th,Bangkok,@ecoconsciousvoicespodcast,,Eco-Conscious Voices,podcaster,Eco-conscious living and practices
Bangkok Climate Talks,,THA,th,Bangkok,@bangkokclimatetalks,,Bangkok Climate Talks,podcaster,Discusses climate change impacts in Bangkok
Peaceful Planet Podcast,,THA,th,Bangkok,@peacefulplanetpodcast,,Peaceful Planet,podcaster,Covers peace and conflict resolution topics
Eco Warriors Podcast,,THA,th,Bangkok,@ecowarriorspodcast,,Eco Warriors,podcaster,Features environmental activists and initiatives
Climate Action Thailand,,THA,th,Bangkok,@climateactionthailand,,Climate Action,podcaster,Promotes climate action and awareness
The Thai Geopolitics Show,,THA,th,Bangkok,@thaigeopoliticsshow,,Thai Geopolitics,podcaster,Covers geopolitical issues in Southeast Asia
Bangkok Biodiversity Podcast,,THA,th,Bangkok,@bangkokbiodiversity,,Bangkok Biodiversity,podcaster,Explores local biodiversity and conservation efforts
Peace Talks Thailand,,THA,th,Bangkok,@peacetalksthailand,,Peace Talks,podcaster,Discusses peace initiatives and diplomacy
Thai Climate Voices,,THA,th,Bangkok,@thaiclimatevoices,,Thai Climate Voices,podcaster,Amplifies voices on climate change
Bangkok Nature Podcast,,THA,th,Bangkok,@bangkoknaturepodcast,,Bangkok Nature,podcaster,Covers nature conservation topics
Bangkok Environmental Podcast,,THA,th,Bangkok,@bangkokenvironmental,,Bangkok Environmental,podcaster,Focuses on environmental protection in Bangkok
The Thai Nature Show,,THA,th,Bangkok,@thainatureshow,,Thai Nature,podcaster,Explores Thailand's natural heritage
Geopolitical Thailand Podcast,,THA,th,Bangkok,@geopoliticalthailand,,Geopolitical Thailand,podcaster,Focuses on Thailand's role in global politics
Nature's Guardians Thailand,,THA,th,Bangkok,@naturesguardiansth,,Nature's Guardians,podcaster,Promotes conservation and biodiversity
Eco Voices Thailand,,THA,th,Bangkok,@ecovoicesthailand,,Eco Voices,podcaster,Amplifies environmental voices in Thailand
Thai Climate Podcast,,THA,th,Bangkok,@thaiclimatepodcast,,Thai Climate,podcaster,Discusses climate change impacts and solutions
Bangkok Geopolitics Podcast,,THA,th,Bangkok,@bangkokgeopolitics,,Bangkok Geopolitics,podcaster,Analyzes geopolitical issues in Bangkok
Nature's Path Thailand,,THA,th,Bangkok,@naturespaththailand,,Nature's Path,podcaster,Focuses on nature conservation and education
Bangkok Eco Podcast,,THA,th,Bangkok,@bangkokecopodcast,,Bangkok Eco,podcaster,Focuses on sustainable living in Bangkok
The Thai Peace Podcast,,THA,th,Bangkok,@thaippeacepodcast,,Thai Peace,podcaster,Discusses peace and conflict resolution
Bangkok Nature Show,,THA,th,Bangkok,@bangkoknatureshow,,Bangkok Nature,podcaster,Explores local nature and wildlife
