name,email,country,language,city,instagram,twitter,phone,organization,type,notes
Marina Silva,,PAU,en,Sao,@marinasilva_,@MarinaSilva,,Sustainability Advocate,influencer,Former Minister of Environment
Felipe Castanhari,,PAU,en,Sao,@fecastanhari,@FeCastanhari,,Canal Nostalgia,influencer,Popular science and education YouTuber
Aline Midlej,,PAU,en,Sao,@alinemidlej,@alinemidlej,,Journalist,influencer,Covers environmental issues
Gisele Bündchen,,PAU,en,Sao,@gisele,@giseleofficial,,Model and Activist,influencer,Environmental advocate
Caio Braz,,PAU,en,Sao,@caiobraz,@CaioBraz,,TV Host,influencer,Focuses on sustainability
Natalia Pasternak,,PAU,en,Sao,@taschnernatalia,not_sure,,Science Communicator,influencer,Promotes science and rational thinking
Bruno Gagliasso,,PAU,en,Sao,@brunogagliasso,@brunogagliasso,,Actor,influencer,Advocates for environmental causes
Fernanda Lima,,PAU,en,Sao,@fernandalimaoficial,@FernandaLima,,TV Presenter,influencer,Promotes sustainable living
Eduardo Jorge,,PAU,en,Sao,@eduardojorge43,@EduardoJorge43,,Politician,influencer,Green Party leader
Nina Silva,,PAU,en,Sao,@ninasilvaofficial,not_sure,,Black Money Movement,influencer,Tech and sustainability advocate
Leandra Leal,,PAU,en,Sao,@leandraleal,not_sure,,Actress,influencer,Supports environmental initiatives
Alexandre Rossi,,PAU,en,Sao,@drpet_alex,not_sure,,Animal Behaviorist,influencer,Advocates for animal welfare
Alice Braga,,PAU,en,Sao,@alicebraga_oficial,not_sure,,Actress,influencer,Supports environmental causes
Paola Carosella,,PAU,en,Sao,@paolacarosella,not_sure,,Chef,influencer,Promotes sustainable food practices
Mateus Solano,,PAU,en,Sao,@mateusolanooficial,not_sure,,Actor,influencer,Environmental advocate
Camila Pitanga,,PAU,en,Sao,@caiapitanga,not_sure,,Actress,influencer,Supports environmental initiatives
Rodrigo Santoro,,PAU,en,Sao,@rodrigosantoro,not_sure,,Actor,influencer,Environmental advocate
Adriana Calcanhotto,,PAU,en,Sao,@adrianacalcanhotto,not_sure,,Singer,influencer,Promotes ocean conservation
Fernanda Torres,,PAU,en,Sao,@fernandatorresoficial,not_sure,,Actress,influencer,Environmental advocate
Sabrina Sato,,PAU,en,Sao,@sabrinasato,@SabrinaSatoReal,,TV Host,influencer,Promotes sustainable living
Luciano Huck,,PAU,en,Sao,@lucianohuck,@LucianoHuck,,TV Presenter,influencer,Advocates for social and environmental issues
Ivete Sangalo,,PAU,en,Sao,@ivetesangalo,@ivetesangalo,,Singer,influencer,Supports environmental causes
Claudia Leitte,,PAU,en,Sao,@claudialeitte,@ClaudiaLeitte,,Singer,influencer,Promotes environmental awareness
Ana Paula Padrão,,PAU,en,Sao,@anapaulapadraooficial,not_sure,,Journalist,influencer,Covers environmental topics
Rafael Cortez,,PAU,en,Sao,@cortezrafa,not_sure,,Comedian,influencer,Advocates for sustainability
Fernanda Gentil,,PAU,en,Sao,@gentilfernanda,not_sure,,TV Presenter,influencer,Promotes social and environmental causes
Lázaro Ramos,,PAU,en,Sao,@olazaroramos,not_sure,,Actor,influencer,Supports environmental initiatives
Taís Araújo,,PAU,en,Sao,@taisdeverdade,not_sure,,Actress,influencer,Environmental advocate
Marina Ruy Barbosa,,PAU,en,Sao,@marinaruybarbosa,@mariruybarbosa,,Actress,influencer,Promotes sustainable fashion
Bruna Marquezine,,PAU,en,Sao,@brunamarquezine,not_sure,,Actress,influencer,Supports environmental causes
Thiago Lacerda,,PAU,en,Sao,@trlacerda,not_sure,,Actor,influencer,Environmental advocate
Deborah Secco,,PAU,en,Sao,@dedesecco,not_sure,,Actress,influencer,Supports environmental initiatives
Juliana Paes,,PAU,en,Sao,@julianapaes,not_sure,,Actress,influencer,Environmental advocate
Angélica Ksyvickis,,PAU,en,Sao,@angelicaksy,not_sure,,TV Host,influencer,Promotes sustainable living
Fábio Porchat,,PAU,en,Sao,@fabioporchat,@fabioporchat,,Comedian,influencer,Advocates for sustainability
Regina Casé,,PAU,en,Sao,@reginacase,not_sure,,Actress,influencer,Supports environmental causes
Patrícia Poeta,,PAU,en,Sao,@patriciapoeta,not_sure,,TV Presenter,influencer,Covers environmental topics
Sandy Leah,,PAU,en,Sao,@sandyoficial,not_sure,,Singer,influencer,Supports environmental initiatives
Rodrigo Faro,,PAU,en,Sao,@rodrigofaro,not_sure,,TV Host,influencer,Promotes sustainable living
Ana Maria Braga,,PAU,en,Sao,@anamaria16,not_sure,,TV Presenter,influencer,Covers environmental issues
Tatá Werneck,,PAU,en,Sao,@tatawerneck,@Tatawerneck,,Comedian,influencer,Advocates for sustainability
Rafinha Bastos,,PAU,en,Sao,@rafinhabastos,@rafinhabastos,,Comedian,influencer,Promotes environmental awareness
Carolina Dieckmann,,PAU,en,Sao,@loracarola,not_sure,,Actress,influencer,Supports environmental causes
Fernanda Souza,,PAU,en,Sao,@fernandasouzaoficial,not_sure,,Actress,influencer,Promotes sustainable living
Giovanna Ewbank,,PAU,en,Sao,@gio_ewbank,not_sure,,Actress,influencer,Supports environmental initiatives
Isis Valverde,,PAU,en,Sao,@isisvalverde,not_sure,,Actress,influencer,Environmental advocate
Letícia Sabatella,,PAU,en,Sao,@leticia_sabatella,not_sure,,Actress,influencer,Supports environmental causes
Grazi Massafera,,PAU,en,Sao,@massafera,not_sure,,Actress,influencer,Promotes sustainable living
Juliana Alves,,PAU,en,Sao,@julianaalvesiam,not_sure,,Actress,influencer,Supports environmental initiatives
Deborah Bloch,,PAU,en,Sao,@deborahblochoficial,not_sure,,Actress,influencer,Environmental advocate
Cauã Reymond,,PAU,en,Sao,@cauareymond,not_sure,,Actor,influencer,Supports environmental causes
Alinne Moraes,,PAU,en,Sao,@alinnemoraes,not_sure,,Actress,influencer,Promotes sustainable living
Mariana Ximenes,,PAU,en,Sao,@marixioficial,not_sure,,Actress,influencer,Supports environmental initiatives
Reynaldo Gianecchini,,PAU,en,Sao,@reynaldogianecchini,not_sure,,Actor,influencer,Environmental advocate
Glória Pires,,PAU,en,Sao,@gpiresoficial,not_sure,,Actress,influencer,Supports environmental causes
Bruno Mazzeo,,PAU,en,Sao,@brunomazzeo,not_sure,,Actor,influencer,Promotes sustainable living
Camila Morgado,,PAU,en,Sao,@camilamorgado,not_sure,,Actress,influencer,Supports environmental initiatives
Murilo Benício,,PAU,en,Sao,@murilobeniciooficial,not_sure,,Actor,influencer,Environmental advocate
Carolina Ferraz,,PAU,en,Sao,@carolinaferraz,not_sure,,Actress,influencer,Supports environmental causes
Marcelo Adnet,,PAU,en,Sao,@marceloadnet0,not_sure,,Comedian,influencer,Promotes environmental awareness
Maria Flor,,PAU,en,Sao,@mariaflor31,not_sure,,Actress,influencer,Supports environmental initiatives
Vladimir Brichta,,PAU,en,Sao,@vladimirbrichta,not_sure,,Actor,influencer,Environmental advocate
Dira Paes,,PAU,en,Sao,@dirapaes,not_sure,,Actress,influencer,Supports environmental causes
Marjorie Estiano,,PAU,en,Sao,@marjorieestiano,not_sure,,Actress,influencer,Promotes sustainable living
Wagner Moura,,PAU,en,Sao,@wagnermoura,not_sure,,Actor,influencer,Supports environmental initiatives
Alice Wegmann,,PAU,en,Sao,@alice.weg,not_sure,,Actress,influencer,Environmental advocate
José Loreto,,PAU,en,Sao,@joseloreto,not_sure,,Actor,influencer,Supports environmental causes
Nanda Costa,,PAU,en,Sao,@nandacosta,not_sure,,Actress,influencer,Promotes sustainable living
Fábio Assunção,,PAU,en,Sao,@fabioassuncaooficial,not_sure,,Actor,influencer,Supports environmental initiatives
Cléo Pires,,PAU,en,Sao,@cleo,not_sure,,Actress,influencer,Environmental advocate
Thiago Fragoso,,PAU,en,Sao,@fragoso_thiago,not_sure,,Actor,influencer,Supports environmental causes
Juliana Knust,,PAU,en,Sao,@ju_knust,not_sure,,Actress,influencer,Promotes sustainable living
Bruno Garcia,,PAU,en,Sao,@brunogarcia,not_sure,,Actor,influencer,Supports environmental initiatives
Mariana Rios,,PAU,en,Sao,@marianarios,not_sure,,Actress,influencer,Environmental advocate
Rômulo Estrela,,PAU,en,Sao,@romuloestrela,not_sure,,Actor,influencer,Supports environmental causes
Bianca Bin,,PAU,en,Sao,@biancafbin,not_sure,,Actress,influencer,Promotes sustainable living
Rafael Vitti,,PAU,en,Sao,@rafaavitti,not_sure,,Actor,influencer,Supports environmental initiatives
Sophie Charlotte,,PAU,en,Sao,@sophiecharlotte1,not_sure,,Actress,influencer,Environmental advocate
Chay Suede,,PAU,en,Sao,@chay,not_sure,,Actor,influencer,Supports environmental causes
Isabella Santoni,,PAU,en,Sao,@isabellasantoni,not_sure,,Actress,influencer,Promotes sustainable living
Jesuíta Barbosa,,PAU,en,Sao,@jesuitabarbosa,not_sure,,Actor,influencer,Supports environmental initiatives
Bruna Linzmeyer,,PAU,en,Sao,@brunalinzmeyer,not_sure,,Actress,influencer,Environmental advocate
Gabriel Leone,,PAU,en,Sao,@leonegabriel,not_sure,,Actor,influencer,Supports environmental causes
Letícia Colin,,PAU,en,Sao,@leticiacolin,not_sure,,Actress,influencer,Promotes sustainable living
Renato Góes,,PAU,en,Sao,@renatogoess,not_sure,,Actor,influencer,Supports environmental initiatives
Agatha Moreira,,PAU,en,Sao,@agathaamoreiraa,not_sure,,Actress,influencer,Environmental advocate
Caio Castro,,PAU,en,Sao,@caiocastro,not_sure,,Actor,influencer,Supports environmental causes
Camila Queiroz,,PAU,en,Sao,@camilaqueiroz,not_sure,,Actress,influencer,Promotes sustainable living
Klebber Toledo,,PAU,en,Sao,@klebbertoledo,not_sure,,Actor,influencer,Supports environmental initiatives
Marina Moschen,,PAU,en,Sao,@marinamoschen,not_sure,,Actress,influencer,Environmental advocate
Nicolas Prattes,,PAU,en,Sao,@nicolasprattes,not_sure,,Actor,influencer,Supports environmental causes
Juliana Paiva,,PAU,en,Sao,@juulianapaiva,not_sure,,Actress,influencer,Promotes sustainable living
Rafael Cardoso,,PAU,en,Sao,@rafaelcardoso9,not_sure,,Actor,influencer,Supports environmental initiatives
Isabelle Drummond,,PAU,en,Sao,@yeuxpapillon,not_sure,,Actress,influencer,Environmental advocate
Fiuk,,PAU,en,Sao,@fiuk,not_sure,,Singer,influencer,Supports environmental causes
Sophia Abrahão,,PAU,en,Sao,@sophiaabrahao,@sophiaabrahao,,Actress,influencer,Promotes sustainable living
Lucas Lucco,,PAU,en,Sao,@lucaslucco,@lucaslucco,,Singer,influencer,Supports environmental initiatives
Larissa Manoela,,PAU,en,Sao,@larissamanoela,@larimanoela,,Actress,influencer,Environmental advocate
Luan Santana,,PAU,en,Sao,@luansantana,@luansantana,,Singer,influencer,Supports environmental causes
Anitta,,PAU,en,Sao,@anitta,@anitta,,Singer,influencer,Promotes sustainable living
