name,email,country,language,city,instagram,twitter,phone,organization,type,notes
The Green Hour,,PAK,ur,Karachi,@thegreenhourpodcast,not_sure,,The Green Hour,podcaster,Focuses on environmental issues in Pakistan
Karachi Climate Conversations,,PAK,ur,Karachi,@karachiclimateconversations,not_sure,,Karachi Climate Conversations,podcaster,Discusses climate change impacts in Karachi
Peaceful Pakistan Podcast,,PAK,ur,Karachi,@peacefulpakistanpod,not_sure,,Peaceful Pakistan,podcaster,Covers peace and conflict resolution topics
Nature's Voice Pakistan,,PAK,ur,Karachi,@naturesvoicepak,not_sure,,Nature's Voice,podcaster,Explores biodiversity and conservation efforts
GeoPolitics Today,,PAK,ur,Karachi,@geopoliticstoday,not_sure,,GeoPolitics Today,podcaster,Analyzes international affairs and geopolitics
Eco Warriors Pakistan,,PAK,ur,Karachi,@ecowarriorspak,not_sure,,Eco Warriors,podcaster,Promotes sustainable living and eco-friendly practices
Karachi Peace Talks,,PAK,ur,Karachi,@karachipeacetalks,not_sure,,Karachi Peace Talks,podcaster,Focuses on peace initiatives in Karachi
The Climate Frontline,,PAK,ur,Karachi,@theclimatefrontline,not_sure,,The Climate Frontline,podcaster,Discusses frontline climate change issues
Biodiversity Buzz,,PAK,ur,Karachi,@biodiversitybuzz,not_sure,,Biodiversity Buzz,podcaster,Covers biodiversity topics in Pakistan
Karachi Geopolitical Insights,,PAK,ur,Karachi,@karachigeopoliticalinsights,not_sure,,Karachi Geopolitical Insights,podcaster,Provides insights on geopolitical issues
Sustainable Karachi,,PAK,ur,Karachi,@sustainablekarachi,not_sure,,Sustainable Karachi,podcaster,Promotes sustainability in urban settings
Peaceful Dialogues,,PAK,ur,Karachi,@peacefuldialogues,not_sure,,Peaceful Dialogues,podcaster,Engages in dialogues on peace and harmony
Karachi Nature Network,,PAK,ur,Karachi,@karachinaturenetwork,not_sure,,Karachi Nature Network,podcaster,Focuses on nature conservation efforts
Climate Action Karachi,,PAK,ur,Karachi,@climateactionkarachi,not_sure,,Climate Action Karachi,podcaster,Advocates for climate action in Karachi
The Peace Podcast,,PAK,ur,Karachi,@thepeacepodcast,not_sure,,The Peace Podcast,podcaster,Discusses peace-building strategies
Karachi Environmental Voices,,PAK,ur,Karachi,@karachienvironmentalvoices,not_sure,,Karachi Environmental Voices,podcaster,Covers environmental issues in Karachi
Geo-Political Pulse,,PAK,ur,Karachi,@geopoliticalpulse,not_sure,,Geo-Political Pulse,podcaster,Analyzes geopolitical trends and impacts
Karachi Biodiversity Hub,,PAK,ur,Karachi,@karachibiodiversityhub,not_sure,,Karachi Biodiversity Hub,podcaster,Focuses on biodiversity conservation
Climate Change Chronicles,,PAK,ur,Karachi,@climatechangechronicles,not_sure,,Climate Change Chronicles,podcaster,Explores climate change narratives
Peaceful Karachi,,PAK,ur,Karachi,@peacefulkarachi,not_sure,,Peaceful Karachi,podcaster,Promotes peace initiatives in Karachi
Karachi Eco Talks,,PAK,ur,Karachi,@karachiecotalks,not_sure,,Karachi Eco Talks,podcaster,Discusses eco-friendly practices in Karachi
The Geopolitical Lens,,PAK,ur,Karachi,@thegeopoliticallens,not_sure,,The Geopolitical Lens,podcaster,Focuses on geopolitical analysis
Karachi Climate Voices,,PAK,ur,Karachi,@karachiclimatevoices,not_sure,,Karachi Climate Voices,podcaster,Amplifies climate change voices in Karachi
Nature's Guardians,,PAK,ur,Karachi,@naturesguardians,not_sure,,Nature's Guardians,podcaster,Focuses on nature conservation efforts
Peace and Harmony Podcast,,PAK,ur,Karachi,@peaceandharmonypodcast,not_sure,,Peace and Harmony Podcast,podcaster,Promotes peace and harmony discussions
Karachi Environmental Talks,,PAK,ur,Karachi,@karachienvironmentaltalks,not_sure,,Karachi Environmental Talks,podcaster,Covers environmental topics in Karachi
Geo-Political Conversations,,PAK,ur,Karachi,@geopoliticalconversations,not_sure,,Geo-Political Conversations,podcaster,Discusses geopolitical issues and impacts
Karachi Biodiversity Talks,,PAK,ur,Karachi,@karachibiodiversitytalks,not_sure,,Karachi Biodiversity Talks,podcaster,Focuses on biodiversity topics in Karachi
Climate Change Karachi,,PAK,ur,Karachi,@climatechangekarachi,not_sure,,Climate Change Karachi,podcaster,Discusses climate change impacts in Karachi
Peaceful Dialogues Karachi,,PAK,ur,Karachi,@peacefuldialogueskarachi,not_sure,,Peaceful Dialogues Karachi,podcaster,Engages in peace dialogues in Karachi
Karachi Nature Talks,,PAK,ur,Karachi,@karachinaturetalks,not_sure,,Karachi Nature Talks,podcaster,Focuses on nature conservation in Karachi
The Climate Podcast,,PAK,ur,Karachi,@theclimatepodcast,not_sure,,The Climate Podcast,podcaster,Explores climate change narratives
Karachi Peace Podcast,,PAK,ur,Karachi,@karachipeacepodcast,not_sure,,Karachi Peace Podcast,podcaster,Promotes peace initiatives in Karachi
Eco-Friendly Karachi,,PAK,ur,Karachi,@ecofriendlykarachi,not_sure,,Eco-Friendly Karachi,podcaster,Discusses eco-friendly practices in Karachi
Geopolitical Karachi,,PAK,ur,Karachi,@geopoliticalkarachi,not_sure,,Geopolitical Karachi,podcaster,Focuses on geopolitical analysis in Karachi
Karachi Climate Hub,,PAK,ur,Karachi,@karachiclimatehub,not_sure,,Karachi Climate Hub,podcaster,Amplifies climate change voices in Karachi
Nature's Guardians Karachi,,PAK,ur,Karachi,@naturesguardianskarachi,not_sure,,Nature's Guardians Karachi,podcaster,Focuses on nature conservation efforts
Peace and Harmony Karachi,,PAK,ur,Karachi,@peaceandharmonykarachi,not_sure,,Peace and Harmony Karachi,podcaster,Promotes peace and harmony discussions
Karachi Biodiversity Network,,PAK,ur,Karachi,@karachibiodiversitynetwork,not_sure,,Karachi Biodiversity Network,podcaster,Focuses on biodiversity conservation
Climate Change Chronicles Karachi,,PAK,ur,Karachi,@climatechangechronicleskarachi,not_sure,,Climate Change Chronicles Karachi,podcaster,Explores climate change narratives
Peaceful Karachi Dialogues,,PAK,ur,Karachi,@peacefulkarachidialogues,not_sure,,Peaceful Karachi Dialogues,podcaster,Engages in peace dialogues in Karachi
The Climate Frontline Karachi,,PAK,ur,Karachi,@theclimatefrontlinekarachi,not_sure,,The Climate Frontline Karachi,podcaster,Discusses frontline climate change issues
Peaceful Pakistan Karachi,,PAK,ur,Karachi,@peacefulpakistankhi,not_sure,,Peaceful Pakistan Karachi,podcaster,Covers peace and conflict resolution topics
Nature's Voice Karachi,,PAK,ur,Karachi,@naturesvoicekarachi,not_sure,,Nature's Voice Karachi,podcaster,Explores biodiversity and conservation efforts
GeoPolitics Today Karachi,,PAK,ur,Karachi,@geopoliticstodaykhi,not_sure,,GeoPolitics Today Karachi,podcaster,Analyzes international affairs and geopolitics
Eco Warriors Karachi,,PAK,ur,Karachi,@ecowarriorskarachi,not_sure,,Eco Warriors Karachi,podcaster,Promotes sustainable living and eco-friendly practices
Shoaib Ahmed,,PAK,ur,Karachi,@shoaibahmedpodcast,not_sure,,The Green Talk,podcaster,Hosts top climate podcast in Karachi
Ayesha Khan,,PAK,ur,Karachi,@ayeshakhanpod,not_sure,,Peaceful Waves,podcaster,Focuses on peace and conflict resolution
Zainab Ali,,PAK,ur,Karachi,@zainabali_podcast,not_sure,,Nature's Voice,podcaster,Covers biodiversity and conservation
Ali Raza,,PAK,ur,Karachi,@alirazapod,not_sure,,GeoPolitics Today,podcaster,Discusses geopolitics and international affairs
Fatima Noor,,PAK,ur,Karachi,@fatimanoorpodcast,not_sure,,Climate Conversations,podcaster,Engages in climate change discussions
Hassan Javed,,PAK,ur,Karachi,@hassanjavedpod,not_sure,,Peace Talks,podcaster,Explores peace initiatives in the region
Sara Malik,,PAK,ur,Karachi,@saramalikpodcast,not_sure,,Eco Warriors,podcaster,Focuses on environmental protection
Usman Tariq,,PAK,ur,Karachi,@usmantariqpod,not_sure,,World Affairs,podcaster,Covers international relations and geopolitics
Nida Khan,,PAK,ur,Karachi,@nidakhantalks,not_sure,,Nature Speaks,podcaster,Discusses nature conservation efforts
Bilal Ahmed,,PAK,ur,Karachi,@bilalahmedpod,not_sure,,Peaceful Dialogues,podcaster,Focuses on peace and diplomacy
Rabia Siddiqui,,PAK,ur,Karachi,@rabiasiddiquipod,not_sure,,Climate Action,podcaster,Covers climate action and sustainability
Imran Khan,,PAK,ur,Karachi,@imrankhanpodcast,not_sure,,Global Perspectives,podcaster,Discusses global geopolitical issues
Mariam Ali,,PAK,ur,Karachi,@mariamali_pod,not_sure,,Eco Talks,podcaster,Focuses on ecological issues
Faisal Qureshi,,PAK,ur,Karachi,@faisalqureshipod,not_sure,,Peaceful Solutions,podcaster,Explores solutions for peace
Zara Khan,,PAK,ur,Karachi,@zarakhanpod,not_sure,,Nature's Call,podcaster,Discusses nature and wildlife conservation
Omar Farooq,,PAK,ur,Karachi,@omarfarooqpod,not_sure,,Climate Voices,podcaster,Engages in climate change advocacy
Hina Shah,,PAK,ur,Karachi,@hinashahpod,not_sure,,Peaceful Futures,podcaster,Focuses on future peace initiatives
Adnan Malik,,PAK,ur,Karachi,@adnanmalikpod,not_sure,,Geo Talks,podcaster,Covers geopolitical discussions
Sana Ahmed,,PAK,ur,Karachi,@sanaahmedpod,not_sure,,Eco Voices,podcaster,Focuses on environmental issues
Rizwan Khan,,PAK,ur,Karachi,@rizwankhanpod,not_sure,,Peace Dialogues,podcaster,Explores peace and conflict resolution
Amina Sheikh,,PAK,ur,Karachi,@aminasheikhpod,not_sure,,Nature's Path,podcaster,Discusses nature conservation
Kashif Ali,,PAK,ur,Karachi,@kashifalipod,not_sure,,Climate Change Talks,podcaster,Engages in climate change discussions
Naveed Hussain,,PAK,ur,Karachi,@naveedhussainpod,not_sure,,Peaceful World,podcaster,Focuses on global peace initiatives
Sadia Khan,,PAK,ur,Karachi,@sadiakhanpod,not_sure,,Eco Awareness,podcaster,Covers environmental awareness
Tariq Mehmood,,PAK,ur,Karachi,@tariqmehmoodpod,not_sure,,Geo Insights,podcaster,Discusses geopolitical insights
Zainab Raza,,PAK,ur,Karachi,@zainabraza_pod,not_sure,,Nature's Voice,podcaster,Focuses on nature conservation
Asad Ali,,PAK,ur,Karachi,@asadali_podcast,not_sure,,Climate Talks,podcaster,Engages in climate change advocacy
Hira Shah,,PAK,ur,Karachi,@hirashahpod,not_sure,,Peaceful Dialogues,podcaster,Explores peace initiatives
Waqas Ahmed,,PAK,ur,Karachi,@waqasahmedpod,not_sure,,Eco Warriors,podcaster,Focuses on environmental protection
Saba Qureshi,,PAK,ur,Karachi,@sabaqureshipod,not_sure,,Geo Politics,podcaster,Discusses geopolitical issues
Adeel Khan,,PAK,ur,Karachi,@adeelkhanpod,not_sure,,Nature's Call,podcaster,Focuses on nature conservation
Nida Ali,,PAK,ur,Karachi,@nidaalipod,not_sure,,Climate Conversations,podcaster,Engages in climate discussions
Fahad Raza,,PAK,ur,Karachi,@fahadrazapod,not_sure,,Peaceful Solutions,podcaster,Explores solutions for peace
Zoya Khan,,PAK,ur,Karachi,@zoyakhanpod,not_sure,,Eco Talks,podcaster,Focuses on ecological issues
Hamza Tariq,,PAK,ur,Karachi,@hamzatariqpod,not_sure,,Geo Talks,podcaster,Covers geopolitical discussions
Sana Raza,,PAK,ur,Karachi,@sanarazapod,not_sure,,Nature Speaks,podcaster,Discusses nature conservation efforts
Ali Hassan,,PAK,ur,Karachi,@alihassanpod,not_sure,,Climate Voices,podcaster,Engages in climate change advocacy
Nashit Khan,,PAK,ur,Karachi,@nashitkhanpod,not_sure,,Peaceful Futures,podcaster,Focuses on future peace initiatives
Maira Ali,,PAK,ur,Karachi,@mairaalipod,not_sure,,Eco Voices,podcaster,Focuses on environmental issues
Raza Ahmed,,PAK,ur,Karachi,@razaahmedpod,not_sure,,Peace Dialogues,podcaster,Explores peace and conflict resolution
Ayesha Siddiqui,,PAK,ur,Karachi,@ayeshapod,not_sure,,Nature's Path,podcaster,Discusses nature conservation
Kashif Mehmood,,PAK,ur,Karachi,@kashifmehmoodpod,not_sure,,Climate Change Talks,podcaster,Engages in climate change discussions
Naveed Ali,,PAK,ur,Karachi,@naveedalipod,not_sure,,Peaceful World,podcaster,Focuses on global peace initiatives
Sadia Raza,,PAK,ur,Karachi,@sadiarazapod,not_sure,,Eco Awareness,podcaster,Covers environmental awareness
Tariq Ali,,PAK,ur,Karachi,@tariqalipod,not_sure,,Geo Insights,podcaster,Discusses geopolitical insights
Zainab Mehmood,,PAK,ur,Karachi,@zainabmehmoodpod,not_sure,,Nature's Voice,podcaster,Focuses on nature conservation
Asad Raza,,PAK,ur,Karachi,@asadrazapod,not_sure,,Climate Talks,podcaster,Engages in climate change advocacy
Hira Ali,,PAK,ur,Karachi,@hiraalipod,not_sure,,Peaceful Dialogues,podcaster,Explores peace initiatives
Waqas Khan,,PAK,ur,Karachi,@waqaskhanpod,not_sure,,Eco Warriors,podcaster,Focuses on environmental protection
Saba Ali,,PAK,ur,Karachi,@sabaalipod,not_sure,,Geo Politics,podcaster,Discusses geopolitical issues
Adeel Raza,,PAK,ur,Karachi,@adeelrazapod,not_sure,,Nature's Call,podcaster,Focuses on nature conservation
Nida Raza,,PAK,ur,Karachi,@nidarazapod,not_sure,,Climate Conversations,podcaster,Engages in climate discussions
Fahad Khan,,PAK,ur,Karachi,@fahadkhanpod,not_sure,,Peaceful Solutions,podcaster,Explores solutions for peace
Zoya Raza,,PAK,ur,Karachi,@zoyarazapod,not_sure,,Eco Talks,podcaster,Focuses on ecological issues
