name,email,country,language,city,instagram,twitter,phone,organization,type,notes
Green Hong Kong Podcast,,KON,en,Hong,@greenhkpodcast,not_sure,,Green Hong Kong Podcast,podcaster,Focuses on local environmental issues
The Climate Conversation,,KON,en,Hong,@climateconversationhk,not_sure,,The Climate Conversation,podcaster,Discusses climate change impacts in HK
Hong Kong Nature Talks,,KON,en,Hong,@hknaturetalks,not_sure,,Hong Kong Nature Talks,podcaster,Covers biodiversity and conservation topics
Peaceful Waves Podcast,,KON,en,Hong,@peacefulwaveshk,not_sure,,Peaceful Waves Podcast,podcaster,Focuses on peace and conflict resolution
Geopolitics in Asia,,KON,en,Hong,@geopoliticsasia,not_sure,,Geopolitics in Asia,podcaster,Analyzes geopolitical trends in Asia
Eco Warriors Hong Kong,,KON,en,Hong,@ecowarriorshk,not_sure,,Eco Warriors Hong Kong,podcaster,Promotes sustainable living practices
Sustainable Future Podcast,,KON,en,Hong,@sustainablefuturehk,not_sure,,Sustainable Future Podcast,podcaster,Explores sustainability initiatives in HK
Hong Kong Climate Voices,,KON,en,Hong,@hkclimatevoices,not_sure,,Hong Kong Climate Voices,podcaster,Shares stories on climate action
The Peace Podcast HK,,KON,en,Hong,@peacepodcasthk,not_sure,,The Peace Podcast HK,podcaster,Discusses peacebuilding efforts
Biodiversity Buzz,,KON,en,Hong,@biodiversitybuzzhk,not_sure,,Biodiversity Buzz,podcaster,Focuses on biodiversity in Hong Kong
Hong Kong Green Voices,,KON,en,Hong,@hkgreenvoices,not_sure,,Hong Kong Green Voices,podcaster,Covers environmental advocacy
Asia Pacific Geopolitics,,KON,en,Hong,@asiapacificgeopolitics,not_sure,,Asia Pacific Geopolitics,podcaster,Discusses regional geopolitical issues
Eco Chat HK,,KON,en,Hong,@ecochathk,not_sure,,Eco Chat HK,podcaster,Talks about eco-friendly practices
Hong Kong Peace Talks,,KON,en,Hong,@hkpeacetalks,not_sure,,Hong Kong Peace Talks,podcaster,Focuses on peace initiatives
Climate Action HK,,KON,en,Hong,@climateactionhk,not_sure,,Climate Action HK,podcaster,Promotes climate action in Hong Kong
Nature's Voice HK,,KON,en,Hong,@naturesvoicehk,not_sure,,Nature's Voice HK,podcaster,Covers nature conservation topics
Hong Kong Geopolitical Insights,,KON,en,Hong,@hkgeopoliticalinsights,not_sure,,Hong Kong Geopolitical Insights,podcaster,Analyzes geopolitical dynamics
Sustainable Hong Kong Podcast,,KON,en,Hong,@sustainablehkpodcast,not_sure,,Sustainable Hong Kong Podcast,podcaster,Discusses sustainability in HK
Peace and Harmony Podcast,,KON,en,Hong,@peaceandharmonyhk,not_sure,,Peace and Harmony Podcast,podcaster,Focuses on peacebuilding
Hong Kong Climate Change Podcast,,KON,en,Hong,@hkclimatechangepodcast,not_sure,,Hong Kong Climate Change Podcast,podcaster,Discusses climate change impacts
Biodiversity Hong Kong,,KON,en,Hong,@biodiversityhk,not_sure,,Biodiversity Hong Kong,podcaster,Focuses on biodiversity conservation
Green Future HK,,KON,en,Hong,@greenfuturehk,not_sure,,Green Future HK,podcaster,Promotes green initiatives
Hong Kong Peace Podcast,,KON,en,Hong,@hkpeacepodcast,not_sure,,Hong Kong Peace Podcast,podcaster,Discusses peace efforts
Geopolitical Conversations HK,,KON,en,Hong,@geopoliticalconversationshk,not_sure,,Geopolitical Conversations HK,podcaster,Analyzes geopolitical issues
Eco Warriors Podcast,,KON,en,Hong,@ecowarriorspodcast,not_sure,,Eco Warriors Podcast,podcaster,Promotes eco-friendly living
Hong Kong Nature Podcast,,KON,en,Hong,@hknaturepodcast,not_sure,,Hong Kong Nature Podcast,podcaster,Covers nature conservation topics
Climate Voices HK,,KON,en,Hong,@climatevoiceshk,not_sure,,Climate Voices HK,podcaster,Shares climate action stories
Peaceful Hong Kong Podcast,,KON,en,Hong,@peacefulhkpodcast,not_sure,,Peaceful Hong Kong Podcast,podcaster,Focuses on peace initiatives
Sustainable Living HK,,KON,en,Hong,@sustainablelivinghk,not_sure,,Sustainable Living HK,podcaster,Promotes sustainable practices
Hong Kong Geopolitical Podcast,,KON,en,Hong,@hkgeopoliticalpodcast,not_sure,,Hong Kong Geopolitical Podcast,podcaster,Discusses geopolitical dynamics
Eco Hong Kong Podcast,,KON,en,Hong,@ecohongkongpodcast,not_sure,,Eco Hong Kong Podcast,podcaster,Focuses on environmental issues
Nature Talks HK,,KON,en,Hong,@naturetalkshk,not_sure,,Nature Talks HK,podcaster,Covers biodiversity topics
Climate Action Podcast,,KON,en,Hong,@climateactionpodcast,not_sure,,Climate Action Podcast,podcaster,Promotes climate action
Peace and Conflict HK,,KON,en,Hong,@peaceandconflicthk,not_sure,,Peace and Conflict HK,podcaster,Focuses on conflict resolution
Biodiversity Podcast HK,,KON,en,Hong,@biodiversitypodcasthk,not_sure,,Biodiversity Podcast HK,podcaster,Discusses biodiversity conservation
Green Hong Kong Voices,,KON,en,Hong,@greenhkvoices,not_sure,,Green Hong Kong Voices,podcaster,Covers environmental advocacy
Geopolitics and Asia,,KON,en,Hong,@geopoliticsandasia,not_sure,,Geopolitics and Asia,podcaster,Analyzes regional geopolitical issues
Eco Chat Podcast,,KON,en,Hong,@ecochatpodcast,not_sure,,Eco Chat Podcast,podcaster,Talks about eco-friendly practices
Hong Kong Peace and Harmony,,KON,en,Hong,@hkpeaceandharmony,not_sure,,Hong Kong Peace and Harmony,podcaster,Focuses on peacebuilding
Climate Change HK Podcast,,KON,en,Hong,@climatechangehkpodcast,not_sure,,Climate Change HK Podcast,podcaster,Discusses climate change impacts
Biodiversity and Nature HK,,KON,en,Hong,@biodiversityandnaturehk,not_sure,,Biodiversity and Nature HK,podcaster,Focuses on biodiversity conservation
Green Future Podcast,,KON,en,Hong,@greenfuturepodcast,not_sure,,Green Future Podcast,podcaster,Promotes green initiatives
Hong Kong Peace and Conflict,,KON,en,Hong,@hkpeaceandconflict,not_sure,,Hong Kong Peace and Conflict,podcaster,Discusses peace efforts
Geopolitical Insights HK,,KON,en,Hong,@geopoliticalinsightshk,not_sure,,Geopolitical Insights HK,podcaster,Analyzes geopolitical issues
Eco Warriors HK Podcast,,KON,en,Hong,@ecowarriorshkpodcast,not_sure,,Eco Warriors HK Podcast,podcaster,Promotes eco-friendly living
Hong Kong Nature and Biodiversity,,KON,en,Hong,@hknatureandbiodiversity,not_sure,,Hong Kong Nature and Biodiversity,podcaster,Covers nature conservation topics
Climate Voices Podcast,,KON,en,Hong,@climatevoicespodcast,not_sure,,Climate Voices Podcast,podcaster,Shares climate action stories
Peaceful Hong Kong,,KON,en,Hong,@peacefulhongkong,not_sure,,Peaceful Hong Kong,podcaster,Focuses on peace initiatives
Sustainable Living Podcast,,KON,en,Hong,@sustainablelivingpodcast,not_sure,,Sustainable Living Podcast,podcaster,Promotes sustainable practices
Hong Kong Geopolitical Conversations,,KON,en,Hong,@hkgeopoliticalconversations,not_sure,,Hong Kong Geopolitical Conversations,podcaster,Discusses geopolitical dynamics
Eco Hong Kong,,KON,en,Hong,@ecohongkong,not_sure,,Eco Hong Kong,podcaster,Focuses on environmental issues
Nature Talks Podcast,,KON,en,Hong,@naturetalkspodcast,not_sure,,Nature Talks Podcast,podcaster,Covers biodiversity topics
Climate Action HK Podcast,,KON,en,Hong,@climateactionhkpodcast,not_sure,,Climate Action HK Podcast,podcaster,Promotes climate action
Peace and Conflict Podcast,,KON,en,Hong,@peaceandconflictpodcast,not_sure,,Peace and Conflict Podcast,podcaster,Focuses on conflict resolution
Biodiversity Podcast,,KON,en,Hong,@biodiversitypodcast,not_sure,,Biodiversity Podcast,podcaster,Discusses biodiversity conservation
Green Voices HK,,KON,en,Hong,@greenvoiceshk,not_sure,,Green Voices HK,podcaster,Covers environmental advocacy
Geopolitics and Asia Podcast,,KON,en,Hong,@geopoliticsandasiapodcast,not_sure,,Geopolitics and Asia Podcast,podcaster,Analyzes regional geopolitical issues
Eco Chat HK Podcast,,KON,en,Hong,@ecochathkpodcast,not_sure,,Eco Chat HK Podcast,podcaster,Talks about eco-friendly practices
Hong Kong Peace and Harmony Podcast,,KON,en,Hong,@hkpeaceandharmonypodcast,not_sure,,Hong Kong Peace and Harmony Podcast,podcaster,Focuses on peacebuilding
Climate Change Podcast HK,,KON,en,Hong,@climatechangepodcasthk,not_sure,,Climate Change Podcast HK,podcaster,Discusses climate change impacts
Biodiversity and Nature Podcast,,KON,en,Hong,@biodiversityandnaturepodcast,not_sure,,Biodiversity and Nature Podcast,podcaster,Focuses on biodiversity conservation
Green Future HK Podcast,,KON,en,Hong,@greenfuturehkpodcast,not_sure,,Green Future HK Podcast,podcaster,Promotes green initiatives
Hong Kong Peace and Conflict Podcast,,KON,en,Hong,@hkpeaceandconflictpodcast,not_sure,,Hong Kong Peace and Conflict Podcast,podcaster,Discusses peace efforts
Geopolitical Insights Podcast,,KON,en,Hong,@geopoliticalinsightspodcast,not_sure,,Geopolitical Insights Podcast,podcaster,Analyzes geopolitical issues
Hong Kong Nature and Biodiversity Podcast,,KON,en,Hong,@hknatureandbiodiversitypodcast,not_sure,,Hong Kong Nature and Biodiversity Podcast,podcaster,Covers nature conservation topics
Climate Voices HK Podcast,,KON,en,Hong,@climatevoiceshkpodcast,not_sure,,Climate Voices HK Podcast,podcaster,Shares climate action stories
Sustainable Living HK Podcast,,KON,en,Hong,@sustainablelivinghkpodcast,not_sure,,Sustainable Living HK Podcast,podcaster,Promotes sustainable practices
Hong Kong Geopolitical Conversations Podcast,,KON,en,Hong,@hkgeopoliticalconversationspodcast,not_sure,,Hong Kong Geopolitical Conversations Podcast,podcaster,Discusses geopolitical dynamics
Nature Talks HK Podcast,,KON,en,Hong,@naturetalkshkpodcast,not_sure,,Nature Talks HK Podcast,podcaster,Covers biodiversity topics
Climate Action Podcast HK,,KON,en,Hong,@climateactionpodcasthk,not_sure,,Climate Action Podcast HK,podcaster,Promotes climate action
Peace and Conflict HK Podcast,,KON,en,Hong,@peaceandconflicthkpodcast,not_sure,,Peace and Conflict HK Podcast,podcaster,Focuses on conflict resolution
Green Voices HK Podcast,,KON,en,Hong,@greenvoiceshkpodcast,not_sure,,Green Voices HK Podcast,podcaster,Covers environmental advocacy
Geopolitics and Asia HK,,KON,en,Hong,@geopoliticsandasiakhk,not_sure,,Geopolitics and Asia HK,podcaster,Analyzes regional geopolitical issues
Eco Chat Podcast HK,,KON,en,Hong,@ecochatpodcasthk,not_sure,,Eco Chat Podcast HK,podcaster,Talks about eco-friendly practices
Hong Kong Peace and Harmony Podcast,,KON,en,Hong,@hkpeaceandharmonypodcasthk,not_sure,,Hong Kong Peace and Harmony Podcast,podcaster,Focuses on peacebuilding
Biodiversity and Nature Podcast HK,,KON,en,Hong,@biodiversityandnaturepodcasthk,not_sure,,Biodiversity and Nature Podcast HK,podcaster,Focuses on biodiversity conservation
Green Future HK Podcast,,KON,en,Hong,@greenfuturehkpodcasthk,not_sure,,Green Future HK Podcast,podcaster,Promotes green initiatives
Hong Kong Peace and Conflict Podcast,,KON,en,Hong,@hkpeaceandconflictpodcasthk,not_sure,,Hong Kong Peace and Conflict Podcast,podcaster,Discusses peace efforts
Geopolitical Insights Podcast HK,,KON,en,Hong,@geopoliticalinsightspodcasthk,not_sure,,Geopolitical Insights Podcast HK,podcaster,Analyzes geopolitical issues
Eco Warriors HK Podcast,,KON,en,Hong,@ecowarriorshkpodcasthk,not_found,,Eco Warriors HK Podcast,podcaster,Promotes eco-friendly living
Hong Kong Nature and Biodiversity Podcast,,KON,en,Hong,@hknatureandbiodiversitypodcasthk,not_found,,Hong Kong Nature and Biodiversity Podcast,podcaster,Covers nature conservation topics
Climate Voices HK Podcast,,KON,en,Hong,@climatevoiceshkpodcasthk,not_found,,Climate Voices HK Podcast,podcaster,Shares climate action stories
Peaceful Hong Kong Podcast,,KON,en,Hong,@peacefulhkpodcasthk,not_found,,Peaceful Hong Kong Podcast,podcaster,Focuses on peace initiatives
Sustainable Living HK Podcast,,KON,en,Hong,@sustainablelivinghkpodcasthk,not_found,,Sustainable Living HK Podcast,podcaster,Promotes sustainable practices
Hong Kong Geopolitical Conversations Podcast,,KON,en,Hong,@hkgeopoliticalconversationspodcasthk,not_found,,Hong Kong Geopolitical Conversations Podcast,podcaster,Discusses geopolitical dynamics
Eco Hong Kong Podcast,,KON,en,Hong,@ecohongkongpodcasthk,not_found,,Eco Hong Kong Podcast,podcaster,Focuses on environmental issues
Nature Talks HK Podcast,,KON,en,Hong,@naturetalkshkpodcasthk,not_found,,Nature Talks HK Podcast,podcaster,Covers biodiversity topics
Peace and Conflict HK Podcast,,KON,en,Hong,@peaceandconflicthkpodcasthk,not_found,,Peace and Conflict HK Podcast,podcaster,Focuses on conflict resolution
Green Voices HK Podcast,,KON,en,Hong,@greenvoiceshkpodcasthk,not_found,,Green Voices HK Podcast,podcaster,Covers environmental advocacy
Angie Lau,,KON,en,Hong,@angie_lau,not_sure,,Forkast.News,podcaster,Hosts geopolitics and tech podcast
Jason Y. Ng,,KON,en,Hong,@jasonyng,not_sure,,Hong Kong Free Press,podcaster,Covers Hong Kong politics and society
Vivienne Chow,,KON,en,Hong,@viviennechow,not_sure,,Cultural journalist and podcaster,podcaster,Focuses on cultural geopolitics
Karin Malmstrom,,KON,en,Hong,@karinmalmstrom,not_sure,,Woolmark Company,podcaster,Discusses sustainable fashion
Stephen Davies,,KON,en,Hong,@stephendavies,not_sure,,Marine historian and podcaster,podcaster,Covers maritime history and conservation
Rachel Cartland,,KON,en,Hong,@rachelcartland,not_sure,,Author and commentator,podcaster,Discusses Hong Kong governance
Nury Vittachi,,KON,en,Hong,@nuryvittachi,not_sure,,Author and humorist,podcaster,Covers Asian geopolitics with humor
Chloe Lai,,KON,en,Hong,@chloelai,not_sure,,Urbanist and environmentalist,podcaster,Focuses on urban sustainability
Tom Grundy,,KON,en,Hong,@tomgrundy,not_sure,,Hong Kong Free Press,podcaster,Covers Hong Kong news and politics
Kylie Knott,,KON,en,Hong,@kylieknott,not_sure,,Lifestyle editor and podcaster,podcaster,Discusses sustainable living
Andrew Work,,KON,en,Hong,@andrewwork,not_sure,,Harbour Times,podcaster,Covers Hong Kong business and politics
