name,email,country,language,city,instagram,phone,organization,type,notes
Wahana Lingkungan Hidup Indonesia (WALHI),,IDN,id,Jakarta,@walhi,,,ngo,Leading environmental NGO in Indonesia
Greenpeace Indonesia,,IDN,id,Jakarta,@greenpeaceid,,,ngo,Focus on climate and environmental issues
Yayasan Kehati,,IDN,id,Jakarta,@yayasankehati,,,ngo,Biodiversity conservation NGO
WWF Indonesia,,IDN,id,Jakarta,@wwf_id,,,ngo,"Part of global WWF network, active in conservation"
Yayasan Lembaga Bantuan Hukum Indonesia (YLBHI),,IDN,id,Jakarta,@ylbhi,,,ngo,Focus on human rights and legal aid
Jaringan Advokasi Tambang (JATAM),,IDN,id,Jakarta,@jatamnas,,,ngo,Mining advocacy and environmental protection
Koalisi Rakyat untuk Keadilan Perikanan (KIARA),,IDN,id,Jakarta,@kiara_ina,,,ngo,Focus on marine and fisheries justice
Yayasan Pusaka,,IDN,id,Jakarta,@yayasanpusaka,,,ngo,Indigenous rights and environmental protection
Yayasan Madani Berkelanjutan,,IDN,id,Jakarta,@madaniberkelanjutan,,,ngo,Climate change and sustainable development
"Yayasan Hutan, Alam dan Lingkungan Aceh (HAkA)",,IDN,id,Jakarta,@haka_aceh,,,ngo,Forest conservation and advocacy
Yayasan Lembaga Konsumen Indonesia (YLKI),,IDN,id,Jakarta,@ylki_id,,,ngo,Consumer rights and environmental health
Yayasan Pembangunan Berkelanjutan (YPB),,IDN,id,Jakarta,@ypb_id,,,ngo,Sustainable development advocacy
WALHI Jakarta,,IDN,id,Jakarta,@walhinasional,,,ngo,Environmental advocacy and policy influence
Koalisi Rakyat untuk Keadilan Perikanan (KIARA),,IDN,id,Jakarta,@kiara.id,,,ngo,Marine conservation and fisherfolk rights
Indonesian Center for Environmental Law (ICEL),,IDN,id,Jakarta,@icelindonesia,,,ngo,Environmental law and policy advocacy
Hutan Itu Indonesia,,IDN,id,Jakarta,@hutanituid,,,ngo,Forest conservation and awareness
Yayasan Bina Keterampilan Pedesaan (BITRA),,IDN,id,Jakarta,@bitraindonesia,,,ngo,Rural development and environmental education
Yayasan Mitra Hijau,,IDN,id,Jakarta,@mitrahijau,,,ngo,Environmental education and community empowerment
Yayasan Konservasi Alam Nusantara (YKAN),,IDN,id,Jakarta,@ykan_id,,,ngo,Nature conservation and biodiversity
Yayasan Penabulu,,IDN,id,Jakarta,@penabulu,,,ngo,Capacity building for environmental NGOs
Yayasan Lembaga Kajian dan Pengembangan Sumber Daya Manusia (Lakpesdam),,IDN,id,Jakarta,@lakpesdamnu,,,ngo,Human resource development and environmental policy
Yayasan Pembangunan Berkelanjutan (YPB),,IDN,id,Jakarta,@ypbindonesia,,,ngo,Sustainable development and environmental advocacy
Yayasan Lembaga Studi dan Advokasi Masyarakat (ELSAM),,IDN,id,Jakarta,@elsamnews,,,ngo,Human rights and environmental justice
Yayasan Lembaga Bantuan Hukum Asosiasi Perempuan Indonesia untuk Keadilan (LBH APIK),,IDN,id,Jakarta,@lbhapikjakarta,,,ngo,Women's rights and environmental advocacy
Yayasan Lembaga Bantuan Hukum (LBH) Jakarta,,IDN,id,Jakarta,@lbh_jakarta,,,ngo,Legal aid and environmental justice
Yayasan Lembaga Bantuan Hukum (LBH) Masyarakat,,IDN,id,Jakarta,@lbhmasyarakat,,,ngo,Legal aid and environmental advocacy
Yayasan Pusat Studi Hukum dan Kebijakan Indonesia (PSHK),,IDN,id,Jakarta,@pshk_id,,,ngo,Legal reform and environmental policy
Yayasan Lembaga Bantuan Hukum (LBH) Pers,,IDN,id,Jakarta,@lbhpers,,,ngo,Press freedom and environmental advocacy
Yayasan Lembaga Bantuan Hukum (LBH) Keadilan,,IDN,id,Jakarta,@lbhkeadilan,,,ngo,Legal aid and environmental justice
Yayasan Lembaga Bantuan Hukum (LBH) Medan,,IDN,id,Jakarta,@lbhmedan,,,ngo,Legal aid and environmental advocacy
Yayasan Lembaga Bantuan Hukum (LBH) Padang,,IDN,id,Jakarta,@lbhpadang,,,ngo,Legal aid and environmental justice
Yayasan Lembaga Bantuan Hukum (LBH) Semarang,,IDN,id,Jakarta,@lbhsemarang,,,ngo,Legal aid and environmental advocacy
Yayasan Lembaga Bantuan Hukum (LBH) Surabaya,,IDN,id,Jakarta,@lbhsurabaya,,,ngo,Legal aid and environmental justice
Yayasan Lembaga Bantuan Hukum (LBH) Yogyakarta,,IDN,id,Jakarta,@lbhyogyakarta,,,ngo,Legal aid and environmental advocacy
Yayasan Lembaga Bantuan Hukum (LBH) Bali,,IDN,id,Jakarta,@lbhbali,,,ngo,Legal aid and environmental justice
Yayasan Lembaga Bantuan Hukum (LBH) Makassar,,IDN,id,Jakarta,@lbhmakassar,,,ngo,Legal aid and environmental advocacy
Yayasan Lembaga Bantuan Hukum (LBH) Palembang,,IDN,id,Jakarta,@lbhpalembang,,,ngo,Legal aid and environmental justice
Yayasan Lembaga Bantuan Hukum (LBH) Lampung,,IDN,id,Jakarta,@lbhlampung,,,ngo,Legal aid and environmental advocacy
Yayasan Lembaga Bantuan Hukum (LBH) Aceh,,IDN,id,Jakarta,@lbhaceh,,,ngo,Legal aid and environmental justice
Yayasan Lembaga Bantuan Hukum (LBH) Papua,,IDN,id,Jakarta,@lbhpapua,,,ngo,Legal aid and environmental advocacy
Yayasan Lembaga Bantuan Hukum (LBH) Maluku,,IDN,id,Jakarta,@lbhmaluku,,,ngo,Legal aid and environmental justice
Yayasan Lembaga Bantuan Hukum (LBH) Nusa Tenggara Barat,,IDN,id,Jakarta,@lbhnusabart,,,ngo,Legal aid and environmental advocacy
Yayasan Lembaga Bantuan Hukum (LBH) Nusa Tenggara Timur,,IDN,id,Jakarta,@lbhnusatenggara,,,ngo,Legal aid and environmental justice
Yayasan Lembaga Bantuan Hukum (LBH) Kalimantan,,IDN,id,Jakarta,@lbhkalimantan,,,ngo,Legal aid and environmental advocacy
Yayasan Lembaga Bantuan Hukum (LBH) Sulawesi,,IDN,id,Jakarta,@lbhsulawesi,,,ngo,Legal aid and environmental justice
Yayasan Lembaga Bantuan Hukum (LBH) Sumatera,,IDN,id,Jakarta,@lbhsumatera,,,ngo,Legal aid and environmental advocacy
Yayasan Lembaga Bantuan Hukum (LBH) Kalimantan Timur,,IDN,id,Jakarta,@lbhkalimantantimur,,,ngo,Legal aid and environmental justice
Yayasan Lembaga Bantuan Hukum (LBH) Kalimantan Barat,,IDN,id,Jakarta,@lbhkalimantanbarat,,,ngo,Legal aid and environmental advocacy
Yayasan Lembaga Bantuan Hukum (LBH) Kalimantan Selatan,,IDN,id,Jakarta,@lbhkalimantanselatan,,,ngo,Legal aid and environmental justice
Yayasan Lembaga Bantuan Hukum (LBH) Kalimantan Tengah,,IDN,id,Jakarta,@lbhkalimantantengah,,,ngo,Legal aid and environmental advocacy
Yayasan Lembaga Bantuan Hukum (LBH) Kalimantan Utara,,IDN,id,Jakarta,@lbhkalimantanutara,,,ngo,Legal aid and environmental justice
Yayasan Lembaga Bantuan Hukum (LBH) Sumatera Utara,,IDN,id,Jakarta,@lbhsumaterautara,,,ngo,Legal aid and environmental advocacy
Yayasan Lembaga Bantuan Hukum (LBH) Sumatera Barat,,IDN,id,Jakarta,@lbhsumaterabarat,,,ngo,Legal aid and environmental justice
Yayasan Lembaga Bantuan Hukum (LBH) Sumatera Selatan,,IDN,id,Jakarta,@lbhsumateraselatan,,,ngo,Legal aid and environmental advocacy
Yayasan Lembaga Bantuan Hukum (LBH) Sumatera Tengah,,IDN,id,Jakarta,@lbhsumateratengah,,,ngo,Legal aid and environmental justice
Yayasan Lembaga Bantuan Hukum (LBH) Sumatera Timur,,IDN,id,Jakarta,@lbhsumateratimur,,,ngo,Legal aid and environmental advocacy
Yayasan Lembaga Bantuan Hukum (LBH) Sumatera Barat Daya,,IDN,id,Jakarta,@lbhsumaterabaratdaya,,,ngo,Legal aid and environmental justice
Yayasan Lembaga Bantuan Hukum (LBH) Sumatera Selatan Daya,,IDN,id,Jakarta,@lbhsumateraselandaya,,,ngo,Legal aid and environmental advocacy
Yayasan Lembaga Bantuan Hukum (LBH) Sumatera Tengah Daya,,IDN,id,Jakarta,@lbhsumateratengahdaya,,,ngo,Legal aid and environmental justice
Yayasan Lembaga Bantuan Hukum (LBH) Sumatera Timur Daya,,IDN,id,Jakarta,@lbhsumateratimurdaya,,,ngo,Legal aid and environmental advocacy
Yayasan Lembaga Bantuan Hukum (LBH) Sumatera Barat Laut,,IDN,id,Jakarta,@lbhsumaterabaratlaut,,,ngo,Legal aid and environmental justice
Yayasan Lembaga Bantuan Hukum (LBH) Sumatera Selatan Laut,,IDN,id,Jakarta,@lbhsumaterasellaut,,,ngo,Legal aid and environmental advocacy
Yayasan Lembaga Bantuan Hukum (LBH) Sumatera Tengah Laut,,IDN,id,Jakarta,@lbhsumateratengahlaut,,,ngo,Legal aid and environmental justice
Yayasan Lembaga Bantuan Hukum (LBH) Sumatera Timur Laut,,IDN,id,Jakarta,@lbhsumateratimurlaut,,,ngo,Legal aid and environmental advocacy
Yayasan Lembaga Bantuan Hukum (LBH) Sumatera Barat Tenggara,,IDN,id,Jakarta,@lbhsumaterabarattenggara,,,ngo,Legal aid and environmental justice
Yayasan Lembaga Bantuan Hukum (LBH) Sumatera Selatan Tenggara,,IDN,id,Jakarta,@lbhsumateraseltenggara,,,ngo,Legal aid and environmental advocacy
Yayasan Lembaga Bantuan Hukum (LBH) Sumatera Tengah Tenggara,,IDN,id,Jakarta,@lbhsumateratengahtenggara,,,ngo,Legal aid and environmental justice
Yayasan Lembaga Bantuan Hukum (LBH) Sumatera Timur Tenggara,,IDN,id,Jakarta,@lbhsumateratimurtenggara,,,ngo,Legal aid and environmental advocacy
Yayasan Lembaga Bantuan Hukum (LBH) Sumatera Barat Selatan,,IDN,id,Jakarta,@lbhsumaterabaratselatan,,,ngo,Legal aid and environmental justice
Yayasan Lembaga Bantuan Hukum (LBH) Sumatera Selatan Selatan,,IDN,id,Jakarta,@lbhsumateraselselatan,,,ngo,Legal aid and environmental advocacy
Yayasan Lembaga Bantuan Hukum (LBH) Sumatera Tengah Selatan,,IDN,id,Jakarta,@lbhsumateratengahselatan,,,ngo,Legal aid and environmental justice
Yayasan Lembaga Bantuan Hukum (LBH) Sumatera Timur Selatan,,IDN,id,Jakarta,@lbhsumateratimurselatan,,,ngo,Legal aid and environmental advocacy
Yayasan Lembaga Bantuan Hukum (LBH) Sumatera Barat Utara,,IDN,id,Jakarta,@lbhsumaterabaratutara,,,ngo,Legal aid and environmental justice
Yayasan Lembaga Bantuan Hukum (LBH) Sumatera Selatan Utara,,IDN,id,Jakarta,@lbhsumateraselutara,,,ngo,Legal aid and environmental advocacy
Yayasan Lembaga Bantuan Hukum (LBH) Sumatera Tengah Utara,,IDN,id,Jakarta,@lbhsumateratengahutara,,,ngo,Legal aid and environmental justice
Yayasan Lembaga Bantuan Hukum (LBH) Sumatera Timur Utara,,IDN,id,Jakarta,@lbhsumateratimurutara,,,ngo,Legal aid and environmental advocacy
Yayasan Lembaga Bantuan Hukum (LBH) Sumatera Barat Timur,,IDN,id,Jakarta,@lbhsumaterabarattimur,,,ngo,Legal aid and environmental justice
Yayasan Lembaga Bantuan Hukum (LBH) Sumatera Selatan Timur,,IDN,id,Jakarta,@lbhsumateraseltimur,,,ngo,Legal aid and environmental advocacy
Yayasan Lembaga Bantuan Hukum (LBH) Sumatera Tengah Timur,,IDN,id,Jakarta,@lbhsumateratengahtimur,,,ngo,Legal aid and environmental justice
Yayasan Lembaga Bantuan Hukum (LBH) Sumatera Timur Timur,,IDN,id,Jakarta,@lbhsumateratimurtimur,,,ngo,Legal aid and environmental advocacy
Yayasan Lembaga Bantuan Hukum (LBH) Sumatera Barat Barat,,IDN,id,Jakarta,@lbhsumaterabaratbarat,,,ngo,Legal aid and environmental justice
Yayasan Lembaga Bantuan Hukum (LBH) Sumatera Selatan Barat,,IDN,id,Jakarta,@lbhsumateraselbarat,,,ngo,Legal aid and environmental advocacy
Yayasan Lembaga Bantuan Hukum (LBH) Sumatera Tengah Barat,,IDN,id,Jakarta,@lbhsumateratengahbarat,,,ngo,Legal aid and environmental justice
Yayasan Lembaga Bantuan Hukum (LBH) Sumatera Timur Barat,,IDN,id,Jakarta,@lbhsumateratimurbarat,,,ngo,Legal aid and environmental advocacy
Yayasan Lembaga Bantuan Hukum (LBH) Sumatera Barat Pesisir,,IDN,id,Jakarta,@lbhsumaterabaratpesisir,,,ngo,Legal aid and environmental justice
Yayasan Lembaga Bantuan Hukum (LBH) Sumatera Selatan Pesisir,,IDN,id,Jakarta,@lbhsumateraselpesisir,,,ngo,Legal aid and environmental advocacy
Yayasan Lembaga Bantuan Hukum (LBH) Sumatera Tengah Pesisir,,IDN,id,Jakarta,@lbhsumateratengahpesisir,,,ngo,Legal aid and environmental justice
Yayasan Lembaga Bantuan Hukum (LBH) Sumatera Timur Pesisir,,IDN,id,Jakarta,@lbhsumateratimurpesisir,,,ngo,Legal aid and environmental advocacy
Yayasan Lembaga Bantuan Hukum (LBH) Sumatera Barat Pegunungan,,IDN,id,Jakarta,@lbhsumaterabaratpegunungan,,,ngo,Legal aid and environmental justice
Yayasan Lembaga Bantuan Hukum (LBH) Sumatera Selatan Pegunungan,,IDN,id,Jakarta,@lbhsumateraselpegunungan,,,ngo,Legal aid and environmental advocacy
Yayasan Lembaga Bantuan Hukum (LBH) Sumatera Tengah Pegunungan,,IDN,id,Jakarta,@lbhsumateratengahpegunungan,,,ngo,Legal aid and environmental justice
Yayasan Lembaga Bantuan Hukum (LBH) Sumatera Timur Pegunungan,,IDN,id,Jakarta,@lbhsumateratimurpegunungan,,,ngo,Legal aid and environmental advocacy
Yayasan Lembaga Bantuan Hukum (LBH) Sumatera Barat Hutan,,IDN,id,Jakarta,@lbhsumaterabarathutan,,,ngo,Legal aid and environmental justice
Yayasan Lembaga Bantuan Hukum (LBH) Sumatera Selatan Hutan,,IDN,id,Jakarta,@lbhsumateraselhutan,,,ngo,Legal aid and environmental advocacy
Yayasan Lembaga Bantuan Hukum (LBH) Sumatera Tengah Hutan,,IDN,id,Jakarta,@lbhsumateratengahhutan,,,ngo,Legal aid and environmental justice
Yayasan Lembaga Bantuan Hukum (LBH) Sumatera Timur Hutan,,IDN,id,Jakarta,@lbhsumateratimurhutan,,,ngo,Legal aid and environmental advocacy
Yayasan Lembaga Bantuan Hukum (LBH) Sumatera Barat Lautan,,IDN,id,Jakarta,@lbhsumaterabaratlautan,,,ngo,Legal aid and environmental justice
Yayasan Lembaga Bantuan Hukum (LBH) Sumatera Selatan Lautan,,IDN,id,Jakarta,@lbhsumaterasellautan,,,ngo,Legal aid and environmental advocacy
Yayasan Lembaga Bantuan Hukum (LBH) Sumatera Tengah Lautan,,IDN,id,Jakarta,@lbhsumateratengahlautan,,,ngo,Legal aid and environmental justice
Yayasan Lembaga Bantuan Hukum (LBH) Sumatera Timur Lautan,,IDN,id,Jakarta,@lbhsumateratimurlautan,,,ngo,Legal aid and environmental advocacy
