name,email,country,language,city,instagram,twitter,phone,organization,type,notes
Haribon Foundation,,PHL,tl,Manila,@haribonfoundation,not_sure,,,ngo,Focuses on biodiversity conservation in the Philippines.
Greenpeace Philippines,,PHL,tl,Manila,@greenpeaceph,@gpph,,,ngo,Active in climate and environmental advocacy.
WWF Philippines,,PHL,tl,Manila,@wwfphl,@WWF_Philippines,,,ngo,Works on wildlife conservation and climate change.
Philippine Center for Environmental Protection and Sustainable Development,,PHL,tl,Manila,@pcepsdi,not_sure,,,ngo,Promotes sustainable development practices.
Philippine Misereor Partnership Inc.,,PHL,tl,Manila,@pmpiphilippines,not_sure,,,ngo,Focuses on peace and environmental justice.
The Climate Reality Project Philippines,,PHL,tl,Manila,@climaterealityph,@ClimateRealPH,,,ngo,Advocates for climate change awareness.
Save Philippine Seas,,PHL,tl,Manila,@savephseas,@savephseas,,,ngo,Works on marine conservation and protection.
EcoWaste Coalition,,PHL,tl,Manila,@ecowastecoalition,@ecowaste,,,ngo,Advocates for waste reduction and management.
Mother Earth Foundation,,PHL,tl,Manila,@motherearthph,not_sure,,,ngo,Promotes zero waste and environmental education.
Foundation for the Philippine Environment,,PHL,tl,Manila,@fpe.ph,not_sure,,,ngo,Supports biodiversity conservation projects.
Philippine Eagle Foundation,,PHL,tl,Manila,@phileaglefdn,@PhEagleFdn,,,ngo,Dedicated to conserving the Philippine Eagle.
Tanggol Kalikasan,,PHL,tl,Manila,@tanggolkalikasan,not_found,,,ngo,Provides legal assistance for environmental protection.
Bantay Kalikasan,,PHL,tl,Manila,@bantaykalikasan,not_found,,,ngo,Focuses on environmental conservation and awareness.
Philippine Movement for Climate Justice,,PHL,tl,Manila,@pmcj2012,not_found,,,ngo,Advocates for climate justice and policy change.
Youth Strike 4 Climate Philippines,,PHL,tl,Manila,@youthstrike4climateph,not_found,,,ngo,Youth-led climate action group.
Aksyon Klima Pilipinas,,PHL,tl,Manila,@aksyonklima,not_found,,,ngo,Network advocating for climate policy reforms.
Philippine Network of Environmental Journalists,,PHL,tl,Manila,@pnejournalists,not_found,,,ngo,Supports environmental journalism and reporting.
Clean Air Asia,,PHL,tl,Manila,@cleanairasia,@CleanAirAsia,,,ngo,Works on air quality management and policies.
Philippine Biodiversity Conservation Foundation,,PHL,tl,Manila,@pbcfi,not_found,,,ngo,Focuses on biodiversity conservation efforts.
Sibol ng Agham at Teknolohiya,,PHL,tl,Manila,@sibolngagham,not_found,,,ngo,Promotes sustainable technology and innovation.
Philippine Earth Justice Center,,PHL,tl,Manila,@pejcenter,not_found,,,ngo,Provides legal support for environmental cases.
Philippine Partnership for the Development of Human Resources in Rural Areas,,PHL,tl,Manila,@philhrra,not_found,,,ngo,Focuses on rural development and sustainability.
Philippine Rural Reconstruction Movement,,PHL,tl,Manila,@prrmofficial,not_found,,,ngo,Works on rural development and environmental protection.
Lingkod Tao Kalikasan,,PHL,tl,Manila,@lingkodtaokalikasan,not_found,,,ngo,Focuses on community-based environmental initiatives.
Kalikasan People's Network for the Environment,,PHL,tl,Manila,@kalikasan_pne,@Kalikasan101,,,ngo,Advocates for environmental rights and justice.
Philippine Federation for Environmental Concern,,PHL,tl,Manila,@pfecph,not_found,,,ngo,Focuses on environmental advocacy and education.
Philippine Sustainable Development Network,,PHL,tl,Manila,@psdnetwork,not_found,,,ngo,Promotes sustainable development practices.
Philippine Alliance of Human Rights Advocates,,PHL,tl,Manila,@pahrainc,not_found,,,ngo,Focuses on human rights and environmental justice.
Philippine Network for Environmental Concerns,,PHL,tl,Manila,@pnecph,not_found,,,ngo,Advocates for environmental protection and policy change.
Philippine Society for the Study of Nature,,PHL,tl,Manila,@pssnph,not_found,,,ngo,Promotes research and education on natural sciences.
Philippine Society for the Conservation of Nature,,PHL,tl,Manila,@pscnph,not_found,,,ngo,Focuses on nature conservation and biodiversity.
Philippine Society of Youth Science Clubs,,PHL,tl,Manila,@psyscph,not_found,,,ngo,Engages youth in science and environmental activities.
Philippine Society of Environmental Planners,,PHL,tl,Manila,@pseph,not_found,,,ngo,Focuses on sustainable urban and regional planning.
Philippine Society of Environmental Engineers,,PHL,tl,Manila,@pseeph,not_found,,,ngo,Promotes environmental engineering and sustainability.
Philippine Society of Environmental Scientists,,PHL,tl,Manila,@psesph,not_found,,,ngo,Focuses on environmental science research and education.
Philippine Society of Environmental Health,,PHL,tl,Manila,@psehph,not_found,,,ngo,Promotes environmental health and safety.
Philippine Society of Environmental Medicine,,PHL,tl,Manila,@psemp,not_found,,,ngo,Focuses on environmental medicine and public health.
Philippine Society of Environmental Toxicology,,PHL,tl,Manila,@psetph,not_found,,,ngo,Promotes research on environmental toxicology.
Philippine Society of Environmental Chemistry,,PHL,tl,Manila,@psechph,not_found,,,ngo,Focuses on environmental chemistry and pollution control.
Philippine Society of Environmental Biology,,PHL,tl,Manila,@psebph,not_found,,,ngo,Promotes research in environmental biology.
Philippine Society of Environmental Geology,,PHL,tl,Manila,@psegph,not_found,,,ngo,Promotes research in environmental geology.
Philippine Society of Environmental Mathematics,,PHL,tl,Manila,@psemph,not_found,,,ngo,Promotes research in environmental mathematics.
Philippine Society of Environmental Anthropology,,PHL,tl,Manila,@pseaph,not_found,,,ngo,Promotes research in environmental anthropology.
Philippine Society of Environmental Law,,PHL,tl,Manila,@pselph,not_found,,,ngo,Promotes research in environmental law.
Philippine Society of Environmental Policy,,PHL,tl,Manila,@psepph,not_found,,,ngo,Focuses on environmental policy research.
Philippine Society of Environmental Communication,,PHL,tl,Manila,@psecph,not_found,,,ngo,Focuses on environmental communication research.
Philippine Society of Environmental Design,,PHL,tl,Manila,@psedph,not_found,,,ngo,Promotes research in environmental design.
Philippine Misereor Partnership Inc.,,PHL,tl,Manila,@philmisereor,not_sure,,,ngo,Focus on peace and environmental justice
Philippine Movement for Climate Justice,,PHL,tl,Manila,@pmcj2010,not_sure,,,ngo,Advocates for climate justice and policy change
Forest Foundation Philippines,,PHL,tl,Manila,@forestfoundationph,not_sure,,,ngo,Supports reforestation and forest conservation
BirdLife International Philippines,,PHL,tl,Manila,@birdlife_international_ph,not_sure,,,ngo,Focus on bird conservation and habitat protection
Marine Wildlife Watch of the Philippines,,PHL,tl,Manila,@mwwphilippines,not_sure,,,ngo,Advocates for marine wildlife protection
Environmental Legal Assistance Center,,PHL,tl,Manila,@elac_ph,not_sure,,,ngo,Provides legal aid for environmental cases
Center for Environmental Concerns Philippines,,PHL,tl,Manila,@cecphils,not_sure,,,ngo,Focus on environmental education and advocacy
Philippine Network of Environmental Journalists,,PHL,tl,Manila,@pnej.ph,not_sure,,,ngo,Supports environmental journalism and reporting
Earth Island Institute Philippines,,PHL,tl,Manila,@earthislandph,not_sure,,,ngo,Focus on marine and wildlife conservation
Philippine Rural Reconstruction Movement,,PHL,tl,Manila,@prrm.ph,not_sure,,,ngo,Promotes sustainable rural development
Sibol ng Agham at Teknolohiya,,PHL,tl,Manila,@sibatph,not_sure,,,ngo,Promotes sustainable technology and development
Partnerships in Environmental Management for the Seas of East Asia,,PHL,tl,Manila,@pemsea,not_sure,,,ngo,Focus on sustainable coastal and marine management
Philippine Earth Justice Center,,PHL,tl,Manila,@pejc.ph,not_sure,,,ngo,Legal advocacy for environmental protection
Philippine Partnership for the Development of Human Resources in Rural Areas,,PHL,tl,Manila,@phil_dhrra,not_sure,,,ngo,Focus on rural development and sustainability
Philippine Business for Social Progress,,PHL,tl,Manila,@pbsporg,not_sure,,,ngo,Corporate-led social development initiatives
Philippine Red Cross,,PHL,tl,Manila,@philredcross,@philredcross,,,ngo,Disaster response and humanitarian aid
Philippine Disaster Resilience Foundation,,PHL,tl,Manila,@pdrfph,@pdrfupdates,,,ngo,Focus on disaster resilience and recovery
Philippine Relief and Development Services,,PHL,tl,Manila,@philrdservices,not_sure,,,ngo,Provides humanitarian aid and development support
Philippine Alliance of Human Rights Advocates,,PHL,tl,Manila,@pahra.ph,not_sure,,,ngo,Advocates for human rights and social justice
Philippine Human Rights Information Center,,PHL,tl,Manila,@philrights,not_sure,,,ngo,Focus on human rights education and advocacy
Philippine Coalition for the International Criminal Court,,PHL,tl,Manila,@pcicc.ph,not_sure,,,ngo,Advocates for international justice and accountability
Philippine Alliance of NGOs for Development,,PHL,tl,Manila,@pangodev,not_sure,,,ngo,Network of development NGOs in the Philippines
"Philippine NGO Council on Population, Health and Welfare",,PHL,tl,Manila,@pngoc.ph,not_sure,,,ngo,Focus on health and population development
Philippine Federation for Environmental Concern,,PHL,tl,Manila,@pfec.ph,not_sure,,,ngo,Advocates for environmental protection and policy change
Philippine Network of Food Security Programs,,PHL,tl,Manila,@pnfsp.ph,not_found,,,ngo,Focus on food security and sustainable agriculture
Philippine Network of Rural Development Institutes,,PHL,tl,Manila,@pnrdi.ph,not_found,,,ngo,Promotes rural development and capacity building
Philippine Network of Small Farmers Organizations,,PHL,tl,Manila,@pnsfo.ph,not_found,,,ngo,Supports small farmers and sustainable agriculture
Philippine Network of Women in Nation Building,,PHL,tl,Manila,@pnwnb.ph,not_found,,,ngo,Focus on women's empowerment and development
Philippine Partnership for the Development of Human Resources in Rural Areas,,PHL,tl,Manila,@ppdhrra.ph,not_found,,,ngo,Focus on rural development and sustainability
Philippine Eagle Foundation,,PHL,tl,Manila,@philippineeaglefoundation,@PhEagleFDN,,,ngo,Conservation of the Philippine Eagle
Philippine Misereor Partnership Inc.,,PHL,tl,Manila,@pmphinc,not_found,,,ngo,Social justice and environmental advocacy
Environmental Legal Assistance Center,,PHL,tl,Manila,@elacph,not_found,,,ngo,Environmental law and legal assistance
Philippine Reef and Rainforest Conservation Foundation,,PHL,tl,Manila,@prrcfi,not_found,,,ngo,Reef and rainforest conservation
Philippine Alliance of Human Rights Advocates,,PHL,tl,Manila,@pahra_philippines,@PAHRA_PH,,,ngo,Human rights and environmental advocacy
Philippine Green Building Council,,PHL,tl,Manila,@philgbc,@PHILGBC,,,ngo,Sustainable building and urban development
Philippine Society for the Study of Nature,,PHL,tl,Manila,@pssn.ph,not_found,,,ngo,Nature study and environmental education
Philippine Network of Food Security Programs,,PHL,tl,Manila,@pnfsp,not_found,,,ngo,Food security and environmental sustainability
Philippine Institute for Environmental Planners,,PHL,tl,Manila,@piep_ph,not_found,,,ngo,Environmental planning and policy
Philippine Society of Youth Science Clubs,,PHL,tl,Manila,@psysc_official,not_found,,,ngo,Youth engagement in science and environment
Philippine Society of Environmental Engineers,,PHL,tl,Manila,@psee_ph,not_found,,,ngo,Environmental engineering and sustainability
Philippine Society of Environmental Science,,PHL,tl,Manila,@pses.ph,not_found,,,ngo,Environmental science and research
Philippine Society of Environmental Health,,PHL,tl,Manila,@pseh.ph,not_found,,,ngo,Environmental health and safety
Philippine Society of Environmental Management,,PHL,tl,Manila,@psem.ph,not_found,,,ngo,Environmental management and policy
Philippine Society of Environmental Toxicology,,PHL,tl,Manila,@pset.ph,not_found,,,ngo,Environmental toxicology and research
Philippine Society of Environmental Chemistry,,PHL,tl,Manila,@psec.ph,not_found,,,ngo,Environmental chemistry and research
Philippine Society of Environmental Biology,,PHL,tl,Manila,@pseb.ph,not_found,,,ngo,Environmental biology and conservation
Philippine Society of Environmental Microbiology,,PHL,tl,Manila,@psemicro.ph,not_found,,,ngo,Environmental microbiology and research
Philippine Society of Environmental Physics,,PHL,tl,Manila,@psep.ph,not_found,,,ngo,Environmental physics and research
Philippine Society of Environmental Geology,,PHL,tl,Manila,@pseg.ph,not_found,,,ngo,Environmental geology and research
Philippine Society of Environmental Oceanography,,PHL,tl,Manila,@pseo.ph,not_found,,,ngo,Environmental oceanography and research
Philippine Society of Environmental Paleontology,,PHL,tl,Manila,@psepaleo.ph,not_found,,,ngo,Environmental paleontology and research
Philippine Society of Environmental Volcanology,,PHL,tl,Manila,@psev.ph,not_found,,,ngo,Environmental volcanology and research
Philippine Society of Environmental Astronomy,,PHL,tl,Manila,@psea.ph,not_found,,,ngo,Environmental astronomy and research
