name,email,country,language,city,instagram,phone,organization,type,notes
The Kenyan Climate Podcast,,KEN,en,Nairobi,@kenyanclimatepodcast,,The Kenyan Climate Podcast,podcaster,Focuses on climate issues in Kenya
Africa Uncensored,,KEN,en,Nairobi,@africauncensored,,Africa Uncensored,podcaster,Covers geopolitics and environmental issues
The Elephant,,KEN,en,Nairobi,@theelephantinfo,,The Elephant,podcaster,Discusses political and environmental topics
The Spread Podcast,,KEN,en,Nairobi,@thespreadpod,,The Spread Podcast,podcaster,Covers social issues including climate
The Mothership,,KEN,en,Nairobi,@themothershippodcast,,The Mothership,podcaster,Focuses on African geopolitics
Kenya Conversations,,KEN,en,Nairobi,@kenyaconversations,,Kenya Conversations,podcaster,Discusses local environmental issues
The Kenyanist,,KEN,en,Nairobi,@thekenyanist,,The Kenyanist,podcaster,Covers Kenyan politics and environment
The African Exponent,,KEN,en,Nairobi,@africanexponent,,The African Exponent,podcaster,Focuses on African geopolitics
The Kenyan Experience,,KEN,en,Nairobi,@thekenyanexperience,,The Kenyan Experience,podcaster,Discusses Kenyan culture and environment
The Climate Diaries,,KEN,en,Nairobi,@theclimatediaries,,The Climate Diaries,podcaster,Focuses on climate change stories
The Green Pod,,KEN,en,Nairobi,@thegreenpod,,The Green Pod,podcaster,Covers environmental conservation topics
The African Climate Podcast,,KEN,en,Nairobi,@africanclimatepodcast,,The African Climate Podcast,podcaster,Discusses climate issues in Africa
The Nairobi Podcast,,KEN,en,Nairobi,@thenairobipodcast,,The Nairobi Podcast,podcaster,Covers local news including environment
The African Geopolitics Podcast,,KEN,en,Nairobi,@africangeopoliticspodcast,,The African Geopolitics Podcast,podcaster,Focuses on African geopolitics
The Kenyan Wildlife Podcast,,KEN,en,Nairobi,@kenyanwildlifepodcast,,The Kenyan Wildlife Podcast,podcaster,Covers wildlife conservation topics
The Nairobi Green Podcast,,KEN,en,Nairobi,@nairobigreenpodcast,,The Nairobi Green Podcast,podcaster,Focuses on environmental issues in Nairobi
The African Peace Podcast,,KEN,en,Nairobi,@africanpeacepodcast,,The African Peace Podcast,podcaster,Discusses peace initiatives in Africa
The Kenyan Nature Podcast,,KEN,en,Nairobi,@kenyannaturepodcast,,The Kenyan Nature Podcast,podcaster,Focuses on nature conservation in Kenya
The Nairobi Climate Podcast,,KEN,en,Nairobi,@nairobiclimatepodcast,,The Nairobi Climate Podcast,podcaster,Covers climate change topics in Nairobi
The African Biodiversity Podcast,,KEN,en,Nairobi,@africanbiodiversitypodcast,,The African Biodiversity Podcast,podcaster,Focuses on biodiversity in Africa
The Kenyan Podcast,,KEN,en,Nairobi,@thekenyanpodcast,,The Kenyan Podcast,podcaster,Discusses Kenyan socio-political issues
Africa Climate Conversations,,KEN,en,Nairobi,@africaclimateconversations,,Africa Climate Conversations,podcaster,Focus on climate change in Africa
The Mics Are Open,,KEN,en,Nairobi,@themicsareopen,,The Mics Are Open,podcaster,Covers diverse topics including environment
The Spread Podcast,,KEN,en,Nairobi,@thespreadpodcast,,The Spread Podcast,podcaster,Discusses social issues and activism
The Sandwich Podcast,,KEN,en,Nairobi,@thesandwichpodcast,,The Sandwich Podcast,podcaster,Covers current events and social issues
"The Good, The Bad and The Busherian",,KEN,en,Nairobi,@thebusherianpodcast,,The Busherian Podcast,podcaster,Discusses youth and societal issues
Kenyan Stories Podcast,,KEN,en,Nairobi,@kenyanstoriespodcast,,Kenyan Stories Podcast,podcaster,Shares stories of Kenyan change-makers
The Kenyan Entrepreneur,,KEN,en,Nairobi,@thekenyanentrepreneur,,The Kenyan Entrepreneur,podcaster,Focus on business and sustainability
The Afroverse Podcast,,KEN,en,Nairobi,@afroversepodcast,,The Afroverse Podcast,podcaster,Explores African culture and innovation
The Kenyan Plug,,KEN,en,Nairobi,@thekenyanplugpod,,The Kenyan Plug,podcaster,Discusses Kenyan lifestyle and issues
The Kenyan Experience,,KEN,en,Nairobi,@kenyanexperiencepodcast,,The Kenyan Experience,podcaster,Covers Kenyan culture and society
The Kenyan Peacemaker,,KEN,en,Nairobi,@kenyanpeacemaker,,The Kenyan Peacemaker,podcaster,Focus on peace and conflict resolution
The Green Kenya Podcast,,KEN,en,Nairobi,@greenkenyapodcast,,The Green Kenya Podcast,podcaster,Discusses environmental conservation in Kenya
The Kenyan Diaspora,,KEN,en,Nairobi,@kenyandiasporapodcast,,The Kenyan Diaspora,podcaster,Focus on Kenyan diaspora experiences
The Kenyan Youth Podcast,,KEN,en,Nairobi,@kenyanyouthpodcast,,The Kenyan Youth Podcast,podcaster,Discusses youth empowerment and issues
The Kenyan Innovator,,KEN,en,Nairobi,@kenyaninnovator,,The Kenyan Innovator,podcaster,Covers innovation and technology in Kenya
The Kenyan Conservationist,,KEN,en,Nairobi,@kenyanconservationist,,The Kenyan Conservationist,podcaster,Focus on wildlife and nature conservation
Kenyan Stories,,KEN,en,Nairobi,@kenyanstories,,Kenyan Stories,podcaster,Features stories impacting Kenyans
Legally Clueless,,KEN,en,Nairobi,@legallycluelesspodcast,,Legally Clueless,podcaster,"Shares African stories, including climate"
The Kenyanist Podcast,,KEN,en,Nairobi,@kenyanistpodcast,,The Kenyanist,podcaster,Focuses on Kenyan socio-political topics
The Kenyan Life,,KEN,en,Nairobi,@kenyanlifepodcast,,The Kenyan Life,podcaster,Discusses life and issues in Kenya
The Kenyan Way,,KEN,en,Nairobi,@thekenyanwaypodcast,,The Kenyan Way,podcaster,Explores Kenyan culture and environment
The Kenyan Voice,,KEN,en,Nairobi,@kenyanvoicepodcast,,The Kenyan Voice,podcaster,Covers Kenyan issues and stories
The Kenyan Perspective,,KEN,en,Nairobi,@kenyanperspectivepodcast,,The Kenyan Perspective,podcaster,Discusses Kenyan socio-political issues
The Kenyan Journey,,KEN,en,Nairobi,@kenyanjourneypodcast,,The Kenyan Journey,podcaster,Explores Kenyan life and challenges
The Kenyan Dream,,KEN,en,Nairobi,@kenyandreampodcast,,The Kenyan Dream,podcaster,Focuses on aspirations and issues in Kenya
The Kenyan Reality,,KEN,en,Nairobi,@kenyanrealitypodcast,,The Kenyan Reality,podcaster,Discusses real-life issues in Kenya
Nature Kenya Podcast,,KEN,en,Nairobi,@naturekenya,,Nature Kenya,podcaster,Focuses on biodiversity and conservation
The Mothership,,KEN,en,Nairobi,@themothershippod,,The Mothership,podcaster,Focuses on African geopolitics and peace
The Climate Action Podcast,,KEN,en,Nairobi,@climateactionpod,,The Climate Action Podcast,podcaster,Discusses climate action in Kenya
The African Climate Podcast,,KEN,en,Nairobi,@africanclimatepod,,The African Climate Podcast,podcaster,Focuses on climate change in Africa
The Green Kenya Podcast,,KEN,en,Nairobi,@greenkenyapod,,The Green Kenya Podcast,podcaster,Covers environmental conservation in Kenya
The African Geopolitics Podcast,,KEN,en,Nairobi,@africangeopoliticspod,,The African Geopolitics Podcast,podcaster,Covers African geopolitics and peace
The Kenyan Green Podcast,,KEN,en,Nairobi,@kenyangreenpod,,The Kenyan Green Podcast,podcaster,Focuses on sustainability and conservation
The Peace and Climate Podcast,,KEN,en,Nairobi,@peaceandclimatepod,,The Peace and Climate Podcast,podcaster,Discusses peace and climate issues in Kenya
The Nairobi Green Podcast,,KEN,en,Nairobi,@nairobigreenpod,,The Nairobi Green Podcast,podcaster,Focuses on Nairobi's environmental challenges
The African Peace Podcast,,KEN,en,Nairobi,@africanpeacepod,,The African Peace Podcast,podcaster,Covers peace initiatives in Africa
The Kenyan Biodiversity Podcast,,KEN,en,Nairobi,@kenyanbiodiversitypod,,The Kenyan Biodiversity Podcast,podcaster,Focuses on biodiversity in Kenya
The Nairobi Climate Podcast,,KEN,en,Nairobi,@nairobiclimatepod,,The Nairobi Climate Podcast,podcaster,Discusses climate issues in Nairobi
The African Nature Podcast,,KEN,en,Nairobi,@africannaturepod,,The African Nature Podcast,podcaster,Focuses on nature conservation in Africa
