name,email,country,language,city,instagram,twitter,phone,organization,type,notes
Wang Wei,,CHN,zh,Shanghai,@wangwei_journalist,not_sure,,Shanghai Daily,journalist,Covers environmental issues in Shanghai
Li Ming,,CHN,zh,Shanghai,@liming_news,not_sure,,Shanghai News,journalist,Reports on climate change impacts
Zhang Lei,,CHN,zh,Shanghai,@zhanglei_reports,not_sure,,East China Morning Post,journalist,Focuses on geopolitics and international affairs
Chen Yu,,CHN,zh,Shanghai,@chenyu_journalism,not_sure,,Shanghai Observer,journalist,Writes about urban biodiversity
Liu Fang,,CHN,zh,Shanghai,@liufang_climate,not_sure,,Shanghai Green News,journalist,Specializes in climate policy
Zhao Hui,,CHN,zh,Shanghai,@zhaohui_worldnews,not_sure,,Global Times Shanghai,journalist,Covers international peace initiatives
Sun Mei,,CHN,zh,Shanghai,@sunmei_environment,not_sure,,Shanghai Environmental Journal,journalist,Reports on local environmental policies
Gao Lin,,CHN,zh,Shanghai,@gaolin_geo,not_sure,,Shanghai Geopolitical Review,journalist,Analyzes geopolitical trends
Huang Rong,,CHN,zh,Shanghai,@huangrong_nature,not_sure,,Nature Shanghai,journalist,Writes about nature conservation
Xu Jie,,CHN,zh,Shanghai,@xujie_climate,not_sure,,Shanghai Climate News,journalist,Focuses on climate change solutions
Yang Qian,,CHN,zh,Shanghai,@yangqian_peace,not_sure,,Shanghai Peace Journal,journalist,Covers peace and conflict resolution
Zhou Li,,CHN,zh,Shanghai,@zhouli_worldaffairs,not_sure,,Shanghai World Affairs,journalist,Reports on global geopolitical issues
Deng Fei,,CHN,zh,Shanghai,@dengfei_journalist,not_sure,,Shanghai Times,journalist,Covers environmental sustainability
Fang Yuan,,CHN,zh,Shanghai,@fangyuan_climate,not_sure,,Shanghai Climate Review,journalist,Focuses on climate adaptation
Jin Hua,,CHN,zh,Shanghai,@jinhua_nature,not_sure,,Shanghai Nature Journal,journalist,Writes about biodiversity conservation
Qian Li,,CHN,zh,Shanghai,@qianli_geo,not_sure,,Shanghai Geopolitical News,journalist,Analyzes international relations
Tang Wei,,CHN,zh,Shanghai,@tangwei_environment,not_sure,,Shanghai Environmental News,journalist,Reports on environmental protection
Yin Yue,,CHN,zh,Shanghai,@yinyue_climate,not_sure,,Shanghai Climate Journal,journalist,Focuses on climate science
Zheng Hao,,CHN,zh,Shanghai,@zhenghao_peace,not_sure,,Shanghai Peace News,journalist,Covers peacebuilding efforts
Liao Min,,CHN,zh,Shanghai,@liaomin_worldnews,not_sure,,Shanghai World News,journalist,Reports on global affairs
Peng Yu,,CHN,zh,Shanghai,@pengyu_environment,not_sure,,Shanghai Environmental Journal,journalist,Writes about environmental justice
Xie Ling,,CHN,zh,Shanghai,@xieling_climate,not_sure,,Shanghai Climate News,journalist,Focuses on climate resilience
Zhu Mei,,CHN,zh,Shanghai,@zhumei_nature,not_sure,,Shanghai Nature News,journalist,Covers nature and wildlife
He Jun,,CHN,zh,Shanghai,@hejun_geo,not_sure,,Shanghai Geopolitical Journal,journalist,Analyzes geopolitical conflicts
Liu Yan,,CHN,zh,Shanghai,@liuyan_peace,not_sure,,Shanghai Peace Journal,journalist,Reports on peace initiatives
Ma Lin,,CHN,zh,Shanghai,@malin_environment,not_sure,,Shanghai Environmental Review,journalist,Focuses on environmental policy
Guo Fang,,CHN,zh,Shanghai,@guofang_climate,not_sure,,Shanghai Climate Journal,journalist,Writes about climate action
Shen Li,,CHN,zh,Shanghai,@shenli_nature,not_sure,,Shanghai Nature Journal,journalist,Covers biodiversity and ecosystems
Wu Qiang,,CHN,zh,Shanghai,@wuqiang_geo,not_sure,,Shanghai Geopolitical News,journalist,Analyzes international diplomacy
Zhang Min,,CHN,zh,Shanghai,@zhangmin_peace,not_sure,,Shanghai Peace News,journalist,Reports on conflict resolution
Yao Ling,,CHN,zh,Shanghai,@yaoling_environment,not_sure,,Shanghai Environmental Journal,journalist,Focuses on environmental conservation
Cai Wei,,CHN,zh,Shanghai,@caiwei_climate,not_sure,,Shanghai Climate News,journalist,Writes about climate mitigation
Duan Yu,,CHN,zh,Shanghai,@duanyu_nature,not_sure,,Shanghai Nature Journal,journalist,Covers wildlife conservation
Feng Li,,CHN,zh,Shanghai,@fengli_geo,not_sure,,Shanghai Geopolitical Review,journalist,Analyzes global political trends
Han Mei,,CHN,zh,Shanghai,@hanmei_peace,not_sure,,Shanghai Peace Journal,journalist,Reports on peacebuilding
Jiang Yu,,CHN,zh,Shanghai,@jiangyu_environment,not_sure,,Shanghai Environmental News,journalist,Focuses on environmental activism
Kong Ling,,CHN,zh,Shanghai,@kongling_climate,not_sure,,Shanghai Climate Journal,journalist,Writes about climate adaptation
Luo Wei,,CHN,zh,Shanghai,@luowei_nature,not_sure,,Shanghai Nature News,journalist,Covers ecosystem restoration
Mao Lin,,CHN,zh,Shanghai,@maolin_geo,not_sure,,Shanghai Geopolitical Journal,journalist,Analyzes international conflicts
Ning Hua,,CHN,zh,Shanghai,@ninghua_peace,not_sure,,Shanghai Peace News,journalist,Reports on peace negotiations
Ou Yang,,CHN,zh,Shanghai,@ouyang_environment,not_sure,,Shanghai Environmental Journal,journalist,Focuses on environmental education
Pan Yue,,CHN,zh,Shanghai,@panyue_climate,not_sure,,Shanghai Climate News,journalist,Writes about climate change
Qiu Lin,,CHN,zh,Shanghai,@qiulin_nature,not_sure,,Shanghai Nature Journal,journalist,Covers biodiversity issues
Ren Wei,,CHN,zh,Shanghai,@renwei_geo,not_sure,,Shanghai Geopolitical News,journalist,Analyzes geopolitical strategies
Shi Lei,,CHN,zh,Shanghai,@shilei_peace,not_sure,,Shanghai Peace Journal,journalist,Reports on peace efforts
Tian Yu,,CHN,zh,Shanghai,@tianyu_environment,not_sure,,Shanghai Environmental Review,journalist,Focuses on environmental sustainability
Wang Li,,CHN,zh,Shanghai,@wangli_climate,not_sure,,Shanghai Climate Journal,journalist,Writes about climate resilience
Xia Mei,,CHN,zh,Shanghai,@xiamei_nature,not_sure,,Shanghai Nature News,journalist,Covers wildlife and nature
Yan Feng,,CHN,zh,Shanghai,@yanfeng_geo,not_sure,,Shanghai Geopolitical Review,journalist,Analyzes global security issues
Zhang Wei,,CHN,zh,Shanghai,@zhangwei_peace,not_sure,,Shanghai Peace News,journalist,Reports on conflict resolution
Zhou Ming,,CHN,zh,Shanghai,@zhouming_environment,not_sure,,Shanghai Environmental Journal,journalist,Focuses on environmental policy
An Li,,CHN,zh,Shanghai,@anli_climate,not_sure,,Shanghai Climate News,journalist,Writes about climate impacts
Bai Yue,,CHN,zh,Shanghai,@baiyue_nature,not_sure,,Shanghai Nature Journal,journalist,Covers nature conservation
Cao Lin,,CHN,zh,Shanghai,@caolin_geo,not_sure,,Shanghai Geopolitical News,journalist,Analyzes international relations
Dai Yu,,CHN,zh,Shanghai,@daiyu_peace,not_sure,,Shanghai Peace Journal,journalist,Reports on peacebuilding initiatives
Fan Wei,,CHN,zh,Shanghai,@fanwei_environment,not_sure,,Shanghai Environmental Review,journalist,Focuses on environmental activism
Gong Li,,CHN,zh,Shanghai,@gongli_climate,not_sure,,Shanghai Climate Journal,journalist,Writes about climate science
Hu Mei,,CHN,zh,Shanghai,@humei_nature,not_sure,,Shanghai Nature News,journalist,Covers biodiversity and ecosystems
Jiang Lin,,CHN,zh,Shanghai,@jianglin_geo,not_sure,,Shanghai Geopolitical Review,journalist,Analyzes global political dynamics
Kang Wei,,CHN,zh,Shanghai,@kangwei_peace,not_sure,,Shanghai Peace News,journalist,Reports on peace and diplomacy
Liang Yu,,CHN,zh,Shanghai,@liangyu_environment,not_sure,,Shanghai Environmental Journal,journalist,Focuses on environmental justice
Ming Yue,,CHN,zh,Shanghai,@mingyue_climate,not_sure,,Shanghai Climate News,journalist,Writes about climate adaptation
Niu Lin,,CHN,zh,Shanghai,@niulin_nature,not_sure,,Shanghai Nature Journal,journalist,Covers wildlife and nature
Ou Mei,,CHN,zh,Shanghai,@oumei_geo,not_sure,,Shanghai Geopolitical News,journalist,Analyzes international security
Pei Wei,,CHN,zh,Shanghai,@peiwei_peace,not_sure,,Shanghai Peace Journal,journalist,Reports on peace efforts
Qin Yue,,CHN,zh,Shanghai,@qinyue_environment,not_sure,,Shanghai Environmental Review,journalist,Focuses on environmental sustainability
Rong Li,,CHN,zh,Shanghai,@rongli_climate,not_sure,,Shanghai Climate Journal,journalist,Writes about climate resilience
Shan Mei,,CHN,zh,Shanghai,@shanmei_nature,not_sure,,Shanghai Nature News,journalist,Covers wildlife and ecosystems
Tao Lin,,CHN,zh,Shanghai,@taolin_geo,not_sure,,Shanghai Geopolitical Review,journalist,Analyzes global security issues
Wen Yue,,CHN,zh,Shanghai,@wenyue_peace,not_sure,,Shanghai Peace News,journalist,Reports on conflict resolution
Xiang Li,,CHN,zh,Shanghai,@xiangli_environment,not_sure,,Shanghai Environmental Journal,journalist,Focuses on environmental policy
Yin Mei,,CHN,zh,Shanghai,@yinmei_climate,not_sure,,Shanghai Climate News,journalist,Writes about climate impacts
Zhao Yue,,CHN,zh,Shanghai,@zhaoyue_nature,not_sure,,Shanghai Nature Journal,journalist,Covers nature conservation
Ai Lin,,CHN,zh,Shanghai,@ailin_geo,not_sure,,Shanghai Geopolitical News,journalist,Analyzes international relations
Bo Wei,,CHN,zh,Shanghai,@bowei_peace,not_sure,,Shanghai Peace Journal,journalist,Reports on peacebuilding initiatives
Cheng Yu,,CHN,zh,Shanghai,@chengyu_environment,not_sure,,Shanghai Environmental Review,journalist,Focuses on environmental activism
Ding Li,,CHN,zh,Shanghai,@dingli_climate,not_sure,,Shanghai Climate Journal,journalist,Writes about climate science
Er Mei,,CHN,zh,Shanghai,@ermei_nature,not_sure,,Shanghai Nature News,journalist,Covers biodiversity and ecosystems
Feng Yu,,CHN,zh,Shanghai,@fengyu_geo,not_sure,,Shanghai Geopolitical Review,journalist,Analyzes global political dynamics
Guo Mei,,CHN,zh,Shanghai,@guomei_peace,not_sure,,Shanghai Peace News,journalist,Reports on peace and diplomacy
Hao Lin,,CHN,zh,Shanghai,@haolin_environment,not_sure,,Shanghai Environmental Journal,journalist,Focuses on environmental justice
Jin Yue,,CHN,zh,Shanghai,@jinyue_climate,not_sure,,Shanghai Climate News,journalist,Writes about climate adaptation
Kai Lin,,CHN,zh,Shanghai,@kailin_nature,not_sure,,Shanghai Nature Journal,journalist,Covers wildlife and nature
Liu Mei,,CHN,zh,Shanghai,@liumei_geo,not_sure,,Shanghai Geopolitical News,journalist,Analyzes international security
Ming Wei,,CHN,zh,Shanghai,@mingwei_peace,not_sure,,Shanghai Peace Journal,journalist,Reports on peace efforts
Ning Li,,CHN,zh,Shanghai,@ningli_environment,not_sure,,Shanghai Environmental Review,journalist,Focuses on environmental sustainability
Ou Yue,,CHN,zh,Shanghai,@ouyue_climate,not_sure,,Shanghai Climate Journal,journalist,Writes about climate resilience
Peng Mei,,CHN,zh,Shanghai,@pengmei_nature,not_sure,,Shanghai Nature News,journalist,Covers wildlife and ecosystems
Qian Yu,,CHN,zh,Shanghai,@qianyu_geo,not_sure,,Shanghai Geopolitical Review,journalist,Analyzes global security issues
Rui Wei,,CHN,zh,Shanghai,@ruiwei_peace,not_sure,,Shanghai Peace News,journalist,Reports on conflict resolution
Shu Lin,,CHN,zh,Shanghai,@shulin_environment,not_sure,,Shanghai Environmental Journal,journalist,Focuses on environmental policy
Tao Yue,,CHN,zh,Shanghai,@taoyue_climate,not_sure,,Shanghai Climate News,journalist,Writes about climate impacts
Wei Lin,,CHN,zh,Shanghai,@weilin_nature,not_sure,,Shanghai Nature Journal,journalist,Covers nature conservation
Xun Mei,,CHN,zh,Shanghai,@xunmei_geo,not_sure,,Shanghai Geopolitical News,journalist,Analyzes international relations
Yan Wei,,CHN,zh,Shanghai,@yanwei_peace,not_sure,,Shanghai Peace Journal,journalist,Reports on peacebuilding initiatives
Zhen Yu,,CHN,zh,Shanghai,@zhenyu_environment,not_sure,,Shanghai Environmental Review,journalist,Focuses on environmental activism
Ai Mei,,CHN,zh,Shanghai,@aimei_climate,not_sure,,Shanghai Climate Journal,journalist,Writes about climate science
Bo Lin,,CHN,zh,Shanghai,@bolin_nature,not_sure,,Shanghai Nature News,journalist,Covers biodiversity and ecosystems
Chun Yu,,CHN,zh,Shanghai,@chunyu_geo,not_sure,,Shanghai Geopolitical Review,journalist,Analyzes global political dynamics
Dong Mei,,CHN,zh,Shanghai,@dongmei_peace,not_sure,,Shanghai Peace News,journalist,Reports on peace and diplomacy
