name,email,country,language,city,instagram,twitter,phone,organization,type,notes
World Wildlife Fund Pakistan,,PAK,ur,Karachi,@wwfpak,@WWFPak,,,ngo,Focus on wildlife conservation in Pakistan
Indus Earth Trust,,PAK,ur,Karachi,@indusearthtrust,not_sure,,,ngo,Works on sustainable development in coastal areas
Pakistan Fisherfolk Forum,,PAK,ur,Karachi,@pfforgpk,not_sure,,,ngo,Advocates for fisherfolk rights and marine conservation
The Urban Resource Centre,,PAK,ur,Karachi,@urckhi,not_sure,,,ngo,Focuses on urban planning and development issues
Pakistan Youth Climate Network,,PAK,ur,Karachi,@pycn.pk,not_sure,,,ngo,Youth-led climate action group
Green Crescent Trust,,PAK,ur,Karachi,@greencrescenttrust,not_sure,,,ngo,Promotes education and environmental awareness
The Citizens Foundation,,PAK,ur,Karachi,@tcfpk,@TCFPak,,,ngo,Provides education with focus on sustainable practices
Shehri-Citizens for a Better Environment,,PAK,ur,Karachi,@shehripk,not_sure,,,ngo,Advocates for urban environmental issues
Karachi Relief Trust,,PAK,ur,Karachi,@karachirelieftrust,not_sure,,,ngo,Disaster management and relief efforts
Pakistan Red Crescent Society,,PAK,ur,Karachi,@prcs_official,@PRCSpk,,,ngo,Humanitarian aid and disaster relief
Hands Pakistan,,PAK,ur,Karachi,@hands_pakistan,not_sure,,,ngo,"Focus on health, education, and environment"
Aahung,,PAK,ur,Karachi,@aahungorg,not_sure,,,ngo,Promotes health education and rights
Aurat Foundation,,PAK,ur,Karachi,@auratfoundation,not_sure,,,ngo,Focus on women's rights and empowerment
Pakistan Institute of Labour Education and Research,,PAK,ur,Karachi,@pilerorg,not_sure,,,ngo,Labour rights and social justice advocacy
Karachi Bachao Tehreek,,PAK,ur,Karachi,@karachibachaotehreek,not_sure,,,ngo,Advocates against urban displacement
Pakistan Peace Collective,,PAK,ur,Karachi,@pakistanpeacecollective,not_sure,,,ngo,Promotes peace and conflict resolution
Pakistan Youth Alliance,,PAK,ur,Karachi,@pakistanyouthalliance,not_sure,,,ngo,Youth-led initiatives for social change
Karachi Citizens Forum,,PAK,ur,Karachi,@karachicitizensforum,not_sure,,,ngo,Focus on civic issues and urban development
Pakistan Green Building Council,,PAK,ur,Karachi,@pakgbc,not_sure,,,ngo,Promotes sustainable building practices
Pakistan Animal Welfare Society,,PAK,ur,Karachi,@pawspakistan,not_sure,,,ngo,Animal rights and welfare advocacy
Karachi Youth Initiative,,PAK,ur,Karachi,@karachiyouthinitiative,not_sure,,,ngo,Empowers youth for social change
Pakistan Environmental Protection Foundation,,PAK,ur,Karachi,@pepfpk,not_sure,,,ngo,Focus on environmental protection and awareness
Karachi Conservation,,PAK,ur,Karachi,@karachiconservation,not_sure,,,ngo,Conservation efforts in Karachi
Pakistan Sustainable Development Organization,,PAK,ur,Karachi,@psdopk,not_sure,,,ngo,Promotes sustainable development practices
Karachi Community Development Foundation,,PAK,ur,Karachi,@karachicdf,not_sure,,,ngo,Community development and empowerment
Pakistan Institute of International Affairs,,PAK,ur,Karachi,@piiakhi,not_sure,,,ngo,Focus on international relations and geopolitics
Karachi Water Partnership,,PAK,ur,Karachi,@karachiwatersolutions,not_sure,,,ngo,Water conservation and management
Pakistan Youth Organization,,PAK,ur,Karachi,@pyo.pk,not_sure,,,ngo,Youth empowerment and social development
Karachi Green Alliance,,PAK,ur,Karachi,@karachigreenalliance,not_sure,,,ngo,Environmental advocacy and green initiatives
Pakistan Humanitarian Forum,,PAK,ur,Karachi,@phfpakistan,not_sure,,,ngo,Coordinates humanitarian efforts in Pakistan
Karachi Biodiversity Society,,PAK,ur,Karachi,@karachibiodiversity,not_sure,,,ngo,Focus on biodiversity conservation in Karachi
Pakistan Peace and Development Organization,,PAK,ur,Karachi,@ppdopk,not_sure,,,ngo,Promotes peace and development initiatives
Karachi Environmental Protection Society,,PAK,ur,Karachi,@kepspk,not_sure,,,ngo,Environmental protection and awareness campaigns
Pakistan Youth Climate Movement,,PAK,ur,Karachi,@pycmpk,not_sure,,,ngo,Youth-led climate action and advocacy
Karachi Social Development Network,,PAK,ur,Karachi,@karachisocialdevelopment,not_sure,,,ngo,Focus on social development and empowerment
Pakistan Institute of Peace Studies,,PAK,ur,Karachi,@pips_pakistan,not_sure,,,ngo,Research and advocacy on peace and security
Karachi Climate Action Network,,PAK,ur,Karachi,@karachiclimateaction,not_sure,,,ngo,Climate action and awareness in Karachi
Pakistan Society for Peace and Conflict Resolution,,PAK,ur,Karachi,@pspcrpk,not_sure,,,ngo,Focus on peacebuilding and conflict resolution
Karachi Urban Development Initiative,,PAK,ur,Karachi,@karachiurbaninitiative,not_sure,,,ngo,Urban development and planning advocacy
Pakistan Environmental Journalists Association,,PAK,ur,Karachi,@pejapk,not_sure,,,ngo,Network of journalists focusing on environmental issues
Karachi Peace Forum,,PAK,ur,Karachi,@karachipeaceforum,not_sure,,,ngo,Promotes peace and harmony in Karachi
Pakistan Green Movement,,PAK,ur,Karachi,@pakistangreenmovement,not_sure,,,ngo,Environmental advocacy and green initiatives
Karachi Human Rights Network,,PAK,ur,Karachi,@karachihumanrights,not_sure,,,ngo,Focus on human rights advocacy and awareness
Pakistan Climate Action Network,,PAK,ur,Karachi,@pcanpk,not_sure,,,ngo,Climate action and policy advocacy
Karachi Social Justice Initiative,,PAK,ur,Karachi,@karachisocialjustice,not_sure,,,ngo,Focus on social justice and equality
Pakistan Environmental Network,,PAK,ur,Karachi,@penpk,not_sure,,,ngo,Network for environmental advocacy and awareness
Karachi Youth Empowerment Society,,PAK,ur,Karachi,@karachiyouthsociety,not_sure,,,ngo,Empowers youth for social change
Pakistan Peace Initiative,,PAK,ur,Karachi,@pakistanpeaceinitiative,not_sure,,,ngo,Promotes peace and conflict resolution
Karachi Environmental Awareness Group,,PAK,ur,Karachi,@karachienvironmentalgroup,not_sure,,,ngo,Focus on environmental awareness and education
Pakistan Youth Development Foundation,,PAK,ur,Karachi,@pydfpk,not_sure,,,ngo,Youth development and empowerment initiatives
Karachi Climate Change Forum,,PAK,ur,Karachi,@karachiclimateforum,not_sure,,,ngo,Climate change advocacy and awareness
Pakistan Human Rights Commission,,PAK,ur,Karachi,@phrckhi,not_sure,,,ngo,Focus on human rights advocacy and protection
Karachi Sustainable Development Group,,PAK,ur,Karachi,@karachisustainabledevelopment,not_sure,,,ngo,Promotes sustainable development practices
Pakistan Peace and Justice Network,,PAK,ur,Karachi,@ppjnpk,not_sure,,,ngo,Focus on peace and justice advocacy
Karachi Environmental Justice Alliance,,PAK,ur,Karachi,@karachienvironmentaljustice,not_sure,,,ngo,Environmental justice and advocacy
Pakistan Youth Peace Movement,,PAK,ur,Karachi,@pypmpk,not_sure,,,ngo,Youth-led peace initiatives and advocacy
Karachi Social Welfare Society,,PAK,ur,Karachi,@karachisocialwelfare,not_sure,,,ngo,Focus on social welfare and community development
Pakistan Environmental Education Network,,PAK,ur,Karachi,@peenpk,not_sure,,,ngo,Environmental education and awareness initiatives
Karachi Peace and Development Council,,PAK,ur,Karachi,@karachipeacecouncil,not_sure,,,ngo,Promotes peace and development in Karachi
Pakistan Green Society,,PAK,ur,Karachi,@pakistangreensociety,not_sure,,,ngo,Environmental advocacy and green initiatives
Karachi Humanitarian Aid Network,,PAK,ur,Karachi,@karachihumanitarianaid,not_sure,,,ngo,Coordinates humanitarian aid efforts in Karachi
Pakistan Climate Justice Alliance,,PAK,ur,Karachi,@pcjapk,not_sure,,,ngo,Focus on climate justice and advocacy
Karachi Youth Development Initiative,,PAK,ur,Karachi,@karachiyouthdevelopment,not_sure,,,ngo,Youth development and empowerment initiatives
Pakistan Environmental Conservation Society,,PAK,ur,Karachi,@pecspk,not_sure,,,ngo,Focus on environmental conservation and protection
Karachi Peace and Justice Forum,,PAK,ur,Karachi,@karachipeacejustice,not_sure,,,ngo,Promotes peace and justice in Karachi
Pakistan Youth Empowerment Network,,PAK,ur,Karachi,@pyenpk,not_sure,,,ngo,Empowers youth for social change
Karachi Environmental Action Group,,PAK,ur,Karachi,@karachienvironmentalaction,not_sure,,,ngo,Environmental action and advocacy in Karachi
Pakistan Peace and Development Forum,,PAK,ur,Karachi,@ppdfpk,not_sure,,,ngo,Focus on peace and development initiatives
Karachi Social Action Network,,PAK,ur,Karachi,@karachisocialaction,not_sure,,,ngo,Social action and advocacy in Karachi
Pakistan Environmental Advocacy Group,,PAK,ur,Karachi,@peagpk,not_sure,,,ngo,Environmental advocacy and awareness campaigns
Karachi Youth Leadership Forum,,PAK,ur,Karachi,@karachiyouthleadership,not_sure,,,ngo,Youth leadership and empowerment initiatives
Pakistan Peace and Security Network,,PAK,ur,Karachi,@ppsnpk,not_sure,,,ngo,Focus on peace and security advocacy
Karachi Environmental Protection Group,,PAK,ur,Karachi,@karachienvironmentalprotection,not_sure,,,ngo,Environmental protection and advocacy in Karachi
Pakistan Youth Social Development Organization,,PAK,ur,Karachi,@pysdopk,not_sure,,,ngo,Youth social development and empowerment
Karachi Peace and Conflict Resolution Network,,PAK,ur,Karachi,@karachipeaceconflict,not_sure,,,ngo,Focus on peace and conflict resolution
Pakistan Environmental Research Institute,,PAK,ur,Karachi,@peri_pk,not_sure,,,ngo,Environmental research and advocacy
Karachi Youth Social Action Group,,PAK,ur,Karachi,@karachiyouthsocialaction,not_sure,,,ngo,Youth social action and advocacy
Pakistan Peace and Reconciliation Council,,PAK,ur,Karachi,@pprcpk,not_sure,,,ngo,Focus on peace and reconciliation initiatives
Karachi Environmental Sustainability Network,,PAK,ur,Karachi,@karachienvironmentalsustainability,not_sure,,,ngo,Promotes environmental sustainability in Karachi
Pakistan Youth Leadership Initiative,,PAK,ur,Karachi,@pyli_pk,not_sure,,,ngo,Youth leadership and empowerment initiatives
Karachi Peace and Development Network,,PAK,ur,Karachi,@karachipeacedevelopment,not_sure,,,ngo,Focus on peace and development in Karachi
Pakistan Environmental Action Forum,,PAK,ur,Karachi,@peafpk,not_sure,,,ngo,Environmental action and advocacy initiatives
Karachi Youth Empowerment Network,,PAK,ur,Karachi,@karachiyouthempowerment,not_sure,,,ngo,Empowers youth for social change
Pakistan Peace and Development Association,,PAK,ur,Karachi,@ppdapk,not_sure,,,ngo,Focus on peace and development initiatives
Karachi Environmental Advocacy Group,,PAK,ur,Karachi,@karachienvironmentaladvocacy,not_sure,,,ngo,Environmental advocacy and awareness in Karachi
Pakistan Youth Social Action Network,,PAK,ur,Karachi,@pysanpk,not_sure,,,ngo,Youth social action and empowerment
Karachi Peace and Security Forum,,PAK,ur,Karachi,@karachipeacesecurity,not_sure,,,ngo,Focus on peace and security advocacy
Pakistan Environmental Protection Network,,PAK,ur,Karachi,@pepn_pk,not_sure,,,ngo,Environmental protection and advocacy initiatives
Karachi Youth Development Network,,PAK,ur,Karachi,@karachiyouthdevelopmentnetwork,not_sure,,,ngo,Youth development and empowerment initiatives
Pakistan Peace and Conflict Resolution Forum,,PAK,ur,Karachi,@ppcrfpk,not_sure,,,ngo,Focus on peace and conflict resolution
Karachi Environmental Awareness Network,,PAK,ur,Karachi,@karachienvironmentalawareness,not_sure,,,ngo,Environmental awareness and education in Karachi
Pakistan Youth Empowerment Initiative,,PAK,ur,Karachi,@pyei_pk,not_sure,,,ngo,Youth empowerment and social change initiatives
Karachi Peace and Development Initiative,,PAK,ur,Karachi,@karachipeacedevelopmentinitiative,not_sure,,,ngo,Focus on peace and development in Karachi
Pakistan Environmental Advocacy Network,,PAK,ur,Karachi,@peanpk,not_sure,,,ngo,Environmental advocacy and awareness campaigns
Karachi Youth Leadership Network,,PAK,ur,Karachi,@karachiyouthleadershipnetwork,not_sure,,,ngo,Youth leadership and empowerment initiatives
Pakistan Peace and Security Initiative,,PAK,ur,Karachi,@ppsi_pk,not_sure,,,ngo,Focus on peace and security advocacy
Karachi Environmental Protection Network,,PAK,ur,Karachi,@karachienvironmentalprotectionnetwork,not_sure,,,ngo,Environmental protection and advocacy in Karachi
Pakistan Youth Social Development Network,,PAK,ur,Karachi,@pysdn_pk,not_sure,,,ngo,Youth social development and empowerment
Karachi Peace and Conflict Resolution Initiative,,PAK,ur,Karachi,@karachipeaceconflictresolution,not_sure,,,ngo,Focus on peace and conflict resolution
Pakistan Environmental Research Network,,PAK,ur,Karachi,@pern_pk,not_sure,,,ngo,Environmental research and advocacy initiatives
