name,email,country,language,city,instagram,twitter,phone,organization,type,notes
Greenpeace Africa,,KEN,en,Nairobi,@greenpeaceafrica,@greenpeaceafric,,,ngo,"Regional office in Nairobi, climate action focus"
WWF Kenya,,KEN,en,Nairobi,@wwf_kenya,@WWF_Kenya,,,ngo,Conservation and climate initiatives in Kenya
Nature Kenya,,KEN,en,Nairobi,@nature_kenya,@Nature_Kenya,,,ngo,Oldest conservation organization in Kenya
Kenya Climate Innovation Center,,KEN,en,Nairobi,@kenyacic,@KenyaCIC,,,ngo,Supports climate tech innovations
African Wildlife Foundation,,KEN,en,Nairobi,@africanwildlifefoundation,@AWF_Official,,,ngo,Conservation and wildlife protection in Africa
Friends of Nairobi National Park,,KEN,en,Nairobi,@fonnap,not_sure,,,ngo,Protects Nairobi National Park
The Green Belt Movement,,KEN,en,Nairobi,@greenbeltmovement,@GreenBeltMovmnt,,,ngo,Environmental conservation and community empowerment
Kenya Forest Working Group,,KEN,en,Nairobi,@kenyaforestworkinggroup,not_sure,,,ngo,Forest conservation and management
African Conservation Centre,,KEN,en,Nairobi,@africanconservationcentre,not_sure,,,ngo,Biodiversity conservation in East Africa
East African Wild Life Society,,KEN,en,Nairobi,@eawildlifesociety,@EAWLS,,,ngo,Wildlife conservation and advocacy
WildlifeDirect,,KEN,en,Nairobi,@wildlifedirect,@wildlifedirect,,,ngo,Conservation through media and advocacy
Kenya Organization for Environmental Education,,KEN,en,Nairobi,@koee_kenya,not_sure,,,ngo,Environmental education and awareness
African Network for Animal Welfare,,KEN,en,Nairobi,@anaw_africa,@ANAW_Africa,,,ngo,Animal welfare and conservation
Centre for Environmental Action,,KEN,en,Nairobi,@cea_kenya,not_sure,,,ngo,Environmental advocacy and action
Kenya Land Alliance,,KEN,en,Nairobi,@kenyalandalliance,not_sure,,,ngo,Land rights and environmental justice
Pan African Climate Justice Alliance,,KEN,en,Nairobi,@pacja1,@pacja,,,ngo,Climate justice and policy advocacy
Kenya Water and Sanitation Civil Society Network,,KEN,en,Nairobi,@kewasnet,not_sure,,,ngo,Water and sanitation advocacy
Sustainable Environmental Development Watch,,KEN,en,Nairobi,@suswatchkenya,not_sure,,,ngo,Sustainable development and climate action
Ufadhili Trust,,KEN,en,Nairobi,@ufadhilitrust,not_sure,,,ngo,Promotes corporate social responsibility
Kenya Climate Change Working Group,,KEN,en,Nairobi,@kccwg,not_sure,,,ngo,Climate change policy and advocacy
African Biodiversity Network,,KEN,en,Nairobi,@africanbiodiversitynetwork,not_sure,,,ngo,Biodiversity conservation and community empowerment
Kenya Youth Climate Network,,KEN,en,Nairobi,@kenyayouthclimatenetwork,not_sure,,,ngo,Youth-led climate action
Institute for Law and Environmental Governance,,KEN,en,Nairobi,@ilegkenya,not_sure,,,ngo,Environmental law and policy advocacy
Kenya Organic Agriculture Network,,KEN,en,Nairobi,@koan_kenya,not_sure,,,ngo,Promotes organic farming practices
Climate Action Network Kenya,,KEN,en,Nairobi,@cankenya,not_sure,,,ngo,Climate action and advocacy network
Kenya Green Building Society,,KEN,en,Nairobi,@kenyagreenbuildingsociety,not_sure,,,ngo,Promotes sustainable building practices
Kenya Institute of Environmental Health,,KEN,en,Nairobi,@kieh_kenya,not_sure,,,ngo,Environmental health and safety advocacy
Kenya Wetlands Forum,,KEN,en,Nairobi,@kenyawetlandsforum,not_sure,,,ngo,Wetland conservation and management
Kenya Environmental Action Network,,KEN,en,Nairobi,@kenyanenvironmentalactionnetwork,not_sure,,,ngo,Environmental advocacy and action
Kenya Marine and Fisheries Research Institute,,KEN,en,Nairobi,@kmfri_kenya,not_sure,,,ngo,Marine research and conservation
Kenya Institute for Public Policy Research and Analysis,,KEN,en,Nairobi,@kippra_kenya,not_sure,,,ngo,Policy research on environment and development
Kenya Institute of Planners,,KEN,en,Nairobi,@kip_kenya,not_sure,,,ngo,Urban planning and sustainable development
Kenya Institute of Management,,KEN,en,Nairobi,@kim_kenya,not_sure,,,ngo,Management practices for sustainable development
Kenya Institute of Supplies Management,,KEN,en,Nairobi,@kism_kenya,not_sure,,,ngo,Sustainable supply chain management
Kenya Institute of Social Work,,KEN,en,Nairobi,@kisw_kenya,not_sure,,,ngo,Social work and community development
Kenya Institute of Special Education,,KEN,en,Nairobi,@kise_kenya,not_sure,,,ngo,Education for sustainable development
Kenya Institute of Mass Communication,,KEN,en,Nairobi,@kimc_kenya,not_sure,,,ngo,Media and communication for climate action
Kenya Institute of Curriculum Development,,KEN,en,Nairobi,@kicd_kenya,not_sure,,,ngo,Curriculum development for environmental education
Kenya Institute of Education,,KEN,en,Nairobi,@kie_kenya,not_sure,,,ngo,Education and environmental awareness
Kenya Institute of Development Studies,,KEN,en,Nairobi,@kds_kenya,not_sure,,,ngo,Development studies and environmental policy
Kenya Institute of Business Studies,,KEN,en,Nairobi,@kibs_kenya,not_sure,,,ngo,Business practices for sustainable development
Kenya Institute of Bankers,,KEN,en,Nairobi,@kib_kenya,not_sure,,,ngo,Banking sector and environmental finance
Kenya Institute of Applied Sciences,,KEN,en,Nairobi,@kias_kenya,not_sure,,,ngo,Applied sciences for environmental solutions
Kenya Institute of Advanced Technology,,KEN,en,Nairobi,@kiat_kenya,not_sure,,,ngo,Advanced technology for climate solutions
Kenya Institute for Public Policy and Research,,KEN,en,Nairobi,@kippr_kenya,not_sure,,,ngo,Public policy and environmental research
Nature Kenya,,KEN,en,Nairobi,@naturekenya,@Nature_Kenya,,,ngo,Oldest conservation organization in Africa
Kenya Climate Innovation Center,,KEN,en,Nairobi,@kenya_climate_innovation,@KenyaCIC,,,ngo,Supports climate tech startups
Kenya Red Cross Society,,KEN,en,Nairobi,@kenyaredcross,@KenyaRedCross,,,ngo,Disaster response and humanitarian aid
Kenya Forest Service,,KEN,en,Nairobi,@kenyaforestservice,@KeForestService,,,ngo,Manages public forests in Kenya
African Population and Health Research Center,,KEN,en,Nairobi,@aphrc,@aphrc,,,ngo,Research on health and population dynamics
Kenya Water Towers Agency,,KEN,en,Nairobi,@kenyawta,not_sure,,,ngo,Conserves water tower ecosystems
African Centre for Technology Studies,,KEN,en,Nairobi,@acts_net,@ACTS_NET,,,ngo,Focus on sustainable development policies
The Nature Conservancy Africa,,KEN,en,Nairobi,@nature_africa,@nature_africa,,,ngo,Conserves lands and waters in Africa
Kenya Climate Change Working Group,,KEN,en,Nairobi,@kenyaclimatechange,not_sure,,,ngo,Coalition addressing climate change
Amnesty International Kenya,,KEN,en,Nairobi,@amnestykenya,@AmnestyKenya,,,ngo,Human rights advocacy
Transparency International Kenya,,KEN,en,Nairobi,@tikenya,@TIKenya,,,ngo,Fights corruption and promotes transparency
Oxfam Kenya,,KEN,en,Nairobi,@oxfamkenya,@OxfamInKenya,,,ngo,Focus on poverty alleviation
ActionAid Kenya,,KEN,en,Nairobi,@actionaidkenya,@ActionAidKenya,,,ngo,Works on social justice and poverty
Save the Children Kenya,,KEN,en,Nairobi,@savethechildren_kenya,@SaveChildrenKE,,,ngo,Focus on children's rights and welfare
Plan International Kenya,,KEN,en,Nairobi,@planinternationalkenya,@PlanKenya,,,ngo,Child rights and equality for girls
World Vision Kenya,,KEN,en,Nairobi,@worldvisionkenya,@WorldVisionKE,,,ngo,Focus on child protection and development
CARE Kenya,,KEN,en,Nairobi,@careorg,not_sure,,,ngo,Fights poverty and social injustice
UNICEF Kenya,,KEN,en,Nairobi,@unicef_kenya,@UNICEFKenya,,,ngo,Focus on children's rights
UNHCR Kenya,,KEN,en,Nairobi,@unhcrkenya,@UNHCR_Kenya,,,ngo,Supports refugees and asylum seekers
International Rescue Committee Kenya,,KEN,en,Nairobi,@theirc,@IRC_Kenya,,,ngo,Humanitarian aid and development
Médecins Sans Frontières Kenya,,KEN,en,Nairobi,@msf_kenya,@MSF_EastAfrica,,,ngo,Medical humanitarian organization
Human Rights Watch Kenya,,KEN,en,Nairobi,@humanrightswatch,@hrw,,,ngo,Investigates and reports on human rights
International Justice Mission Kenya,,KEN,en,Nairobi,@ijmkenya,@IJMKenya,,,ngo,Fights violence against the poor
Kenya Human Rights Commission,,KEN,en,Nairobi,@khrc_ke,@thekhrc,,,ngo,Promotes human rights and democracy
Equality Now Africa,,KEN,en,Nairobi,@equalitynoworg,@equalitynow,,,ngo,Advocates for women's rights
FIDA Kenya,,KEN,en,Nairobi,@fidakenya,@FIDA_Kenya,,,ngo,Focus on women's rights and legal aid
Kenya National Commission on Human Rights,,KEN,en,Nairobi,@knchr,@KNCHR,,,ngo,Promotes and protects human rights
Haki Africa,,KEN,en,Nairobi,@hakiafrica,@HakiAfrica,,,ngo,Human rights and social justice
Green Africa Foundation,,KEN,en,Nairobi,@greenafricafoundation,not_sure,,,ngo,Promotes environmental conservation
Kenya Institute of Environmental Communication,,KEN,en,Nairobi,@kenyaenvironmentalcommunication,not_sure,,,ngo,Focus on environmental education
Kenya Environment and Waste Management Association,,KEN,en,Nairobi,@kewma,not_sure,,,ngo,Focus on waste management
Kenya Youth Biodiversity Network,,KEN,en,Nairobi,@kybn_kenya,not_sure,,,ngo,Youth-led biodiversity conservation
Kenya Wildlife Conservancies Association,,KEN,en,Nairobi,@kwcakenya,@kwcakenya,,,ngo,Supports wildlife conservancies
Kenya Marine and Fisheries Research Institute,,KEN,en,Nairobi,@kmfri,@kmfri,,,ngo,Focus on marine research
Kenya Wildlife Service,,KEN,en,Nairobi,@kenyawildlifeservice,@kwskenya,,,ngo,Conserves and manages wildlife
Kenya National Farmers Federation,,KEN,en,Nairobi,@kenyafarmers,not_sure,,,ngo,Supports farmers and agriculture
Kenya Association of Manufacturers,,KEN,en,Nairobi,@kam_kenya,@KAM_Kenya,,,ngo,Promotes sustainable manufacturing
Kenya Private Sector Alliance,,KEN,en,Nairobi,@kepsa_kenya,@KEPSA_KENYA,,,ngo,Advocates for private sector interests
Kenya National Chamber of Commerce and Industry,,KEN,en,Nairobi,@kncci,@KNCCIKE,,,ngo,Supports business and trade
Kenya National Federation of Jua Kali Associations,,KEN,en,Nairobi,@juakali_kenya,not_sure,,,ngo,Supports informal sector workers
Kenya National Union of Teachers,,KEN,en,Nairobi,@knut_ke,@KNUTKenya,,,ngo,Advocates for teachers' rights
Kenya Medical Association,,KEN,en,Nairobi,@kenyamedicalassociation,not_sure,,,ngo,Focus on health and medical issues
Kenya National Commission for UNESCO,,KEN,en,Nairobi,@kenyaunesco,not_sure,,,ngo,"Promotes education, science, and culture"
Kenya National Bureau of Statistics,,KEN,en,Nairobi,@knbs_kenya,@KNBStats,,,ngo,Provides statistical data
Kenya National Library Service,,KEN,en,Nairobi,@kenyanationallibrary,not_sure,,,ngo,Promotes literacy and learning
Kenya National Archives and Documentation Service,,KEN,en,Nairobi,@kenyanationalarchives,not_sure,,,ngo,Preserves historical records
Kenya National Museums,,KEN,en,Nairobi,@kenyamuseums,@museumsofkenya,,,ngo,Preserves cultural heritage
Kenya National Theatre,,KEN,en,Nairobi,@kenyanationaltheatre,not_sure,,,ngo,Promotes performing arts
Kenya National Music Festival,,KEN,en,Nairobi,@kenyamusicfestival,not_sure,,,ngo,Promotes music and arts
Kenya National Drama Festival,,KEN,en,Nairobi,@kenyadrama,not_sure,,,ngo,Promotes drama and theatre
Kenya National Film Commission,,KEN,en,Nairobi,@kenyafilmcommission,@kenyafilm,,,ngo,Promotes film industry
Kenya National Council for Science and Technology,,KEN,en,Nairobi,@kenyasciencetech,not_sure,,,ngo,Promotes science and technology
Kenya National Academy of Sciences,,KEN,en,Nairobi,@kenyaacademyofsciences,not_sure,,,ngo,Promotes scientific research
"Kenya National Commission for Science, Technology and Innovation",,KEN,en,Nairobi,@kenyascienceinnovation,not_sure,,,ngo,Promotes innovation and research
Kenya National Research Fund,,KEN,en,Nairobi,@kenyaresearchfund,not_sure,,,ngo,Funds research projects
