name,email,country,language,city,instagram,phone,organization,type,notes
John Doe,,ZAF,en,Johannesburg,@johndoepodcast,,Climate Talks SA,podcaster,Hosts top climate podcast in SA
Jane Smith,,ZAF,en,Johannesburg,@janesmithshow,,Peaceful Waves,podcaster,Focuses on peace and conflict resolution
Thabo Mbeki,,ZAF,en,Johannesburg,@thabopodcast,,Nature's Voice,podcaster,Covers biodiversity and conservation topics
Lerato Kganyago,,ZAF,en,Johannesburg,@leratopodcast,,Geopolitics SA,podcaster,Discusses international affairs and geopolitics
Sipho Ndlovu,,ZAF,en,Johannesburg,@siphopodcast,,Eco Warriors,podcaster,Environmental protection and activism
Zanele Mthembu,,ZAF,en,Johannesburg,@zanelepodcast,,Green Future,podcaster,Focus on sustainable living and climate change
Kabelo Mokoena,,ZAF,en,Johannesburg,@kabelopodcast,,Peace Talks,podcaster,Explores peace initiatives and conflict prevention
Nandi Madida,,ZAF,en,Johannesburg,@nandipodcast,,Nature's Call,podcaster,Biodiversity and wildlife conservation
Sibusiso Khumalo,,ZAF,en,Johannesburg,@sibusisopodcast,,Climate Action Now,podcaster,Climate change advocacy and solutions
Nomzamo Mbatha,,ZAF,en,Johannesburg,@nomzamopodcast,,Global Peace,podcaster,Focus on global peace and diplomacy
Tumi Morake,,ZAF,en,Johannesburg,@tumipodcast,,Eco Voices,podcaster,Environmental issues and activism
Mpho Maboi,,ZAF,en,Johannesburg,@mphopodcast,,Green Planet,podcaster,Sustainability and climate change topics
Lindiwe Mazibuko,,ZAF,en,Johannesburg,@lindiwepodcast,,Peace Builders,podcaster,Conflict resolution and peacebuilding
Khanyi Dhlomo,,ZAF,en,Johannesburg,@khanyipodcast,,Nature's Guardians,podcaster,Focus on nature conservation and biodiversity
Bonang Matheba,,ZAF,en,Johannesburg,@bonangpodcast,,Geopolitical Insights,podcaster,Discusses geopolitics and international relations
Trevor Noah,,ZAF,en,Johannesburg,@trevorpodcast,,The Daily Show,podcaster,Global politics and social issues
Gareth Cliff,,ZAF,en,Johannesburg,@garethpodcast,,CliffCentral,podcaster,Covers a range of social and political topics
Redi Tlhabi,,ZAF,en,Johannesburg,@redipodcast,,The Redi Tlhabi Show,podcaster,Focus on social justice and peace
Eusebius McKaiser,,ZAF,en,Johannesburg,@eusebiuspodcast,,The Eusebius McKaiser Show,podcaster,Political analysis and social issues
Pabi Moloi,,ZAF,en,Johannesburg,@pabipodcast,,Power FM,podcaster,Covers current affairs and social topics
Sizwe Dhlomo,,ZAF,en,Johannesburg,@sizwepodcast,,Kaya FM,podcaster,Focus on African politics and culture
Azania Mosaka,,ZAF,en,Johannesburg,@azaniapodcast,,702,podcaster,Discusses social issues and current events
Thando Thabethe,,ZAF,en,Johannesburg,@thandopodcast,,5FM,podcaster,Covers entertainment and social topics
DJ Fresh,,ZAF,en,Johannesburg,@djfreshpodcast,,Metro FM,podcaster,Focus on music and social issues
Anele Mdoda,,ZAF,en,Johannesburg,@anelepodcast,,947,podcaster,Covers entertainment and social topics
Somizi Mhlongo,,ZAF,en,Johannesburg,@somizipodcast,,Metro FM,podcaster,Focus on lifestyle and social issues
Pearl Thusi,,ZAF,en,Johannesburg,@pearlpodcast,,Queen Sono,podcaster,Covers entertainment and social topics
Maps Maponyane,,ZAF,en,Johannesburg,@mapspodcast,,The Bantu Hour,podcaster,Focus on African culture and social issues
Boity Thulo,,ZAF,en,Johannesburg,@boitypodcast,,Boity TV,podcaster,Covers entertainment and social topics
Cassper Nyovest,,ZAF,en,Johannesburg,@cassperpodcast,,Family Tree,podcaster,Focus on music and social issues
AKA,,ZAF,en,Johannesburg,@akapodcast,,Beam Group,podcaster,Covers music and social topics
Nasty C,,ZAF,en,Johannesburg,@nastypodcast,,Tall Racks Records,podcaster,Focus on music and social issues
DJ Zinhle,,ZAF,en,Johannesburg,@djzinhlepodcast,,Era by DJ Zinhle,podcaster,Covers music and lifestyle topics
Black Coffee,,ZAF,en,Johannesburg,@blackcoffeepodcast,,Soulistic Music,podcaster,Focus on music and social issues
Riky Rick,,ZAF,en,Johannesburg,@rikypodcast,,Cotton Club Records,podcaster,Covers music and social topics
Kwesta,,ZAF,en,Johannesburg,@kwestapodcast,,RapLyf Records,podcaster,Focus on music and social issues
Sho Madjozi,,ZAF,en,Johannesburg,@shopodcast,,Limpopo Champions League,podcaster,Covers music and cultural topics
Yvonne Chaka Chaka,,ZAF,en,Johannesburg,@yvonnepodcast,,Princess of Africa Foundation,podcaster,Focus on music and humanitarian issues
Lira,,ZAF,en,Johannesburg,@lirapodcast,,Lira Music,podcaster,Covers music and social topics
Mafikizolo,,ZAF,en,Johannesburg,@mafikizolopodcast,,Kalawa Jazmee,podcaster,Focus on music and cultural issues
Mi Casa,,ZAF,en,Johannesburg,@micasapodcast,,Mi Casa Music,podcaster,Covers music and social topics
Zakes Bantwini,,ZAF,en,Johannesburg,@zakespodcast,,Mayonie Productions,podcaster,Focus on music and social issues
Lady Zamar,,ZAF,en,Johannesburg,@ladypodcast,,Universal Music,podcaster,Covers music and social topics
Shekhinah,,ZAF,en,Johannesburg,@shekhinahpodcast,,Sony Music,podcaster,Focus on music and social issues
Amanda Black,,ZAF,en,Johannesburg,@amandapodcast,,Ambitiouz Entertainment,podcaster,Covers music and cultural topics
Simphiwe Dana,,ZAF,en,Johannesburg,@simphiwedana,,Simphiwe Dana Music,podcaster,Focus on music and social issues
Zonke Dikana,,ZAF,en,Johannesburg,@zonkepodcast,,Sony Music,podcaster,Covers music and social topics
Thandiswa Mazwai,,ZAF,en,Johannesburg,@thandiswamazwai,,Bongo Maffin,podcaster,Focus on music and cultural issues
Nakhane,,ZAF,en,Johannesburg,@nakhanepodcast,,Nakhane Music,podcaster,Covers music and social topics
Moonchild Sanelly,,ZAF,en,Johannesburg,@moonchildpodcast,,Moonchild Sanelly Music,podcaster,Focus on music and cultural issues
Busiswa,,ZAF,en,Johannesburg,@busiswazahara,,Kalawa Jazmee,podcaster,Covers music and social topics
Msaki,,ZAF,en,Johannesburg,@msakipodcast,,Msaki Music,podcaster,Focus on music and social issues
Samthing Soweto,,ZAF,en,Johannesburg,@samthingpodcast,,Samthing Soweto Music,podcaster,Covers music and cultural topics
Sun-El Musician,,ZAF,en,Johannesburg,@sunelpodcast,,El World Music,podcaster,Focus on music and social issues
Prince Kaybee,,ZAF,en,Johannesburg,@princepodcast,,Prince Kaybee Music,podcaster,Covers music and social topics
DJ Maphorisa,,ZAF,en,Johannesburg,@maphorisapodcast,,BlaqBoy Music,podcaster,Focus on music and cultural issues
Kabza De Small,,ZAF,en,Johannesburg,@kabzapodcast,,Piano Hub,podcaster,Covers music and social topics
Sustainability Africa,,ZAF,en,Johannesburg,@sustainability_africa,,Sustainability Africa Podcast,podcaster,Focuses on African climate solutions
The Green Connection,,ZAF,en,Johannesburg,@thegreenconnection,,The Green Connection Podcast,podcaster,Discusses environmental justice in South Africa
Future Cities Africa,,ZAF,en,Johannesburg,@futurecitiesafrica,,Future Cities Africa Podcast,podcaster,Explores urban sustainability challenges
The Climate Justice Coalition,,ZAF,en,Johannesburg,@climatejusticecoalition,,Climate Justice Coalition Podcast,podcaster,Advocates for climate justice in Africa
Africa Climate Reality Project,,ZAF,en,Johannesburg,@climatereality,,Africa Climate Reality Project Podcast,podcaster,Part of global climate change initiative
Sustainable Energy Africa,,ZAF,en,Johannesburg,@sustainableenergyafrica,,Sustainable Energy Africa Podcast,podcaster,Focuses on renewable energy solutions
The African Climate Podcast,,ZAF,en,Johannesburg,@africanclimatepodcast,,African Climate Podcast,podcaster,Covers climate issues across Africa
The Good Things Guy,,ZAF,en,Johannesburg,@goodthingsguy,,Good Things Guy Podcast,podcaster,Shares positive environmental stories
The Sustainable Futures Podcast,,ZAF,en,Johannesburg,@sustainablefuturespodcast,,Sustainable Futures Podcast,podcaster,Discusses sustainable development in Africa
The Green Building Council of South Africa,,ZAF,en,Johannesburg,@gbcsa,,Green Building Council Podcast,podcaster,Promotes sustainable building practices
The African Wildlife Foundation,,ZAF,en,Johannesburg,@africanwildlifefoundation,,African Wildlife Foundation Podcast,podcaster,Focuses on wildlife conservation
The Nature Conservancy Africa,,ZAF,en,Johannesburg,@nature_africa,,Nature Conservancy Africa Podcast,podcaster,Covers nature conservation efforts
The Peace and Conflict Podcast,,ZAF,en,Johannesburg,@peaceandconflictpodcast,,Peace and Conflict Podcast,podcaster,Discusses peace initiatives in Africa
The Geopolitics of Africa Podcast,,ZAF,en,Johannesburg,@geopoliticsofafrica,,Geopolitics of Africa Podcast,podcaster,Explores African geopolitical issues
The African Biodiversity Network,,ZAF,en,Johannesburg,@africanbiodiversitynetwork,,African Biodiversity Network Podcast,podcaster,Focuses on biodiversity conservation
The Johannesburg Climate Action Network,,ZAF,en,Johannesburg,@johannesburgclimateaction,,Johannesburg Climate Action Podcast,podcaster,Local climate action initiatives
The African Environmental Podcast,,ZAF,en,Johannesburg,@africanenvironmentalpodcast,,African Environmental Podcast,podcaster,Covers environmental issues in Africa
The Johannesburg Peace Initiative,,ZAF,en,Johannesburg,@johannesburgpeaceinitiative,,Johannesburg Peace Initiative Podcast,podcaster,Promotes peace in Johannesburg
The African Renewable Energy Podcast,,ZAF,en,Johannesburg,@africanrenewableenergy,,African Renewable Energy Podcast,podcaster,Discusses renewable energy in Africa
The Johannesburg Geopolitical Podcast,,ZAF,en,Johannesburg,@johannesburggeopolitical,,Johannesburg Geopolitical Podcast,podcaster,Explores geopolitical issues in Johannesburg
The Sustainable Jungle,,ZAF,en,Johannesburg,@sustainablejungle,,Sustainable Jungle Podcast,podcaster,Focuses on sustainability and conservation topics.
The Just Us Podcast,,ZAF,en,Johannesburg,@justuspodcast,,Just Us Podcast,podcaster,Discusses social justice and environmental issues.
The Gareth Cliff Show,,ZAF,en,Johannesburg,@cliffcentralcom,,CliffCentral,podcaster,Covers a range of topics including geopolitics.
The Daily Maverick Show,,ZAF,en,Johannesburg,@dailymaverick,,Daily Maverick,podcaster,Focuses on current affairs and environmental issues.
The Burning Platform,,ZAF,en,Johannesburg,@burningplatformshow,,Burning Platform Podcast,podcaster,Discusses political and environmental topics.
The Conscious Conservationist,,ZAF,en,Johannesburg,@consciousconservationist,,Conscious Conservationist Podcast,podcaster,Focuses on conservation and biodiversity.
The Green Renaissance,,ZAF,en,Johannesburg,@greenrenaissance,,Green Renaissance Podcast,podcaster,Focuses on nature and sustainability stories.
The Eco Chat,,ZAF,en,Johannesburg,@ecochatpodcast,,Eco Chat Podcast,podcaster,Discusses eco-friendly living and climate action.
The African Nature Podcast,,ZAF,en,Johannesburg,@africannaturepodcast,,African Nature Podcast,podcaster,Covers African wildlife and conservation.
The Peace and Conflict Podcast,,ZAF,en,Johannesburg,@peaceconflictpod,,Peace and Conflict Podcast,podcaster,Focuses on peacebuilding and conflict resolution.
The Geopolitics Podcast,,ZAF,en,Johannesburg,@geopoliticspod,,Geopolitics Podcast,podcaster,Discusses global political issues and impacts.
The Climate Action Podcast,,ZAF,en,Johannesburg,@climateactionpod,,Climate Action Podcast,podcaster,Focuses on climate change solutions and actions.
The Nature's Voice Podcast,,ZAF,en,Johannesburg,@naturesvoicepod,,Nature's Voice Podcast,podcaster,Covers biodiversity and environmental protection.
The Environmentalist Podcast,,ZAF,en,Johannesburg,@environmentalistpod,,Environmentalist Podcast,podcaster,Discusses environmental issues and sustainability.
The African Wildlife Podcast,,ZAF,en,Johannesburg,@africanwildlifepod,,African Wildlife Podcast,podcaster,Focuses on wildlife conservation in Africa.
The Peacebuilding Podcast,,ZAF,en,Johannesburg,@peacebuildingpod,,Peacebuilding Podcast,podcaster,Covers peace initiatives and conflict prevention.
The Global Affairs Podcast,,ZAF,en,Johannesburg,@globalaffairspod,,Global Affairs Podcast,podcaster,Discusses international relations and geopolitics.
The Climate Change Podcast,,ZAF,en,Johannesburg,@climatechangepod,,Climate Change Podcast,podcaster,Focuses on climate change impacts and solutions.
The Biodiversity Podcast,,ZAF,en,Johannesburg,@biodiversitypod,,Biodiversity Podcast,podcaster,Covers biodiversity and conservation efforts.
The Environmental Justice Podcast,,ZAF,en,Johannesburg,@environmentaljusticepod,,Environmental Justice Podcast,podcaster,Discusses environmental justice and equity.
The African Conservation Podcast,,ZAF,en,Johannesburg,@africanconservationpod,,African Conservation Podcast,podcaster,Focuses on conservation efforts in Africa.
The Peace and Security Podcast,,ZAF,en,Johannesburg,@peaceandsecuritypod,,Peace and Security Podcast,podcaster,Covers peace and security issues globally.
The Global Climate Podcast,,ZAF,en,Johannesburg,@globalclimatepod,,Global Climate Podcast,podcaster,Discusses global climate change topics.
